{"type":"FeatureCollection","features":[{"type":"Feature","properties":{"country_code":"AU","region_code":"AU-WA","name":"Western Australia","native_name":"Western Australia","type":"State"},"geometry":{"type":"MultiPolygon","coordinates":[[[[128.131358,-15.03753],[128.194509,-15.126886],[128.186778,-15.190199],[128.125987,-15.134698],[128.131358,-15.03753]]],[[[128.416189,-14.956231],[128.440684,-15.038751],[128.358246,-14.956313],[128.35377,-14.869236],[128.416189,-14.956231]]],[[[126.500987,-13.873712],[126.553966,-13.875258],[126.61085,-13.901056],[126.515147,-13.90488],[126.500987,-13.873712]]],[[[129.000092,-31.689223],[128.218923,-32.017673],[128.017345,-32.084242],[127.766287,-32.123142],[127.288748,-32.27337],[126.677745,-32.316583],[126.372325,-32.28281],[126.18572,-32.232517],[126.078787,-32.280532],[126.007579,-32.27337],[125.87,-32.332983],[125.537275,-32.548379],[125.337827,-32.601515],[125.000255,-32.737237],[124.901914,-32.833659],[124.833991,-32.867698],[124.314952,-32.966078],[124.164806,-33.067966],[124.094737,-33.155694],[124.069672,-33.253595],[124.008311,-33.354181],[123.952485,-33.567315],[123.891612,-33.588149],[123.756847,-33.714125],[123.729015,-33.804946],[123.622813,-33.876642],[123.566661,-33.884373],[123.526622,-33.938653],[123.459727,-33.90016],[123.383311,-33.890883],[123.343598,-33.903497],[123.266612,-33.986505],[123.154633,-34.009454],[123.113617,-33.904474],[123.023123,-33.86061],[122.840831,-33.903741],[122.776622,-33.876642],[122.607432,-33.894789],[122.574555,-33.910821],[122.583018,-33.936944],[122.560313,-33.959161],[122.521821,-33.931085],[122.501964,-33.945489],[122.349864,-33.915297],[122.267751,-33.959242],[122.257823,-34.022068],[122.217621,-33.993341],[122.187266,-34.020685],[122.094737,-34.019138],[122.073578,-34.014418],[122.105805,-33.964044],[122.074229,-33.891534],[122.005707,-33.820733],[121.937022,-33.82879],[121.793712,-33.897149],[121.697276,-33.857192],[121.628429,-33.876397],[121.532888,-33.819513],[121.333751,-33.815199],[121.166352,-33.867934],[121.097667,-33.842462],[120.970551,-33.870375],[120.867686,-33.856134],[120.790375,-33.886],[120.562185,-33.892999],[120.527354,-33.936782],[120.394298,-33.97381],[120.278575,-33.938653],[120.178966,-33.931248],[120.100434,-33.952325],[120.002208,-33.926039],[119.806163,-33.984959],[119.572032,-34.142022],[119.469493,-34.313409],[119.483897,-34.358575],[119.559255,-34.383722],[119.479503,-34.404555],[119.408458,-34.37005],[119.376475,-34.411716],[119.401541,-34.458754],[119.364024,-34.49505],[119.333669,-34.451918],[119.301443,-34.445896],[119.269542,-34.466485],[119.26059,-34.522149],[119.229991,-34.532159],[119.200938,-34.497979],[119.116954,-34.472426],[118.839854,-34.452569],[118.887706,-34.500421],[118.789887,-34.518813],[118.727306,-34.558038],[118.732432,-34.598321],[118.757335,-34.603448],[118.724946,-34.635837],[118.442638,-34.740004],[118.38738,-34.825942],[118.398448,-34.900974],[118.160818,-34.945489],[118.199392,-35.016778],[118.106212,-34.987074],[117.83546,-35.031427],[117.843761,-35.060235],[117.888927,-35.08172],[117.901378,-35.041681],[117.951996,-35.089532],[118.001475,-35.088149],[117.932872,-35.120375],[117.684337,-35.046319],[117.626801,-35.080255],[117.61964,-35.137872],[117.340587,-35.017836],[117.323985,-35.032973],[117.191661,-35.007501],[117.140391,-35.062758],[117.052582,-35.02337],[116.949962,-35.013442],[116.877696,-35.054864],[116.736339,-35.007501],[116.728852,-35.028009],[116.658376,-35.028009],[116.637869,-35.050226],[116.465099,-35.000665],[116.39503,-34.949477],[116.382986,-34.924981],[116.503673,-34.939223],[116.387543,-34.857517],[116.372569,-34.863539],[116.398936,-34.903904],[116.37615,-34.917413],[116.096202,-34.838637],[115.978526,-34.835626],[115.981619,-34.801446],[115.915782,-34.701918],[115.612315,-34.445896],[115.290782,-34.301853],[115.183767,-34.301853],[115.118826,-34.363377],[115.010427,-34.24505],[115.009939,-34.163181],[114.971039,-34.082696],[114.961192,-33.859552],[114.988536,-33.78102],[114.956798,-33.682306],[115.003917,-33.616957],[114.988536,-33.521091],[115.045665,-33.537205],[115.118826,-33.616469],[115.194672,-33.644627],[115.367198,-33.63128],[115.5171,-33.512384],[115.625987,-33.308038],[115.701671,-33.297133],[115.710134,-33.270685],[115.697927,-33.193129],[115.66684,-33.287693],[115.674571,-33.024998],[115.600922,-32.661716],[115.700938,-32.512953],[115.639903,-32.608575],[115.639659,-32.656915],[115.714122,-32.78045],[115.717133,-32.741632],[115.658865,-32.628513],[115.748709,-32.637302],[115.769298,-32.602309],[115.714529,-32.537042],[115.745616,-32.418715],[115.707856,-32.369561],[115.73585,-32.333185],[115.673676,-32.27337],[115.73585,-32.264418],[115.756847,-32.185642],[115.72934,-32.07464],[115.743663,-31.92783],[115.721528,-31.772638],[115.680349,-31.648614],[115.4546,-31.303481],[115.312999,-30.990818],[115.180919,-30.827244],[115.060802,-30.522393],[115.008962,-30.320082],[115.022797,-30.262872],[114.974864,-30.214044],[114.988536,-30.145685],[114.942638,-30.03102],[114.967459,-29.902439],[114.946056,-29.658136],[114.97877,-29.479913],[114.842459,-29.108575],[114.60377,-28.838556],[114.577485,-28.785089],[114.589854,-28.655857],[114.531098,-28.522393],[114.310069,-28.230157],[114.166026,-28.106703],[114.097911,-27.862726],[114.143891,-27.687758],[114.012543,-27.315362],[113.590579,-26.675651],[113.312625,-26.415946],[113.299489,-26.338721],[113.24467,-26.240098],[113.15698,-26.151926],[113.258252,-26.185559],[113.275971,-26.234857],[113.306224,-25.996651],[113.327998,-26.274896],[113.38427,-26.382755],[113.3533,-26.274944],[113.377253,-26.2098],[113.362674,-26.012815],[113.396642,-26.17658],[113.413015,-26.155328],[113.451631,-26.159384],[113.503317,-26.376189],[113.486755,-26.479943],[113.507623,-26.469296],[113.525653,-26.354918],[113.51387,-26.273809],[113.543565,-26.287118],[113.565507,-26.565081],[113.593765,-26.553117],[113.625147,-26.439997],[113.644426,-26.48122],[113.628754,-26.598077],[113.662177,-26.600975],[113.669586,-26.652893],[113.694918,-26.61424],[113.772271,-26.587507],[113.812432,-26.599415],[113.813879,-26.563486],[113.870286,-26.52213],[113.884773,-26.342673],[113.781749,-26.241388],[113.684138,-26.221604],[113.648878,-26.139386],[113.577239,-26.089343],[113.557553,-25.940989],[113.518765,-25.919536],[113.511872,-25.853422],[113.420781,-25.728215],[113.422647,-25.654663],[113.51525,-25.509337],[113.520796,-25.600955],[113.58434,-25.632113],[113.60798,-25.704015],[113.675184,-25.780791],[113.727832,-25.79544],[113.722341,-25.866632],[113.756951,-25.885217],[113.70436,-26.148046],[113.728004,-26.197035],[113.795386,-26.206715],[113.84807,-26.12171],[113.878842,-26.043321],[113.854503,-25.944268],[113.909577,-25.976373],[113.906016,-26.119317],[113.948087,-26.139464],[113.935469,-26.191722],[113.969981,-26.33172],[114.021534,-26.390888],[114.103776,-26.447882],[114.207361,-26.375541],[114.234371,-26.316584],[114.191895,-26.195862],[114.22755,-26.06463],[114.186534,-25.978936],[114.268565,-25.989516],[114.234223,-25.927423],[114.258556,-25.841892],[114.155284,-25.789727],[114.129161,-25.715265],[114.049327,-25.646905],[113.928396,-25.449802],[113.802419,-25.171808],[113.692149,-25.105239],[113.645763,-24.993097],[113.666759,-24.93377],[113.610606,-24.892755],[113.60434,-24.728285],[113.439464,-24.53281],[113.391449,-24.41367],[113.385265,-24.249119],[113.433279,-24.17018],[113.414561,-24.049412],[113.455333,-23.990655],[113.459727,-23.910333],[113.60434,-23.624688],[113.737559,-23.527032],[113.768809,-23.457696],[113.782481,-23.327081],[113.748302,-23.162286],[113.811534,-23.051365],[113.807384,-22.930597],[113.759776,-22.788751],[113.713634,-22.741469],[113.658946,-22.727797],[113.67213,-22.668715],[113.646658,-22.577732],[113.731456,-22.479587],[113.89796,-22.049249],[114.035818,-21.837823],[114.15919,-21.791925],[114.176036,-21.822198],[114.127696,-21.922784],[114.077485,-22.17547],[114.12436,-22.275323],[114.109711,-22.330987],[114.147472,-22.294529],[114.171397,-22.317478],[114.117686,-22.398858],[114.122406,-22.504164],[114.179698,-22.521742],[114.221934,-22.46795],[114.286632,-22.443292],[114.337413,-22.493829],[114.367035,-22.478285],[114.467621,-22.172296],[114.497813,-22.16367],[114.522309,-22.069268],[114.495616,-22.00449],[114.550304,-22.041925],[114.646739,-21.843357],[114.928966,-21.693943],[115.105154,-21.665216],[115.478526,-21.501153],[115.625987,-21.321954],[115.818696,-21.225763],[115.877615,-21.115167],[115.936697,-21.059015],[116.151541,-20.969985],[116.1963,-20.846856],[116.289399,-20.863214],[116.347992,-20.828546],[116.451508,-20.814711],[116.520518,-20.751153],[116.587087,-20.735284],[116.699392,-20.659356],[116.790863,-20.534926],[116.845388,-20.539321],[116.820323,-20.5499],[116.783946,-20.657159],[116.855479,-20.712091],[117.062511,-20.621677],[117.107677,-20.635186],[117.154063,-20.596368],[117.181326,-20.673517],[117.311534,-20.722833],[117.513438,-20.706313],[117.602712,-20.657322],[117.674815,-20.672133],[117.839366,-20.616876],[117.878754,-20.565118],[117.91863,-20.555108],[117.940684,-20.492771],[118.15089,-20.356134],[118.230805,-20.371677],[118.322276,-20.335707],[118.368826,-20.362074],[118.606293,-20.309503],[118.681814,-20.323663],[118.805675,-20.28102],[118.958832,-20.104181],[118.97462,-20.050388],[119.09547,-19.966729],[119.161388,-20.00742],[119.163259,-19.966241],[119.192393,-19.958917],[119.435802,-20.013604],[119.463064,-19.999933],[119.523448,-20.053155],[119.589854,-20.065851],[119.664806,-20.010431],[119.71754,-20.003676],[119.734386,-19.96266],[120.238292,-19.906834],[120.954356,-19.633722],[121.193533,-19.472426],[121.416189,-19.221612],[121.519379,-19.069594],[121.642589,-18.810235],[121.646251,-18.763442],[121.613292,-18.712498],[121.715587,-18.703709],[121.769054,-18.657403],[121.77475,-18.606134],[121.731619,-18.580987],[121.773936,-18.545668],[121.811046,-18.462579],[121.91033,-18.464451],[122.022146,-18.384698],[122.062266,-18.320001],[122.347016,-18.121189],[122.369151,-18.063897],[122.344086,-17.983005],[122.248546,-17.96087],[122.190929,-17.998793],[122.16977,-17.978285],[122.207856,-17.91131],[122.205414,-17.71087],[122.14324,-17.563653],[122.172048,-17.261163],[122.279633,-17.139255],[122.256602,-17.12127],[122.276052,-17.089288],[122.412771,-16.972752],[122.45102,-16.950453],[122.450857,-16.981622],[122.478282,-16.970961],[122.472911,-16.92018],[122.594981,-16.970961],[122.526134,-16.861749],[122.582367,-16.779555],[122.642833,-16.800226],[122.7588,-16.758722],[122.820974,-16.779718],[122.746104,-16.702895],[122.7588,-16.604425],[122.783946,-16.565851],[122.837413,-16.561619],[122.886404,-16.512302],[122.916189,-16.415948],[123.020274,-16.382582],[122.998383,-16.422947],[123.05836,-16.453546],[123.053722,-16.470636],[122.990001,-16.473403],[122.990408,-16.529229],[122.959809,-16.580336],[122.980724,-16.625421],[123.021007,-16.614353],[123.042817,-16.692478],[123.067393,-16.683526],[123.102061,-16.712091],[123.132172,-16.686293],[123.094493,-16.769301],[123.15089,-16.807712],[123.143321,-16.913751],[123.260427,-17.014744],[123.271739,-17.085626],[123.368175,-17.228448],[123.38795,-17.315606],[123.501475,-17.429783],[123.570811,-17.595147],[123.587657,-17.515069],[123.560802,-17.447361],[123.567638,-17.361993],[123.612804,-17.215753],[123.644298,-17.184747],[123.5796,-17.094008],[123.594981,-16.985121],[123.656016,-16.995782],[123.680186,-17.060317],[123.698009,-17.046645],[123.733409,-17.066095],[123.86085,-17.210382],[123.913341,-17.21559],[123.85377,-17.163263],[123.794607,-17.000095],[123.863048,-17.025567],[123.841645,-16.946547],[123.937511,-16.867852],[123.953298,-16.828546],[123.931407,-16.800226],[123.902599,-16.858982],[123.792491,-16.89072],[123.768077,-16.878513],[123.708263,-16.741876],[123.595551,-16.665297],[123.509939,-16.653904],[123.566173,-16.615981],[123.553966,-16.594171],[123.609223,-16.546319],[123.533458,-16.532159],[123.543468,-16.56699],[123.512543,-16.566664],[123.424164,-16.491143],[123.492524,-16.500258],[123.465831,-16.4638],[123.643321,-16.525974],[123.588145,-16.505466],[123.654063,-16.48447],[123.506114,-16.407973],[123.553966,-16.395603],[123.711681,-16.429783],[123.631602,-16.364679],[123.711681,-16.38128],[123.711681,-16.333591],[123.65797,-16.327732],[123.619151,-16.293145],[123.601817,-16.31992],[123.539724,-16.265232],[123.576427,-16.242446],[123.553966,-16.210626],[123.57016,-16.176935],[123.603363,-16.175551],[123.594981,-16.155938],[123.719086,-16.155938],[123.724132,-16.136326],[123.806895,-16.191095],[123.766856,-16.20436],[123.82838,-16.231134],[123.813487,-16.246026],[123.732677,-16.258966],[123.862641,-16.327325],[123.866059,-16.368097],[123.835216,-16.368259],[123.863048,-16.429783],[123.889659,-16.429783],[123.891856,-16.3388],[123.992849,-16.377862],[123.951427,-16.293634],[123.986013,-16.278904],[123.910899,-16.217462],[124.126231,-16.272231],[124.167166,-16.29697],[124.222667,-16.395603],[124.342133,-16.407973],[124.386078,-16.35117],[124.473643,-16.393324],[124.768728,-16.385349],[124.803722,-16.418227],[124.878917,-16.420668],[124.903982,-16.402439],[124.840831,-16.405206],[124.697276,-16.344415],[124.401541,-16.329278],[124.378429,-16.214939],[124.394542,-16.166599],[124.425548,-16.153578],[124.434337,-16.057794],[124.465831,-16.060479],[124.472667,-16.115004],[124.520356,-16.176446],[124.546723,-16.128106],[124.596202,-16.115004],[124.583751,-15.988865],[124.615977,-15.977227],[124.609711,-15.898696],[124.642589,-15.865655],[124.684255,-15.881036],[124.732677,-15.806573],[124.609711,-15.806573],[124.486339,-15.998305],[124.493175,-15.950453],[124.438487,-15.826349],[124.404307,-15.87477],[124.376475,-15.676202],[124.396821,-15.676202],[124.404307,-15.635186],[124.417979,-15.669366],[124.427501,-15.621515],[124.396821,-15.608005],[124.403331,-15.559259],[124.376475,-15.525323],[124.447765,-15.525079],[124.472911,-15.468683],[124.629649,-15.504978],[124.640147,-15.415948],[124.654063,-15.472345],[124.682628,-15.473891],[124.683442,-15.392348],[124.732677,-15.357517],[124.705333,-15.33294],[124.669688,-15.352309],[124.667003,-15.324395],[124.697927,-15.298435],[124.663748,-15.291925],[124.663748,-15.250421],[124.708751,-15.250421],[124.715587,-15.274591],[124.756602,-15.285252],[124.739513,-15.33294],[124.797862,-15.291925],[124.83546,-15.318048],[124.822032,-15.354099],[124.920421,-15.361017],[124.993337,-15.422296],[124.979747,-15.477634],[125.017589,-15.463311],[125.049815,-15.498224],[125.061697,-15.44964],[125.185232,-15.517836],[125.07252,-15.418878],[125.08961,-15.347263],[125.144298,-15.313084],[125.038097,-15.281427],[124.917735,-15.339776],[124.885265,-15.296808],[124.924653,-15.229262],[124.970551,-15.207778],[125.006521,-15.221287],[125.055431,-15.162286],[125.013845,-15.148614],[125.003591,-15.182061],[124.979747,-15.162286],[124.869884,-15.250421],[124.869884,-15.165948],[124.834239,-15.164727],[124.883637,-15.10475],[124.972911,-15.134942],[125.013031,-15.084649],[125.021251,-15.100274],[125.031505,-15.061619],[125.000173,-14.970392],[125.041759,-14.990981],[125.082042,-14.976658],[125.061697,-15.031915],[125.075938,-15.059828],[125.098399,-15.029067],[125.123709,-15.038751],[125.116873,-15.069513],[125.165294,-15.162286],[125.176117,-15.116306],[125.145763,-15.028009],[125.165294,-15.011407],[125.172618,-15.044529],[125.246593,-15.066095],[125.288259,-15.140558],[125.43214,-15.137953],[125.425141,-15.116143],[125.37379,-15.107599],[125.390636,-15.076593],[125.366466,-15.051446],[125.429535,-15.009047],[125.280935,-14.993422],[125.287608,-14.956231],[125.253429,-14.970392],[125.186778,-14.945489],[125.215831,-14.90838],[125.289724,-14.920099],[125.308849,-14.885024],[125.202159,-14.844822],[125.188731,-14.779392],[125.160899,-14.778416],[125.135997,-14.735935],[125.211436,-14.70086],[125.204926,-14.668145],[125.260265,-14.671563],[125.30128,-14.634698],[125.232921,-14.61419],[125.26588,-14.575616],[125.314789,-14.573175],[125.347667,-14.498712],[125.342784,-14.607354],[125.390636,-14.539158],[125.439464,-14.638849],[125.466319,-14.524835],[125.493663,-14.545343],[125.493663,-14.490655],[125.555024,-14.497491],[125.539561,-14.553318],[125.589203,-14.545343],[125.617198,-14.4013],[125.58839,-14.351007],[125.585623,-14.245701],[125.618175,-14.223728],[125.706554,-14.291436],[125.733165,-14.270929],[125.710948,-14.333673],[125.658051,-14.333103],[125.684337,-14.506768],[125.637706,-14.634698],[125.732921,-14.398533],[125.733165,-14.470147],[125.798106,-14.434828],[125.805186,-14.459568],[125.849946,-14.457615],[125.817231,-14.484308],[125.833018,-14.584568],[125.918142,-14.637791],[125.925059,-14.596856],[125.903819,-14.569513],[125.925059,-14.51865],[125.983409,-14.545343],[126.000743,-14.511163],[126.04127,-14.508722],[125.980235,-14.380792],[126.060883,-14.35003],[126.062999,-14.23561],[126.144786,-14.195245],[126.134451,-14.094903],[125.992442,-14.071466],[125.980235,-13.990411],[126.020518,-14.031915],[126.047374,-13.984063],[126.074067,-14.026056],[126.096365,-14.025079],[126.085948,-13.969415],[126.017345,-13.922052],[126.060069,-13.931817],[126.098399,-13.887384],[126.091563,-13.925388],[126.151622,-13.922133],[126.130382,-13.956231],[126.151622,-13.969903],[126.110606,-14.017755],[126.22047,-13.956231],[126.165863,-14.010919],[126.214203,-14.039646],[126.169119,-14.049005],[126.165863,-14.085382],[126.21225,-14.081476],[126.180349,-14.133233],[126.199962,-14.126886],[126.191091,-14.159601],[126.241466,-14.185154],[126.226573,-14.212986],[126.282074,-14.208591],[126.288829,-14.230076],[126.310802,-14.192315],[126.345063,-14.184666],[126.293712,-14.136489],[126.343272,-14.072931],[126.329112,-14.059259],[126.377208,-14.042657],[126.43214,-13.969903],[126.469981,-13.991957],[126.527517,-13.928969],[126.569184,-13.94199],[126.526866,-13.963474],[126.453298,-14.077569],[126.52768,-14.072931],[126.493663,-14.113377],[126.521495,-14.147393],[126.569184,-14.140558],[126.569184,-14.195245],[126.603526,-14.230076],[126.61085,-14.175388],[126.651866,-14.143976],[126.651866,-14.066095],[126.692719,-14.120782],[126.733735,-14.072931],[126.747406,-14.010919],[126.720225,-14.031915],[126.707205,-13.983575],[126.829763,-13.982599],[126.843028,-13.969903],[126.810069,-13.949395],[126.85727,-13.949395],[126.807872,-13.923517],[126.747406,-13.791762],[126.814464,-13.768324],[126.843028,-13.818536],[126.877208,-13.798028],[126.845388,-13.754327],[126.913748,-13.76393],[126.932384,-13.757582],[126.90504,-13.743341],[126.952891,-13.723565],[127.02003,-13.777765],[127.021169,-13.825942],[127.07016,-13.828058],[127.055349,-13.887384],[127.085134,-13.883884],[127.129731,-13.967706],[127.172618,-13.915216],[127.165212,-13.880548],[127.196951,-13.949314],[127.236827,-13.892022],[127.332693,-13.961196],[127.330251,-13.901056],[127.398611,-13.963067],[127.418468,-13.94199],[127.448497,-13.986912],[127.450206,-14.057306],[127.480479,-14.079197],[127.504242,-14.065606],[127.666026,-14.178399],[127.75587,-14.284845],[127.789561,-14.36712],[127.823578,-14.380792],[127.826915,-14.436619],[127.87143,-14.422459],[127.857921,-14.483819],[127.887218,-14.474054],[127.954763,-14.532892],[127.947276,-14.573175],[128.005382,-14.560724],[128.066417,-14.633477],[128.227794,-14.709731],[128.227794,-14.74391],[128.197765,-14.731622],[128.179454,-14.754083],[128.190603,-14.829848],[128.117931,-14.853774],[128.137462,-14.862563],[128.132823,-14.895196],[128.068533,-15.106622],[128.075694,-15.277765],[128.042735,-15.291925],[128.072276,-15.404474],[128.024262,-15.496515],[128.101329,-15.424574],[128.118419,-15.335138],[128.100597,-15.229913],[128.125173,-15.182061],[128.224457,-15.260186],[128.289317,-15.401788],[128.291759,-15.290704],[128.220225,-15.205662],[128.195811,-15.056817],[128.313487,-14.904962],[128.350108,-15.037286],[128.364919,-15.046157],[128.364919,-14.984063],[128.417979,-15.039727],[128.450206,-15.042657],[128.459809,-15.001642],[128.406016,-14.884454],[128.438975,-14.849867],[128.395763,-14.795994],[128.5324,-14.752862],[128.71339,-14.79754],[128.748546,-14.82643],[129.000116,-14.868151],[129.000092,-31.689223]]],[[[113.216645,-26.068048],[113.207042,-26.139744],[113.046153,-25.940037],[113.012426,-25.845132],[112.953868,-25.773045],[112.919444,-25.523614],[112.959483,-25.482517],[113.007823,-25.496189],[113.05128,-25.716974],[113.137543,-25.885919],[113.115571,-25.963311],[113.14503,-25.969008],[113.144705,-25.946222],[113.216645,-26.068048]]],[[[113.069347,-25.276462],[113.079112,-25.062433],[113.117686,-25.009454],[113.069347,-25.276462]]],[[[113.151866,-24.926935],[113.117686,-24.995212],[113.151866,-24.755629],[113.134939,-24.892022],[113.151866,-24.926935]]],[[[115.464529,-20.730157],[115.408051,-20.853692],[115.365245,-20.876886],[115.335704,-20.849705],[115.306977,-20.870538],[115.310557,-20.801853],[115.428966,-20.669122],[115.451182,-20.66839],[115.464529,-20.730157]]],[[[124.417979,-15.254083],[124.451996,-15.264744],[124.431651,-15.308689],[124.396821,-15.299412],[124.376475,-15.319268],[124.336192,-15.300063],[124.417979,-15.254083]]],[[[124.549571,-15.297459],[124.650157,-15.395115],[124.531261,-15.440362],[124.517751,-15.413263],[124.58253,-15.373956],[124.506684,-15.381443],[124.514171,-15.360935],[124.497732,-15.377618],[124.458832,-15.360935],[124.479747,-15.317966],[124.506684,-15.326104],[124.504405,-15.279392],[124.568696,-15.244236],[124.549571,-15.297459]]],[[[124.924571,-14.936293],[124.927013,-15.029229],[124.86378,-14.972589],[124.886974,-14.952813],[124.903982,-14.970392],[124.924571,-14.936293]]],[[[125.152843,-14.44378],[125.208751,-14.481622],[125.177745,-14.542169],[125.204926,-14.593032],[125.153575,-14.610935],[125.137462,-14.647638],[125.120616,-14.618341],[125.091563,-14.618585],[125.096446,-14.549005],[125.137462,-14.559015],[125.138927,-14.509698],[125.115571,-14.49684],[125.152843,-14.44378]]],[[[115.660004,-32.149835],[115.678477,-32.216485],[115.680512,-32.239353],[115.660004,-32.232517],[115.660004,-32.149835]]],[[[115.440142,-32.021834],[115.524607,-31.993807],[115.552192,-32.006203],[115.440142,-32.021834]]],[[[113.679618,-28.452241],[113.720213,-28.428124],[113.749539,-28.427576],[113.684598,-28.486277],[113.679618,-28.452241]]]]}},{"type":"Feature","properties":{"country_code":"AU","region_code":"AU-NT","name":"Northern Territory","native_name":"Northern Territory","type":"Territory"},"geometry":{"type":"MultiPolygon","coordinates":[[[[129.583018,-14.803806],[129.633637,-14.870701],[129.611827,-14.867364],[129.583018,-14.803806]]],[[[129.533458,-14.798517],[129.587087,-14.883477],[129.591482,-14.963637],[129.501964,-14.798517],[129.533458,-14.798517]]],[[[134.854259,-12.037774],[134.92628,-12.068129],[134.90797,-12.117852],[134.878103,-12.100274],[134.854259,-12.037774]]],[[[134.908472,-12.022625],[134.985986,-12.04145],[134.948729,-12.054669],[134.908472,-12.022625]]],[[[135.121962,-11.929696],[135.057697,-11.953185],[135.046072,-11.941502],[135.053888,-11.919437],[135.121962,-11.929696]]],[[[133.408702,-11.592055],[133.484386,-11.601983],[133.396169,-11.623224],[133.408702,-11.653497],[133.360199,-11.660333],[133.359548,-11.617364],[133.408702,-11.592055]]],[[[133.476899,-11.454848],[133.510997,-11.503188],[133.442882,-11.503188],[133.39503,-11.544203],[133.39503,-11.489028],[133.476899,-11.454848]]],[[[129.000116,-14.868151],[129.092052,-14.898207],[129.120291,-14.946384],[129.18393,-14.981866],[129.175548,-15.058526],[129.199229,-15.117364],[129.152599,-15.223728],[129.199962,-15.167413],[129.221446,-15.169692],[129.214122,-15.2374],[129.243663,-15.113377],[129.263031,-15.107599],[129.22877,-14.836602],[129.263031,-14.887872],[129.324392,-14.862074],[129.372895,-14.904962],[129.476573,-14.93377],[129.51295,-15.007989],[129.572439,-15.053643],[129.598155,-15.11712],[129.585216,-15.169692],[129.661957,-15.13836],[129.677257,-15.199151],[129.730968,-15.186293],[129.652029,-15.076918],[129.611827,-14.94256],[129.649181,-14.832696],[129.785655,-14.861505],[129.866466,-14.839044],[129.935395,-14.78338],[129.982432,-14.805922],[129.982432,-14.709731],[129.955251,-14.755629],[129.798595,-14.816827],[129.762706,-14.819594],[129.796886,-14.764418],[129.724132,-14.790704],[129.669932,-14.753106],[129.67335,-14.722833],[129.606781,-14.671563],[129.588064,-14.613458],[129.717621,-14.59588],[129.789399,-14.531671],[129.667328,-14.575372],[129.53533,-14.545343],[129.358084,-14.408787],[129.372895,-14.329278],[129.493175,-14.144464],[129.482188,-14.051853],[129.53004,-14.051853],[129.538829,-14.081313],[129.585216,-14.092869],[129.605724,-13.997247],[129.609141,-14.028497],[129.632579,-14.035252],[129.735606,-13.991795],[129.749197,-13.931817],[129.715994,-13.867446],[129.815929,-13.761977],[129.803722,-13.743341],[129.783214,-13.757582],[129.785492,-13.675714],[129.837738,-13.510512],[129.891287,-13.437677],[129.914724,-13.511407],[129.968923,-13.53045],[130.112804,-13.449151],[130.133962,-13.461033],[130.254161,-13.323826],[130.332286,-13.346368],[130.313975,-13.308526],[130.242524,-13.278416],[130.160492,-13.171482],[130.122732,-13.164646],[130.129893,-12.940525],[130.181,-12.901056],[130.225108,-12.942071],[130.318614,-12.90602],[130.351817,-12.842462],[130.35434,-12.672052],[130.400157,-12.681329],[130.403575,-12.652114],[130.448009,-12.626723],[130.516124,-12.654067],[130.494965,-12.619073],[130.506847,-12.596449],[130.586436,-12.709242],[130.692882,-12.700616],[130.598806,-12.674493],[130.560395,-12.628351],[130.617524,-12.603936],[130.57838,-12.58172],[130.604177,-12.504571],[130.59254,-12.452407],[130.620372,-12.436944],[130.57838,-12.400811],[130.641124,-12.383233],[130.783865,-12.434991],[130.79005,-12.585138],[130.811046,-12.537367],[130.899913,-12.639825],[130.90919,-12.597833],[130.968598,-12.626723],[130.87379,-12.513604],[130.968598,-12.537367],[130.882823,-12.451349],[130.824718,-12.447931],[130.824718,-12.400811],[130.858735,-12.393324],[130.855479,-12.368259],[130.907237,-12.331964],[131.05128,-12.373468],[131.02475,-12.234145],[130.996104,-12.191339],[131.026134,-12.147149],[131.077891,-12.167413],[131.105968,-12.146254],[131.257335,-12.236261],[131.236176,-12.201593],[131.296235,-12.043878],[131.346853,-12.219659],[131.447765,-12.289809],[131.612804,-12.296645],[131.784353,-12.27044],[131.896983,-12.215916],[131.933849,-12.26393],[132.057872,-12.306736],[132.216319,-12.208429],[132.251313,-12.156345],[132.278331,-12.228204],[132.346039,-12.201593],[132.379893,-12.215997],[132.421641,-12.303643],[132.387543,-12.380304],[132.449392,-12.300388],[132.422862,-12.231622],[132.439626,-12.15488],[132.563975,-12.091567],[132.679047,-12.136814],[132.757579,-12.133396],[132.634532,-12.067153],[132.652192,-11.848565],[132.593028,-11.784438],[132.695567,-11.653497],[132.578868,-11.611017],[132.495372,-11.47617],[132.369884,-11.434991],[132.31129,-11.461521],[132.232758,-11.457696],[132.106456,-11.523126],[132.042817,-11.484145],[132.030772,-11.45086],[132.057953,-11.43434],[132.040701,-11.418634],[131.990489,-11.425063],[131.982188,-11.399672],[131.947765,-11.394464],[131.976085,-11.351251],[131.927745,-11.351251],[131.925548,-11.320896],[131.870942,-11.305597],[131.767589,-11.310805],[131.804861,-11.29046],[131.789724,-11.26336],[131.838878,-11.277439],[131.819102,-11.201593],[131.8685,-11.220798],[131.882498,-11.17197],[131.940278,-11.251397],[131.983246,-11.226251],[131.981619,-11.13006],[132.07781,-11.192478],[132.085948,-11.228936],[132.114513,-11.208754],[132.10727,-11.331964],[132.127778,-11.343683],[132.140636,-11.303399],[132.174653,-11.406427],[132.203868,-11.410333],[132.188324,-11.351251],[132.236176,-11.351251],[132.188324,-11.303399],[132.190766,-11.216892],[132.147472,-11.157322],[132.161306,-11.123712],[132.285167,-11.268487],[132.277517,-11.162205],[132.319591,-11.161798],[132.343028,-11.122003],[132.383474,-11.214451],[132.37794,-11.283136],[132.403982,-11.283136],[132.445079,-11.212498],[132.474946,-11.234145],[132.517345,-11.338149],[132.537852,-11.330743],[132.613536,-11.406427],[132.674164,-11.508396],[132.73699,-11.508233],[132.833263,-11.399672],[132.894867,-11.418878],[132.898936,-11.37184],[132.867442,-11.338149],[132.910981,-11.331801],[133.07602,-11.509942],[133.074229,-11.560968],[133.166759,-11.70436],[133.261241,-11.729587],[133.292003,-11.688246],[133.34669,-11.688246],[133.364431,-11.697361],[133.31837,-11.734633],[133.323741,-11.759454],[133.372406,-11.761],[133.407237,-11.72381],[133.422211,-11.742852],[133.405284,-11.766778],[133.478526,-11.790785],[133.532074,-11.749119],[133.532074,-11.865818],[133.55836,-11.811212],[133.589854,-11.79811],[133.622081,-11.833266],[133.655284,-11.821384],[133.682384,-11.770196],[133.751231,-11.770196],[133.802501,-11.714939],[133.885265,-11.739435],[133.915782,-11.722345],[133.938975,-11.757908],[133.895274,-11.79811],[133.846365,-11.806817],[133.843761,-11.855239],[133.943126,-11.91367],[134.056,-11.844822],[134.087087,-11.927911],[134.13795,-11.87949],[134.195079,-11.947686],[134.167817,-11.976658],[134.192882,-12.078709],[134.285004,-11.968194],[134.428966,-12.05755],[134.594249,-12.064386],[134.704763,-11.960626],[134.768565,-11.947686],[134.800955,-12.03867],[134.836192,-12.037856],[134.861095,-12.12656],[134.967052,-12.146091],[135.07016,-12.259942],[135.147221,-12.243767],[135.21759,-12.300823],[135.229991,-12.274591],[135.170075,-12.228222],[135.258311,-12.222101],[135.301929,-12.258958],[135.349294,-12.236017],[135.222684,-12.19133],[135.313487,-12.153741],[135.302948,-12.12831],[135.324728,-12.11087],[135.41505,-12.084242],[135.408794,-12.10593],[135.460219,-12.113572],[135.536242,-12.062265],[135.53528,-12.080621],[135.587901,-12.098565],[135.711997,-12.018483],[135.635753,-12.023533],[135.581065,-12.05755],[135.565826,-12.025501],[135.600597,-11.95672],[135.645681,-11.968194],[135.700938,-11.93255],[135.739268,-11.941502],[135.875255,-11.84588],[135.878184,-11.75628],[135.936778,-11.777032],[135.903417,-11.849899],[135.811209,-11.951918],[135.716907,-12.003019],[135.91627,-11.968194],[135.82838,-12.005548],[135.650073,-12.164576],[135.669031,-12.237138],[135.731944,-12.311456],[135.880138,-12.151625],[135.912608,-12.182306],[136.053477,-12.064386],[135.935395,-12.213637],[135.974457,-12.264581],[136.060232,-12.232192],[136.062836,-12.264581],[135.985118,-12.36297],[135.993337,-12.393243],[136.013845,-12.383396],[136.023204,-12.455662],[136.050059,-12.458185],[136.070811,-12.427504],[136.090831,-12.447849],[136.149099,-12.434991],[136.173595,-12.461602],[136.252696,-12.441095],[136.304535,-12.383559],[136.368175,-12.239435],[136.332205,-12.203546],[136.234943,-12.21116],[136.177013,-12.170831],[136.22462,-12.153741],[136.283539,-12.065688],[136.336274,-12.050063],[136.450713,-11.942333],[136.51231,-11.940792],[136.564322,-11.89156],[136.578032,-11.91675],[136.480169,-11.958393],[136.470251,-11.986425],[136.489683,-12.006687],[136.533289,-11.993246],[136.560134,-12.079251],[136.586626,-12.083353],[136.590575,-12.174278],[136.663585,-12.263604],[136.690603,-12.28281],[136.745372,-12.265802],[136.76588,-12.242608],[136.752778,-12.225763],[136.700846,-12.19062],[136.67944,-12.204699],[136.685793,-12.184385],[136.760916,-12.164483],[136.87638,-12.223414],[136.926911,-12.288968],[136.927816,-12.348983],[136.983653,-12.345473],[136.908677,-12.388972],[136.771177,-12.541406],[136.805512,-12.456476],[136.740245,-12.475763],[136.761285,-12.574338],[136.701182,-12.616143],[136.679222,-12.671292],[136.690138,-12.713272],[136.608409,-12.714939],[136.610688,-12.830336],[136.586274,-12.823012],[136.559255,-12.745212],[136.527301,-12.754734],[136.532428,-12.804426],[136.47169,-12.773858],[136.489757,-12.850763],[136.545665,-12.87184],[136.545421,-12.912856],[136.636944,-12.954941],[136.657494,-12.995739],[136.652029,-13.013442],[136.602061,-12.982354],[136.581716,-13.014068],[136.55524,-12.963762],[136.496755,-12.975193],[136.498302,-13.007989],[136.567231,-13.058201],[136.531334,-13.155083],[136.513212,-13.143144],[136.481245,-13.166464],[136.472341,-13.242364],[136.457367,-13.250584],[136.443858,-13.216404],[136.342625,-13.321538],[136.322001,-13.307989],[136.344737,-13.281345],[136.337524,-13.248636],[136.365532,-13.254945],[136.388194,-13.225763],[136.367036,-13.19487],[136.371593,-13.065362],[136.332856,-13.046882],[136.304194,-13.090993],[136.30836,-13.162774],[136.273448,-13.160414],[136.249278,-13.129653],[136.232188,-13.150567],[136.245372,-13.197035],[136.158618,-13.262878],[136.138734,-13.206813],[136.147634,-13.122247],[136.10399,-13.158805],[136.085867,-13.230227],[136.053477,-13.230076],[136.053477,-13.311944],[136.008285,-13.215505],[135.977545,-13.231961],[135.956811,-13.288021],[135.942839,-13.256149],[135.911111,-13.284198],[135.883429,-13.367306],[135.920897,-13.377495],[135.922647,-13.415117],[135.969435,-13.425652],[135.96461,-13.449151],[135.919877,-13.464104],[135.880528,-13.430094],[135.854747,-13.455987],[135.869395,-13.539809],[135.844837,-13.600186],[135.884686,-13.666812],[135.91627,-13.653985],[135.923106,-13.675063],[135.886729,-13.713637],[135.901378,-13.738865],[135.9699,-13.742283],[136.037364,-13.654392],[136.077891,-13.662693],[136.004893,-13.798028],[135.991384,-13.901056],[135.923106,-13.959649],[135.909434,-14.195245],[135.86964,-14.192071],[135.759125,-14.265395],[135.667741,-14.427264],[135.609386,-14.452569],[135.532258,-14.581084],[135.522634,-14.651544],[135.453787,-14.685642],[135.434093,-14.720636],[135.368175,-14.722833],[135.469574,-14.948012],[135.551117,-15.019138],[135.65268,-15.042413],[135.717621,-15.114435],[135.759044,-15.115411],[135.861013,-15.175958],[135.951671,-15.264418],[136.22462,-15.408624],[136.273204,-15.559503],[136.348399,-15.613865],[136.416515,-15.621515],[136.528575,-15.719008],[136.594737,-15.71087],[136.612071,-15.754653],[136.722911,-15.862237],[136.715587,-15.935968],[136.786957,-15.900486],[136.925548,-15.934666],[136.929861,-15.895278],[136.991873,-15.86419],[137.045909,-15.922296],[137.250255,-16.020603],[137.361176,-16.122166],[137.746104,-16.25213],[137.866873,-16.437107],[138.000173,-16.541599],[138.000187,-25.999911],[129.000116,-25.999911],[129.000116,-14.868151]]],[[[136.670421,-15.663181],[136.711925,-15.703546],[136.663585,-15.778578],[136.615733,-15.714044],[136.670421,-15.663181]]],[[[136.800629,-15.642022],[136.834972,-15.682387],[136.78004,-15.672947],[136.790782,-15.722263],[136.731781,-15.744399],[136.731781,-15.648858],[136.800629,-15.642022]]],[[[137.077891,-15.751235],[137.106379,-15.774224],[137.072894,-15.846961],[137.000336,-15.787042],[136.981619,-15.712009],[136.934725,-15.721324],[136.963969,-15.640429],[136.988766,-15.660717],[136.994756,-15.592776],[137.083193,-15.652196],[137.077891,-15.751235]]],[[[136.615733,-15.538995],[136.587901,-15.635186],[136.498546,-15.627699],[136.524913,-15.534275],[136.602794,-15.516371],[136.615733,-15.538995]]],[[[136.895681,-15.587498],[136.848481,-15.635186],[136.841645,-15.553318],[136.883311,-15.498142],[136.895681,-15.587498]]],[[[135.766754,-14.86821],[135.762679,-14.900902],[135.687246,-14.902892],[135.727829,-14.834527],[135.766754,-14.86821]]],[[[136.811697,-13.808852],[136.810313,-13.808282],[136.818126,-13.801365],[136.811697,-13.808852]]],[[[136.234223,-13.666436],[136.288585,-13.728611],[136.249522,-13.742283],[136.28004,-13.791762],[136.236095,-13.847263],[136.197439,-13.853204],[136.211111,-13.825942],[136.177013,-13.763849],[136.153494,-13.770685],[136.156505,-13.839532],[136.11671,-13.816664],[136.114757,-13.723565],[136.164887,-13.742364],[136.195323,-13.66961],[136.234223,-13.666436]]],[[[136.951508,-14.181573],[136.951508,-14.277765],[136.903087,-14.298923],[136.733084,-14.256117],[136.680512,-14.285252],[136.639415,-14.280206],[136.426768,-14.195245],[136.324067,-14.229587],[136.437348,-14.120375],[136.409679,-13.997247],[136.430186,-13.87713],[136.409679,-13.818536],[136.512169,-13.834082],[136.530145,-13.785956],[136.561046,-13.819757],[136.574067,-13.798028],[136.594737,-13.81227],[136.594737,-13.784356],[136.628591,-13.7763],[136.574067,-13.723565],[136.572276,-13.686212],[136.615571,-13.684747],[136.620942,-13.717706],[136.718272,-13.647719],[136.724132,-13.687188],[136.676524,-13.743748],[136.725597,-13.763849],[136.7046,-13.791762],[136.731781,-13.839532],[136.81422,-13.849705],[136.838064,-13.82586],[136.839366,-13.801039],[136.819184,-13.800226],[136.841645,-13.750177],[136.903087,-13.757582],[136.924327,-13.805352],[136.855968,-13.915216],[136.822765,-13.905206],[136.768321,-13.944594],[136.763031,-13.99684],[136.810802,-14.029392],[136.754405,-14.050958],[136.752289,-14.079197],[136.7046,-14.072931],[136.7046,-14.126886],[136.736339,-14.189142],[136.78419,-14.186212],[136.789236,-14.149509],[136.880707,-14.208591],[136.916759,-14.147393],[136.978852,-14.147393],[136.951508,-14.181573]]],[[[136.135916,-13.434828],[136.094981,-13.360447],[136.203136,-13.461196],[136.154552,-13.472914],[136.142956,-13.56045],[136.135916,-13.434828]]],[[[136.816956,-12.076077],[136.829356,-12.132257],[136.820974,-12.137953],[136.797069,-12.108355],[136.816956,-12.076077]]],[[[132.387543,-12.071873],[132.411876,-12.083673],[132.405772,-12.132989],[132.339854,-12.098565],[132.387543,-12.071873]]],[[[136.290212,-11.975681],[136.316254,-11.9874],[136.269298,-12.038995],[136.184337,-12.078058],[136.129161,-12.05755],[136.129161,-12.016697],[136.161876,-12.034763],[136.200043,-11.999933],[136.208018,-12.030369],[136.242035,-12.023533],[136.290212,-11.975681]]],[[[136.464203,-11.893731],[136.477794,-11.814223],[136.498546,-11.79811],[136.483246,-11.889418],[136.464203,-11.893731]]],[[[136.519542,-11.790704],[136.623709,-11.736586],[136.581554,-11.79811],[136.519542,-11.790704]]],[[[135.955906,-11.707165],[135.951528,-11.683485],[135.980865,-11.661368],[136.055205,-11.650048],[136.006045,-11.708678],[135.955906,-11.707165]]],[[[132.545177,-11.631606],[132.645518,-11.65016],[132.640636,-11.691176],[132.583832,-11.720147],[132.544688,-11.708754],[132.5088,-11.649591],[132.545177,-11.631606]]],[[[136.319509,-11.60296],[136.478038,-11.461114],[136.474864,-11.505955],[136.392345,-11.557306],[136.375662,-11.592055],[136.177013,-11.688246],[136.190196,-11.646417],[136.266856,-11.572931],[136.283458,-11.564711],[136.319509,-11.60296]]],[[[130.536794,-11.705011],[130.619884,-11.749119],[130.628184,-11.80462],[130.496349,-11.839044],[130.321056,-11.770196],[130.084239,-11.827813],[130.03712,-11.811212],[130.016612,-11.777032],[130.069591,-11.755629],[130.071544,-11.671157],[130.145681,-11.699395],[130.185395,-11.676528],[130.198497,-11.506606],[130.146983,-11.489028],[130.269786,-11.338149],[130.344981,-11.317071],[130.399181,-11.433038],[130.386485,-11.519708],[130.461681,-11.592055],[130.448009,-11.701349],[130.536794,-11.705011]]],[[[131.517914,-11.380629],[131.530447,-11.474786],[131.471039,-11.493341],[131.473969,-11.600193],[131.432384,-11.607029],[131.386567,-11.577813],[131.293142,-11.724054],[131.22877,-11.744887],[130.961192,-11.933852],[130.894867,-11.877862],[130.690603,-11.788344],[130.558442,-11.667169],[130.496593,-11.649509],[130.482107,-11.544203],[130.430349,-11.484308],[130.392751,-11.334405],[130.406261,-11.296563],[130.370128,-11.252048],[130.367442,-11.204278],[130.400157,-11.153253],[130.516124,-11.296563],[130.558442,-11.269952],[130.587169,-11.286798],[130.598806,-11.317071],[130.562022,-11.361098],[130.566173,-11.394627],[130.658458,-11.331313],[130.653819,-11.377537],[130.695567,-11.43434],[130.723643,-11.384698],[130.84547,-11.360284],[130.888031,-11.313165],[130.920909,-11.30934],[131.003266,-11.347426],[131.023285,-11.413263],[131.048839,-11.315037],[131.153087,-11.249282],[131.219249,-11.399672],[131.205333,-11.246515],[131.274425,-11.18963],[131.302419,-11.215997],[131.301443,-11.277439],[131.331309,-11.242608],[131.427745,-11.249688],[131.47462,-11.390558],[131.517914,-11.380629]]],[[[136.762462,-11.019301],[136.716482,-11.206231],[136.680024,-11.223024],[136.53529,-11.443169],[136.478019,-11.447934],[136.500051,-11.422372],[136.482436,-11.412721],[136.580333,-11.327407],[136.653872,-11.186455],[136.688029,-11.177596],[136.734776,-11.064228],[136.718667,-11.050836],[136.762462,-11.019301]]],[[[132.489431,-11.160089],[132.517345,-11.139581],[132.511485,-11.086847],[132.46811,-11.029962],[132.510509,-11.047052],[132.55128,-11.032403],[132.566661,-10.98211],[132.599294,-10.968357],[132.579356,-11.012628],[132.613536,-11.108819],[132.582042,-11.153416],[132.634044,-11.173761],[132.612559,-11.185724],[132.627208,-11.246026],[132.599294,-11.344985],[132.489431,-11.160089]]]]}},{"type":"Feature","properties":{"country_code":"AU","region_code":"AU-SA","name":"South Australia","native_name":"South Australia","type":"State"},"geometry":{"type":"MultiPolygon","coordinates":[[[[134.273285,-32.588067],[134.131114,-32.451593],[134.052989,-32.45908],[133.994477,-32.506117],[133.936697,-32.500909],[133.901215,-32.543064],[133.864431,-32.546808],[133.869151,-32.43255],[133.896251,-32.399184],[133.929861,-32.420017],[133.949962,-32.389418],[133.826427,-32.245375],[133.776703,-32.264255],[133.760753,-32.216485],[133.693614,-32.191095],[133.66212,-32.143731],[133.682384,-32.122654],[133.649181,-32.101658],[133.586192,-32.103123],[133.561371,-32.172133],[133.496349,-32.144708],[133.476817,-32.111912],[133.418712,-32.133477],[133.418224,-32.156915],[133.494314,-32.19964],[133.435883,-32.190851],[133.411794,-32.211358],[133.305512,-32.190851],[133.270844,-32.218845],[133.192638,-32.184666],[133.147797,-32.19671],[133.033946,-32.097101],[132.976573,-32.108982],[132.966075,-32.073175],[132.776215,-31.95086],[132.516124,-31.941339],[132.452891,-31.983982],[132.471853,-32.03045],[132.397797,-32.012791],[132.233735,-32.032973],[132.077891,-31.90781],[131.78297,-31.727797],[131.535899,-31.605564],[131.177501,-31.477634],[131.135427,-31.474786],[130.9935,-31.554295],[130.79005,-31.608087],[130.156912,-31.573907],[129.000092,-31.689223],[129.000116,-25.999911],[141.000107,-25.999911],[141.000107,-34.018543],[140.967086,-33.986452],[140.968174,-38.059426],[140.690196,-38.068129],[140.398204,-37.919854],[140.240571,-37.665948],[140.110199,-37.570408],[140.134288,-37.556736],[140.114268,-37.517511],[140.036469,-37.482517],[140.021495,-37.50156],[139.988048,-37.487074],[139.741547,-37.180841],[139.788341,-37.126235],[139.729177,-37.003839],[139.672048,-36.953383],[139.81544,-36.879002],[139.863536,-36.767267],[139.853689,-36.621759],[139.729015,-36.372328],[139.567393,-36.075291],[139.456716,-35.95794],[139.198904,-35.746759],[138.917817,-35.576755],[139.000987,-35.585382],[139.44752,-35.927341],[139.565196,-36.049737],[139.672048,-36.227797],[139.593761,-36.022556],[139.475434,-35.896417],[139.041352,-35.604099],[139.041352,-35.573989],[139.075531,-35.576755],[139.085948,-35.535333],[139.155284,-35.503351],[139.234141,-35.54754],[139.224864,-35.615411],[139.256521,-35.636407],[139.229503,-35.689386],[139.338064,-35.687433],[139.355724,-35.593357],[139.218923,-35.507257],[139.284434,-35.480564],[139.361013,-35.489516],[139.362966,-35.376886],[139.315196,-35.397882],[139.267589,-35.331313],[139.177989,-35.315362],[139.198497,-35.329034],[139.184255,-35.344008],[139.102061,-35.389255],[139.02768,-35.384373],[138.961192,-35.413832],[138.956879,-35.4638],[139.031423,-35.497003],[139.030935,-35.517511],[138.917817,-35.501072],[138.881114,-35.471124],[138.793793,-35.483982],[138.993419,-35.54754],[138.869477,-35.561782],[138.74586,-35.538751],[138.639008,-35.567071],[138.605805,-35.61004],[138.531261,-35.645929],[138.280528,-35.644301],[138.201671,-35.671645],[138.107432,-35.620701],[138.139008,-35.54046],[138.257579,-35.490655],[138.356456,-35.384535],[138.438162,-35.342706],[138.445567,-35.260837],[138.472179,-35.227227],[138.466563,-35.110528],[138.513927,-35.038263],[138.493907,-34.791599],[138.500987,-34.770929],[138.548025,-34.801446],[138.550629,-34.781915],[138.536306,-34.740899],[138.445567,-34.685968],[138.433604,-34.636489],[138.2942,-34.504571],[138.226573,-34.320489],[138.15561,-34.260431],[138.158865,-34.211847],[138.078136,-34.128351],[138.009288,-34.244317],[138.037771,-34.308038],[137.930919,-34.414809],[137.892263,-34.526056],[137.883149,-34.589776],[137.910411,-34.623956],[137.870128,-34.774102],[137.774425,-34.976251],[137.773936,-35.034845],[137.746918,-35.058852],[137.749522,-35.131036],[137.671397,-35.180841],[137.561046,-35.131036],[137.425548,-35.118259],[137.332042,-35.172052],[137.238943,-35.172052],[137.1692,-35.242283],[137.039724,-35.227227],[136.913585,-35.296563],[136.873871,-35.294692],[136.839366,-35.256117],[136.855479,-35.204685],[136.929861,-35.151544],[136.960948,-35.096449],[136.941254,-35.02988],[137.019786,-34.901462],[137.139496,-34.926039],[137.266856,-34.905043],[137.391287,-34.954034],[137.446137,-34.917413],[137.512706,-34.617771],[137.478526,-34.466241],[137.459483,-34.447524],[137.414317,-34.472426],[137.483897,-34.355401],[137.489106,-34.237726],[137.452403,-34.155694],[137.470551,-34.137872],[137.506521,-34.150323],[137.548595,-34.087172],[137.531912,-34.015395],[137.62794,-33.920099],[137.602061,-33.876642],[137.715343,-33.787286],[137.878842,-33.59787],[137.903678,-33.587694],[137.906059,-33.627566],[137.930919,-33.616469],[137.937492,-33.52784],[137.810444,-33.259985],[137.854991,-33.190606],[137.952159,-33.14365],[138.03712,-33.139581],[138.040212,-33.081638],[138.010102,-33.024102],[137.957774,-33.004653],[137.902354,-32.78753],[137.938487,-32.752618],[137.849132,-32.697931],[137.849132,-32.65016],[137.803966,-32.594659],[137.821788,-32.568292],[137.773936,-32.519789],[137.753917,-32.693455],[137.79656,-32.726495],[137.809255,-32.846938],[137.780121,-32.910821],[137.752778,-32.917657],[137.778331,-32.982843],[137.733084,-32.991795],[137.674001,-32.955255],[137.632091,-32.961521],[137.595063,-32.992771],[137.590343,-33.034845],[137.452159,-33.140069],[137.434337,-33.221856],[137.388031,-33.293878],[137.36964,-33.413263],[137.224864,-33.653253],[137.15504,-33.705743],[137.020193,-33.730157],[136.945567,-33.682306],[136.883149,-33.754815],[136.889415,-33.77044],[136.96461,-33.753106],[136.607432,-33.902927],[136.581554,-33.948907],[136.369395,-34.073419],[136.232188,-34.308689],[136.114757,-34.383722],[136.122325,-34.483331],[136.10141,-34.534845],[136.069347,-34.481866],[135.936778,-34.534601],[135.91627,-34.589776],[135.943614,-34.637465],[135.930512,-34.65252],[135.890798,-34.631117],[135.868419,-34.668634],[135.882986,-34.768487],[135.837901,-34.766697],[135.79949,-34.805271],[135.867361,-34.819431],[135.947032,-34.767348],[135.985118,-34.780938],[135.991384,-34.740004],[136.016368,-34.744073],[136.012218,-34.818455],[135.969493,-34.876642],[136.012462,-34.979669],[135.96461,-35.007501],[135.927501,-34.955173],[135.782725,-34.857599],[135.703949,-34.890802],[135.690196,-34.9485],[135.632579,-34.952895],[135.604015,-34.880141],[135.45753,-34.731541],[135.319672,-34.685968],[135.340099,-34.638116],[135.287852,-34.592462],[135.230479,-34.565037],[135.108084,-34.595961],[135.209809,-34.431573],[135.213715,-34.492364],[135.327159,-34.527765],[135.306326,-34.563409],[135.37086,-34.628188],[135.405772,-34.644464],[135.503591,-34.611912],[135.437022,-34.599786],[135.438487,-34.545668],[135.404959,-34.580336],[135.389171,-34.569268],[135.376964,-34.512628],[135.395518,-34.472426],[135.361339,-34.407892],[135.346446,-34.275567],[135.30128,-34.179783],[135.265147,-34.178318],[135.230968,-34.136814],[135.273123,-34.115899],[135.265147,-34.017511],[135.189789,-33.892999],[134.840831,-33.63128],[134.867931,-33.54461],[134.861013,-33.479425],[134.813975,-33.352797],[134.676606,-33.233331],[134.730724,-33.225518],[134.706228,-33.172947],[134.581554,-33.145929],[134.574392,-33.176853],[134.630382,-33.185479],[134.662364,-33.225518],[134.628266,-33.246677],[134.589366,-33.202081],[134.47755,-33.157322],[134.37794,-33.17783],[134.359141,-33.153985],[134.333507,-33.205011],[134.278819,-33.162693],[134.233735,-33.047296],[134.148611,-33.02752],[134.209972,-33.000177],[134.190684,-32.946466],[134.068696,-32.929295],[134.059825,-32.910821],[134.132823,-32.835626],[134.074067,-32.713962],[134.216807,-32.725844],[134.195323,-32.769301],[134.214041,-32.806248],[134.297618,-32.678481],[134.273285,-32.588067]]],[[[138.129649,-35.816339],[138.125824,-35.863946],[138.047699,-35.918634],[137.932465,-35.875258],[137.821788,-35.864028],[137.628754,-35.910333],[137.602306,-36.025811],[137.459239,-36.082696],[137.371104,-36.010837],[137.227875,-35.97975],[137.139903,-36.04225],[137.019786,-36.021742],[136.920421,-36.049493],[136.862153,-36.028497],[136.715587,-36.062758],[136.656749,-35.973891],[136.532563,-35.911879],[136.59783,-35.757501],[137.074474,-35.671645],[137.335134,-35.58294],[137.444998,-35.610935],[137.622895,-35.582127],[137.633637,-35.603774],[137.581554,-35.64544],[137.647716,-35.659438],[137.580821,-35.726821],[137.686046,-35.757501],[137.778494,-35.739516],[137.812755,-35.811456],[137.871349,-35.793064],[137.908539,-35.729099],[137.935557,-35.726495],[138.064708,-35.761],[138.080333,-35.809259],[138.129649,-35.816339]]],[[[136.447276,-35.148126],[136.476329,-35.144708],[136.498546,-35.172052],[136.44752,-35.169366],[136.447276,-35.148126]]],[[[136.126964,-34.948419],[136.199718,-35.03281],[136.201345,-35.075372],[136.16212,-35.065525],[136.142833,-35.000665],[136.086111,-34.948175],[136.126964,-34.948419]]],[[[137.369151,-34.472426],[137.37379,-34.498224],[137.354828,-34.538018],[137.336192,-34.515313],[137.369151,-34.472426]]],[[[134.539561,-33.696466],[134.550629,-33.733657],[134.479015,-33.783624],[134.486339,-33.711684],[134.539561,-33.696466]]],[[[133.565684,-32.321222],[133.543793,-32.29461],[133.579356,-32.259698],[133.675548,-32.239353],[133.620372,-32.259698],[133.633962,-32.280206],[133.610118,-32.30755],[133.565684,-32.321222]]]]}},{"type":"Feature","properties":{"country_code":"AU","region_code":"AU-QLD","name":"Queensland","native_name":"Queensland","type":"State"},"geometry":{"type":"MultiPolygon","coordinates":[[[[138.000173,-16.541599],[138.153494,-16.676853],[138.294119,-16.745701],[138.37322,-16.745701],[138.492686,-16.794366],[138.657237,-16.779718],[138.840343,-16.870864],[139.008311,-16.89544],[139.062185,-16.977634],[139.158051,-17.032973],[139.140636,-17.066176],[139.152517,-17.168552],[139.239919,-17.323419],[139.314301,-17.359145],[139.43865,-17.375665],[139.640961,-17.532403],[139.925304,-17.621352],[139.999522,-17.70615],[140.240489,-17.702081],[140.507498,-17.636326],[140.688975,-17.522882],[140.734141,-17.516209],[140.768321,-17.468032],[140.845225,-17.441176],[140.948985,-17.138849],[140.947032,-17.018324],[141.050548,-16.887628],[141.083507,-16.800226],[141.117686,-16.79339],[141.199474,-16.703058],[141.234223,-16.573012],[141.292654,-16.495538],[141.289561,-16.402439],[141.431163,-16.061782],[141.377696,-15.929376],[141.405528,-15.89186],[141.439708,-15.648858],[141.580903,-15.218683],[141.639008,-15.141209],[141.635997,-15.093683],[141.658946,-15.093927],[141.661632,-14.99033],[141.604259,-14.877699],[141.521658,-14.483819],[141.601085,-14.204278],[141.598481,-14.114516],[141.485037,-13.9485],[141.467784,-13.865492],[141.527029,-13.571384],[141.631521,-13.346124],[141.673106,-13.346124],[141.660981,-13.328383],[141.693614,-13.250584],[141.624685,-13.133884],[141.583751,-12.985772],[141.631521,-12.89365],[141.661388,-12.899021],[141.754731,-12.818455],[141.809744,-12.667657],[141.817149,-12.701837],[141.835948,-12.679457],[141.882091,-12.718032],[141.894054,-12.843357],[141.938731,-12.908461],[141.905284,-12.757094],[142.008311,-12.714939],[141.925304,-12.710056],[141.823253,-12.654067],[141.937999,-12.584649],[141.974132,-12.585138],[141.930919,-12.565606],[141.899099,-12.585138],[141.797618,-12.580011],[141.74822,-12.523696],[141.693614,-12.503188],[141.744802,-12.454767],[141.658946,-12.447931],[141.658946,-12.527114],[141.699962,-12.544366],[141.599946,-12.561944],[141.590587,-12.540785],[141.717133,-12.232843],[141.809744,-12.236261],[141.789236,-12.201593],[141.753429,-12.208103],[141.831228,-12.005955],[141.913341,-11.954522],[141.898204,-11.990981],[141.919607,-12.106052],[141.963878,-12.037774],[142.021983,-12.071873],[142.03297,-12.041192],[141.991547,-11.985935],[141.952973,-11.975681],[141.947602,-11.896173],[141.967296,-11.811212],[142.01002,-11.757989],[142.131847,-11.338149],[142.159353,-11.151137],[142.151052,-10.950616],[142.323416,-10.901625],[142.401134,-10.820408],[142.448578,-10.714532],[142.550059,-10.690199],[142.615896,-10.752374],[142.515391,-10.851658],[142.50172,-10.947849],[142.590831,-10.864923],[142.625255,-10.882257],[142.634451,-10.930841],[142.659434,-10.933526],[142.66627,-11.003106],[142.700938,-10.970147],[142.741954,-10.97503],[142.810069,-11.171157],[142.80128,-11.277765],[142.840587,-11.308038],[142.872244,-11.382501],[142.821056,-11.477634],[142.857921,-11.605076],[142.862315,-11.836847],[142.992198,-11.934015],[143.104177,-11.902114],[143.175304,-11.962335],[143.249034,-11.968194],[143.203949,-11.982517],[143.086274,-12.149021],[143.077159,-12.32879],[143.176036,-12.339288],[143.25294,-12.38893],[143.294932,-12.534845],[143.43393,-12.613051],[143.379405,-12.732843],[143.358897,-12.880548],[143.379405,-12.852716],[143.413259,-12.868097],[143.543793,-12.832778],[143.495453,-12.921563],[143.50294,-13.075128],[143.526622,-13.329767],[143.591075,-13.415134],[143.597911,-13.524184],[143.530121,-13.750177],[143.611339,-13.946873],[143.687266,-14.014337],[143.707774,-14.209568],[143.782725,-14.402276],[143.846202,-14.467218],[143.926036,-14.486505],[143.941173,-14.511163],[144.067231,-14.452569],[144.161632,-14.373142],[144.201182,-14.250421],[144.303559,-14.312595],[144.440278,-14.250258],[144.486339,-14.161879],[144.584727,-14.264825],[144.580414,-14.36419],[144.633149,-14.339939],[144.615977,-14.467706],[144.677582,-14.555841],[144.756602,-14.55283],[144.796723,-14.600356],[144.900727,-14.61419],[144.937999,-14.671563],[144.944102,-14.733331],[145.030528,-14.805922],[145.055024,-14.792657],[145.154796,-14.837498],[145.22283,-14.832696],[145.219981,-14.880955],[145.27711,-14.947035],[145.345714,-14.94256],[145.247325,-15.094985],[145.23585,-15.165948],[145.268809,-15.249444],[145.310069,-15.25449],[145.324555,-15.216241],[145.349457,-15.250421],[145.285899,-15.30047],[145.297862,-15.33294],[145.243907,-15.428399],[145.264415,-15.435968],[145.279796,-15.495864],[145.264903,-15.518487],[145.313975,-15.567966],[145.307384,-15.628595],[145.366384,-15.749282],[145.355805,-15.903416],[145.462413,-16.060479],[145.434418,-16.200616],[145.468598,-16.260675],[145.414561,-16.334405],[145.400401,-16.443292],[145.416759,-16.473321],[145.46339,-16.481215],[145.566091,-16.656508],[145.722504,-16.800226],[145.77768,-16.885349],[145.740489,-16.922052],[145.774262,-16.988377],[145.79835,-16.983168],[145.787608,-16.929783],[145.839122,-16.881524],[145.880382,-16.905857],[145.917328,-16.871189],[145.955089,-16.873142],[145.881847,-17.059666],[145.952485,-17.162286],[146.029959,-17.356541],[146.071056,-17.392022],[146.06837,-17.515883],[146.147716,-17.632582],[146.1067,-17.684177],[146.1067,-17.769464],[146.083995,-17.795505],[146.113536,-17.864353],[146.00587,-18.142022],[146.010102,-18.236505],[146.100922,-18.349542],[146.183442,-18.380141],[146.209158,-18.51336],[146.339366,-18.527032],[146.276622,-18.874282],[146.333263,-18.95908],[146.46225,-19.074965],[146.654796,-19.18255],[146.746349,-19.172784],[146.905121,-19.30462],[146.957205,-19.296808],[147.010427,-19.252618],[147.024099,-19.177423],[147.065115,-19.246352],[147.058604,-19.316095],[147.133962,-19.410821],[147.421397,-19.412774],[147.45045,-19.378676],[147.398774,-19.312758],[147.422618,-19.31463],[147.559093,-19.53753],[147.599132,-19.6867],[147.565278,-19.705173],[147.684255,-19.828058],[147.785004,-19.835382],[147.750824,-19.691502],[147.823904,-19.714288],[147.874278,-19.854425],[147.929047,-19.897556],[148.014903,-19.911228],[148.028575,-19.883884],[148.072439,-19.877048],[148.130382,-19.936212],[148.278575,-19.965753],[148.306407,-20.033949],[148.264903,-20.047621],[148.264903,-20.083103],[148.40211,-20.173923],[148.402029,-20.1985],[148.464041,-20.185479],[148.422537,-20.164972],[148.47641,-20.132013],[148.437511,-20.090753],[148.444184,-20.061944],[148.521658,-20.083185],[148.560069,-20.052667],[148.61085,-20.213637],[148.638682,-20.203058],[148.648448,-20.164972],[148.655284,-20.1985],[148.683116,-20.185479],[148.662771,-20.226495],[148.689301,-20.239435],[148.683116,-20.274184],[148.758311,-20.253106],[148.756684,-20.229669],[148.781993,-20.240818],[148.803884,-20.266697],[148.792328,-20.287286],[148.849376,-20.348728],[148.850841,-20.421075],[148.92335,-20.472833],[148.898123,-20.477309],[148.937022,-20.534926],[148.868175,-20.52809],[148.827159,-20.493341],[148.832774,-20.456313],[148.808279,-20.433364],[148.758311,-20.472833],[148.70102,-20.439223],[148.724132,-20.500746],[148.660167,-20.572198],[148.728282,-20.646417],[148.709809,-20.678888],[148.739757,-20.718927],[148.790294,-20.768976],[148.843516,-20.77752],[148.853852,-20.832208],[148.827159,-20.890558],[148.875011,-20.842869],[148.910818,-20.873305],[148.971446,-20.870538],[149.013194,-20.908461],[149.056326,-20.898533],[149.073578,-20.924737],[149.026378,-20.919203],[149.026622,-20.976251],[149.094981,-20.969822],[149.150645,-20.996189],[149.231212,-21.089776],[149.196544,-21.220147],[149.234386,-21.281671],[149.254731,-21.254327],[149.292735,-21.281671],[149.320567,-21.377211],[149.286469,-21.397719],[149.341075,-21.424412],[149.292491,-21.461114],[149.292166,-21.510675],[149.347341,-21.479669],[149.395193,-21.503839],[149.397472,-21.549005],[149.429373,-21.583754],[149.487153,-21.535903],[149.49879,-21.569594],[149.441905,-21.637384],[149.478282,-21.726739],[149.440115,-21.75156],[149.435395,-21.789727],[149.475597,-21.851251],[149.474376,-21.929376],[149.574474,-22.158624],[149.553396,-22.186619],[149.608572,-22.244317],[149.587576,-22.282159],[149.644786,-22.306085],[149.67921,-22.352146],[149.697439,-22.344334],[149.699229,-22.446954],[149.663259,-22.493829],[149.765391,-22.445245],[149.812755,-22.378106],[150.046723,-22.645278],[149.923513,-22.298272],[149.978201,-22.173761],[150.053559,-22.141534],[150.153819,-22.26629],[150.194021,-22.378676],[150.403087,-22.473891],[150.609141,-22.610528],[150.534516,-22.427016],[150.567638,-22.323175],[150.636241,-22.342543],[150.622813,-22.392022],[150.663829,-22.419366],[150.677501,-22.358005],[150.704763,-22.439874],[150.756196,-22.458754],[150.723399,-22.519952],[150.705821,-22.528741],[150.690115,-22.4992],[150.671641,-22.520603],[150.691091,-22.535414],[150.677501,-22.562677],[150.716075,-22.562677],[150.731944,-22.628106],[150.773448,-22.530206],[150.784516,-22.653009],[150.80714,-22.652114],[150.826427,-22.697931],[150.787364,-22.926446],[150.736501,-22.932875],[150.773692,-22.966892],[150.764415,-23.158868],[150.839041,-23.248956],[150.787364,-23.30934],[150.81422,-23.41131],[150.882335,-23.488865],[150.813975,-23.50921],[150.856619,-23.519952],[150.885753,-23.571547],[150.93686,-23.542739],[151.011277,-23.566502],[151.125987,-23.675388],[151.187185,-23.804132],[151.277843,-23.823907],[151.440929,-24.005548],[151.480968,-23.988946],[151.537283,-24.021742],[151.550548,-24.091404],[151.568126,-24.098321],[151.581798,-24.043715],[151.691661,-24.098321],[151.676117,-24.046645],[151.615896,-23.995864],[151.641368,-23.978285],[151.732595,-24.016371],[151.721039,-24.058689],[151.780447,-24.022556],[151.811371,-24.142348],[151.869884,-24.173435],[151.897716,-24.14544],[152.003673,-24.410414],[152.123057,-24.591729],[152.306163,-24.724216],[152.404796,-24.748712],[152.469737,-24.805597],[152.506033,-24.999444],[152.636974,-25.160333],[152.567719,-25.178643],[152.697032,-25.251886],[152.815115,-25.283868],[152.828787,-25.242283],[152.84254,-25.270929],[152.913829,-25.287693],[152.931814,-25.416681],[152.870372,-25.475681],[152.962413,-25.437433],[152.93865,-25.475681],[152.966156,-25.497247],[152.90504,-25.560724],[152.90797,-25.66961],[152.884044,-25.674249],[153.021251,-25.825128],[153.021251,-25.969008],[153.061534,-25.903578],[153.061534,-25.81756],[153.121593,-25.93377],[153.205577,-25.934991],[153.141775,-26.061456],[153.074067,-26.316583],[153.089366,-26.366306],[153.137218,-26.392999],[153.113455,-26.457452],[153.110037,-26.646905],[153.15089,-26.684747],[153.146169,-26.891778],[153.210216,-27.077244],[153.191742,-27.099298],[153.154552,-27.084242],[153.082205,-27.110447],[153.038259,-27.193455],[153.117442,-27.196954],[153.113617,-27.242364],[153.072032,-27.274672],[153.064952,-27.310479],[153.167979,-27.363702],[153.191742,-27.449395],[153.268321,-27.49627],[153.31544,-27.65488],[153.409841,-27.781915],[153.401866,-27.809177],[153.445811,-27.791436],[153.43214,-27.935317],[153.418305,-27.908787],[153.399913,-27.954197],[153.413341,-27.97617],[153.438975,-27.948989],[153.449474,-28.073175],[153.506521,-28.149265],[153.354185,-28.250007],[153.192489,-28.259825],[153.106655,-28.353876],[152.865688,-28.322767],[152.751018,-28.35801],[152.616659,-28.293208],[152.564156,-28.332999],[152.528344,-28.278222],[152.487158,-28.263391],[152.386957,-28.365762],[152.291718,-28.386329],[152.232703,-28.434957],[152.163973,-28.437075],[151.963986,-28.540066],[152.00326,-28.633652],[152.067028,-28.703157],[152.013647,-28.899218],[151.928742,-28.925366],[151.858772,-28.916323],[151.824149,-28.97358],[151.766272,-28.951204],[151.725137,-28.88666],[151.564423,-28.950584],[151.520188,-29.061378],[151.422675,-29.154551],[151.376115,-29.170622],[151.350896,-29.165455],[151.315343,-29.099257],[151.287438,-28.920818],[151.16052,-28.846094],[151.062129,-28.828008],[151.045902,-28.734887],[150.793514,-28.635048],[150.621122,-28.658922],[150.449556,-28.646468],[150.298144,-28.53495],[150.019815,-28.600114],[149.759159,-28.606987],[149.704485,-28.627451],[149.620873,-28.607814],[149.595241,-28.565388],[149.484447,-28.58394],[149.416338,-28.68073],[149.265649,-28.740726],[149.178626,-28.818241],[149.093567,-28.84842],[149.063387,-28.936321],[148.971403,-28.999728],[141.000107,-28.999935],[141.000107,-25.999911],[138.000187,-25.999911],[138.000173,-16.541599]]],[[[153.434093,-27.392999],[153.548839,-27.415216],[153.455903,-27.720798],[153.403331,-27.726251],[153.39796,-27.493097],[153.434093,-27.392999]]],[[[153.42921,-27.354425],[153.369477,-27.225518],[153.360525,-27.066013],[153.451345,-27.017022],[153.466075,-27.060154],[153.418224,-27.222833],[153.42921,-27.354425]]],[[[152.953624,-25.278497],[153.006358,-25.327732],[152.993907,-25.338474],[152.953624,-25.278497]]],[[[153.369965,-24.989028],[153.083507,-25.665785],[153.099864,-25.757745],[153.055349,-25.797133],[152.99936,-25.728611],[152.986501,-25.619561],[152.9463,-25.58294],[152.948253,-25.552179],[152.98585,-25.525079],[153.000743,-25.434015],[153.068533,-25.329034],[153.068858,-25.248468],[153.014415,-25.211521],[153.226085,-25.02752],[153.239594,-24.913263],[153.194102,-24.840753],[153.137218,-24.817071],[153.281261,-24.693536],[153.284923,-24.876642],[153.302257,-24.929457],[153.369965,-24.989028]]],[[[151.333263,-23.750177],[151.383067,-23.879571],[151.328624,-23.802911],[151.333263,-23.750177]]],[[[151.22934,-23.607517],[151.297618,-23.748224],[151.266449,-23.776137],[151.213878,-23.77809],[150.979607,-23.487386],[151.022381,-23.469327],[151.027517,-23.444513],[151.0713,-23.447198],[151.081554,-23.474542],[151.180186,-23.507257],[151.195079,-23.533868],[151.239106,-23.488865],[151.22934,-23.607517]]],[[[149.727794,-22.340509],[149.766287,-22.364679],[149.724783,-22.439874],[149.710297,-22.385186],[149.727794,-22.340509]]],[[[150.504568,-22.216729],[150.555837,-22.306329],[150.48227,-22.344985],[150.491873,-22.316339],[150.457774,-22.310154],[150.493663,-22.25506],[150.478363,-22.216241],[150.504568,-22.216729]]],[[[149.916515,-22.041925],[149.928233,-22.160089],[149.88852,-22.226821],[149.869395,-22.142267],[149.916515,-22.041925]]],[[[150.293224,-21.740899],[150.341075,-21.740899],[150.368907,-21.726739],[150.342784,-21.771742],[150.293224,-21.740899]]],[[[150.300059,-21.678888],[150.246104,-21.678888],[150.246104,-21.62363],[150.305349,-21.659763],[150.300059,-21.678888]]],[[[149.094086,-20.418227],[149.115082,-20.479669],[149.053071,-20.52809],[149.039399,-20.500746],[149.070567,-20.489923],[149.094086,-20.418227]]],[[[149.067393,-20.315199],[149.039399,-20.287286],[149.018891,-20.328871],[149.003754,-20.311619],[148.980642,-20.323826],[148.971202,-20.28102],[148.927013,-20.287286],[148.964041,-20.250584],[148.950043,-20.23268],[148.984874,-20.151462],[149.00408,-20.229262],[149.067149,-20.289239],[149.067393,-20.315199]]],[[[148.95753,-20.143813],[148.92335,-20.178643],[148.925141,-20.151462],[148.902192,-20.164972],[148.881847,-20.137628],[148.909028,-20.06878],[148.963715,-20.041599],[148.980235,-20.056899],[148.943858,-20.113458],[148.95753,-20.143813]]],[[[148.45045,-19.965753],[148.480968,-20.004571],[148.470225,-20.047621],[148.45045,-20.041599],[148.45045,-19.965753]]],[[[146.832856,-19.102309],[146.868663,-19.102309],[146.867035,-19.163832],[146.820079,-19.175063],[146.780284,-19.132013],[146.832856,-19.102309]]],[[[146.319021,-18.382989],[146.353282,-18.421645],[146.310802,-18.478692],[146.291677,-18.492852],[146.223399,-18.465509],[146.199229,-18.375258],[146.098888,-18.27809],[146.097341,-18.245212],[146.217459,-18.277927],[146.229503,-18.198012],[146.248546,-18.232599],[146.302094,-18.237237],[146.278331,-18.307387],[146.339366,-18.361912],[146.319021,-18.382989]]],[[[139.562185,-17.039239],[139.569347,-17.100356],[139.505382,-17.12184],[139.462657,-17.100763],[139.425059,-17.142836],[139.403982,-17.100681],[139.493907,-16.985121],[139.562185,-17.039239]]],[[[139.089203,-16.827569],[139.133311,-16.812921],[139.158051,-16.827569],[139.107677,-16.862481],[139.089203,-16.827569]]],[[[139.734141,-16.443292],[139.734141,-16.505466],[139.719086,-16.484308],[139.707693,-16.526462],[139.656505,-16.519952],[139.610525,-16.553155],[139.552501,-16.483331],[139.487071,-16.517836],[139.524669,-16.556899],[139.473643,-16.557387],[139.444672,-16.664646],[139.397716,-16.642022],[139.371837,-16.688653],[139.302094,-16.724542],[139.226329,-16.721124],[139.177989,-16.662367],[139.181977,-16.73268],[139.144867,-16.756036],[139.136974,-16.697198],[139.164317,-16.616306],[139.287852,-16.470636],[139.582693,-16.395603],[139.644054,-16.437758],[139.699392,-16.443292],[139.691905,-16.4638],[139.734141,-16.443292]]],[[[142.193207,-10.591485],[142.283051,-10.714532],[142.206065,-10.733087],[142.187022,-10.769627],[142.145518,-10.7492],[142.112315,-10.68434],[142.123546,-10.64365],[142.193207,-10.591485]]],[[[142.247325,-10.599786],[142.294281,-10.573175],[142.325206,-10.6124],[142.274425,-10.640802],[142.247325,-10.599786]]],[[[142.293468,-10.13893],[142.332042,-10.169692],[142.334239,-10.200453],[142.289806,-10.260186],[142.221202,-10.24212],[142.193207,-10.193617],[142.214366,-10.153253],[142.293468,-10.13893]]],[[[142.190115,-10.080987],[142.190115,-10.143731],[142.142914,-10.185642],[142.097016,-10.118585],[142.1421,-10.050388],[142.190115,-10.080987]]],[[[146.581309,-18.682224],[146.684255,-18.752048],[146.65447,-18.770196],[146.57016,-18.760837],[146.581309,-18.682224]]],[[[142.637462,-9.373956],[142.782563,-9.386326],[142.713878,-9.428643],[142.641612,-9.428399],[142.601248,-9.399509],[142.637462,-9.373956]]],[[[142.206879,-9.240167],[142.280121,-9.261651],[142.279145,-9.287042],[142.15089,-9.271417],[142.206879,-9.240167]]]]}},{"type":"Feature","properties":{"country_code":"AU","region_code":"AU-NSW","name":"New South Wales","native_name":"New South Wales","type":"State"},"geometry":{"type":"Polygon","coordinates":[[[153.506521,-28.149265],[153.531993,-28.177911],[153.562511,-28.174981],[153.591075,-28.268487],[153.562511,-28.504571],[153.57602,-28.589614],[153.630626,-28.661554],[153.601329,-28.761407],[153.605968,-28.867446],[153.475597,-29.000177],[153.436209,-29.085138],[153.445811,-29.151625],[153.350597,-29.28102],[153.36378,-29.470392],[153.324474,-29.57586],[153.294932,-29.826593],[153.260102,-29.943292],[153.202403,-30.024672],[153.189626,-30.174981],[153.043142,-30.493829],[152.987796,-30.734634],[153.005001,-30.835814],[153.034841,-30.882501],[153.079112,-30.885919],[153.087901,-30.92669],[153.046599,-30.992754],[153.059501,-31.07721],[152.980615,-31.165915],[152.959894,-31.240315],[152.976736,-31.320001],[152.917828,-31.395254],[152.934502,-31.482811],[152.845381,-31.569319],[152.848533,-31.64422],[152.788949,-31.704009],[152.800929,-31.733208],[152.744185,-31.793023],[152.747215,-31.842585],[152.609255,-31.945848],[152.546373,-32.043679],[152.555346,-32.071631],[152.510083,-32.161881],[152.569509,-32.219334],[152.525957,-32.281665],[152.527043,-32.312661],[152.554454,-32.321222],[152.520499,-32.410176],[152.539886,-32.442092],[152.402394,-32.489429],[152.294764,-32.559589],[152.28593,-32.588804],[152.191989,-32.65267],[152.219249,-32.697198],[152.136729,-32.663751],[152.060883,-32.697931],[152.190196,-32.725274],[152.185069,-32.766778],[152.109386,-32.794122],[151.984927,-32.798746],[151.799237,-32.89368],[151.803559,-32.919366],[151.737635,-32.972002],[151.734386,-33.014825],[151.670584,-33.06113],[151.625987,-33.191583],[151.568953,-33.244225],[151.568957,-33.292228],[151.515341,-33.327082],[151.540867,-33.277542],[151.51611,-33.261109],[151.453795,-33.304199],[151.469737,-33.32822],[151.442704,-33.334216],[151.451228,-33.355461],[151.495294,-33.339587],[151.503829,-33.36001],[151.4453,-33.435972],[151.424164,-33.527765],[151.282888,-33.562107],[151.245942,-33.521091],[151.230724,-33.534926],[151.252778,-33.582452],[151.225597,-33.609063],[151.299338,-33.570624],[151.29526,-33.64878],[151.325472,-33.592058],[151.340753,-33.617466],[151.309179,-33.692973],[151.304698,-33.825372],[151.266368,-33.828383],[151.246918,-33.856378],[151.294444,-33.870375],[151.281423,-33.952325],[151.24936,-34.003839],[151.201915,-33.959161],[151.164073,-34.000746],[151.095225,-34.014418],[151.23227,-34.024102],[151.231212,-34.04046],[151.164073,-34.054783],[151.136078,-34.082696],[151.177013,-34.089532],[151.168956,-34.110121],[150.968953,-34.262675],[150.924918,-34.330419],[150.90305,-34.450861],[150.918868,-34.486404],[150.873302,-34.545505],[150.841319,-34.510675],[150.800955,-34.548272],[150.917003,-34.603448],[150.870453,-34.626723],[150.833751,-34.782403],[150.779307,-34.806899],[150.727061,-34.874119],[150.778494,-34.901625],[150.745779,-34.918145],[150.787364,-34.945489],[150.776215,-34.986993],[150.851573,-35.014907],[150.844737,-35.077244],[150.80714,-35.110528],[150.778087,-35.078546],[150.787364,-35.014907],[150.695567,-35.026137],[150.677501,-35.075779],[150.703783,-35.120442],[150.636418,-35.144469],[150.499522,-35.289727],[150.492035,-35.373142],[150.409923,-35.466892],[150.406505,-35.548761],[150.291677,-35.722833],[150.190929,-35.726821],[150.238617,-35.833103],[150.14975,-35.898207],[150.148692,-36.062595],[150.106781,-36.048598],[150.081554,-36.083754],[150.102061,-36.076349],[150.143321,-36.114435],[150.121104,-36.173761],[150.142345,-36.320001],[150.070486,-36.406345],[150.065766,-36.566583],[149.909679,-36.905532],[149.903819,-36.928399],[149.943696,-36.953383],[149.920177,-37.002618],[149.94158,-37.062188],[149.87615,-37.09588],[149.997569,-37.150486],[150.053559,-37.268731],[149.985362,-37.259047],[149.95102,-37.284275],[149.97169,-37.337579],[149.956798,-37.41546],[149.985362,-37.495864],[149.972075,-37.510292],[148.216824,-36.801681],[148.12329,-36.788245],[148.206179,-36.67249],[148.21486,-36.616886],[148.150317,-36.562471],[148.13099,-36.45886],[148.067583,-36.409715],[148.077815,-36.341916],[148.031926,-36.237116],[148.045465,-36.172572],[147.991412,-36.114178],[147.996889,-36.059246],[147.940665,-36.042606],[147.909711,-36.005037],[147.713806,-35.939408],[147.556761,-35.996355],[147.483691,-35.945971],[147.382198,-35.979612],[147.340289,-36.076351],[147.306337,-36.051959],[147.184329,-36.064258],[147.13472,-36.03935],[147.079633,-36.103636],[147.093792,-36.168025],[147.196318,-36.220321],[147.106918,-36.241198],[147.040979,-36.173709],[147.044906,-36.107615],[147.005322,-36.090148],[146.956126,-36.117898],[146.878766,-36.087564],[146.846882,-36.097435],[146.756397,-36.046327],[146.689217,-36.042192],[146.624053,-35.993772],[146.504267,-35.973928],[146.43192,-35.98385],[146.369495,-36.052734],[146.24356,-36.035371],[146.216223,-36.055835],[145.983472,-36.014287],[145.939754,-35.966848],[145.786947,-35.979974],[145.572593,-35.8436],[145.493786,-35.828976],[145.375964,-35.8729],[145.217937,-35.851196],[145.008441,-35.867629],[144.971234,-35.894811],[144.933924,-36.005554],[144.977435,-36.060176],[144.975472,-36.097435],[144.890154,-36.076351],[144.810934,-36.131593],[144.740706,-36.135003],[144.681898,-36.083792],[144.602781,-36.066119],[144.492659,-35.959665],[144.452558,-35.94716],[144.353287,-35.777557],[144.180378,-35.679114],[144.100073,-35.586768],[143.998425,-35.5554],[143.9807,-35.523361],[143.77694,-35.418406],[143.585996,-35.352932],[143.581397,-35.249424],[143.418357,-35.188033],[143.363994,-35.107211],[143.331283,-34.962827],[143.36048,-34.806247],[143.32813,-34.784388],[143.282707,-34.792501],[143.268754,-34.753951],[143.142612,-34.699019],[142.995748,-34.668685],[142.981381,-34.690595],[142.934046,-34.658039],[142.880354,-34.67933],[142.855188,-34.620832],[142.790024,-34.582333],[142.7261,-34.603211],[142.694681,-34.730903],[142.630809,-34.736329],[142.642797,-34.787644],[142.547971,-34.770901],[142.467924,-34.603469],[142.385759,-34.533396],[142.372323,-34.424668],[142.396456,-34.338007],[142.344935,-34.342761],[142.305144,-34.31713],[142.25879,-34.272843],[142.235122,-34.191918],[142.150114,-34.158587],[142.094252,-34.170834],[142.051257,-34.115953],[141.840986,-34.130475],[141.70611,-34.110011],[141.546172,-34.218635],[141.51067,-34.172229],[141.391918,-34.133678],[141.330785,-34.144737],[141.241849,-34.076008],[141.190121,-34.089288],[141.045582,-34.06221],[141.000107,-34.018543],[141.000107,-28.999935],[148.971403,-28.999728],[149.063387,-28.936321],[149.093567,-28.84842],[149.178626,-28.818241],[149.265649,-28.740726],[149.416338,-28.68073],[149.484447,-28.58394],[149.595241,-28.565388],[149.620873,-28.607814],[149.704485,-28.627451],[149.759159,-28.606987],[150.019815,-28.600114],[150.298144,-28.53495],[150.449556,-28.646468],[150.621122,-28.658922],[150.793514,-28.635048],[151.045902,-28.734887],[151.062129,-28.828008],[151.16052,-28.846094],[151.287438,-28.920818],[151.315343,-29.099257],[151.350896,-29.165455],[151.376115,-29.170622],[151.422675,-29.154551],[151.520188,-29.061378],[151.564423,-28.950584],[151.725137,-28.88666],[151.766272,-28.951204],[151.824149,-28.97358],[151.858772,-28.916323],[151.928742,-28.925366],[152.013647,-28.899218],[152.067028,-28.703157],[152.00326,-28.633652],[151.963986,-28.540066],[152.163973,-28.437075],[152.232703,-28.434957],[152.291718,-28.386329],[152.386957,-28.365762],[152.487158,-28.263391],[152.528344,-28.278222],[152.564156,-28.332999],[152.616659,-28.293208],[152.751018,-28.35801],[152.865688,-28.322767],[153.106655,-28.353876],[153.192489,-28.259825],[153.354185,-28.250007],[153.506521,-28.149265]],[[149.349933,-35.359495],[149.403005,-35.324045],[149.249423,-35.263945],[149.24255,-35.233766],[149.194646,-35.216041],[149.184982,-35.174028],[149.127105,-35.139509],[148.809346,-35.330866],[148.770537,-35.493285],[148.772553,-35.651105],[148.832446,-35.744174],[148.887843,-35.733167],[148.933628,-35.879257],[149.042407,-35.919616],[149.096719,-35.86148],[149.086435,-35.610022],[149.126329,-35.581962],[149.150256,-35.518193],[149.142659,-35.434529],[149.20033,-35.372621],[149.232783,-35.382543],[149.277483,-35.349056],[149.349933,-35.359495]]]}},{"type":"Feature","properties":{"country_code":"AU","region_code":"AU-X02~","name":"Jervis Bay Territory","native_name":"Jervis Bay Territory","type":"Territory"},"geometry":{"type":"Polygon","coordinates":[[[150.636418,-35.144469],[150.766856,-35.1242],[150.759451,-35.178888],[150.704763,-35.199395],[150.684418,-35.176039],[150.613048,-35.18727],[150.636418,-35.144469]]]}},{"type":"Feature","properties":{"country_code":"AU","region_code":"AU-VIC","name":"Victoria","native_name":"Victoria","type":"State"},"geometry":{"type":"MultiPolygon","coordinates":[[[[149.972075,-37.510292],[149.896332,-37.548598],[149.778656,-37.556085],[149.793956,-37.510837],[149.772472,-37.529392],[149.718435,-37.515802],[149.766287,-37.58408],[149.678477,-37.691013],[149.512462,-37.755304],[149.491222,-37.783298],[149.341075,-37.786716],[149.272227,-37.8235],[149.253184,-37.789483],[149.13559,-37.775811],[148.786306,-37.79811],[148.724132,-37.8235],[148.306407,-37.823419],[147.916515,-37.918552],[147.757579,-37.985121],[147.395518,-38.220147],[146.847667,-38.684991],[146.830251,-38.654718],[146.617686,-38.679132],[146.574718,-38.70322],[146.458669,-38.710138],[146.411794,-38.739841],[146.350434,-38.695001],[146.224132,-38.714451],[146.182384,-38.755955],[146.263927,-38.820408],[146.286388,-38.909845],[146.410899,-38.855157],[146.447765,-38.790297],[146.476736,-38.810479],[146.482921,-38.924086],[146.435069,-39.019952],[146.465994,-39.023614],[146.483409,-39.06463],[146.394216,-39.144952],[146.325857,-39.10589],[146.346934,-39.064386],[146.289073,-39.02809],[146.250987,-38.93963],[146.181651,-38.868341],[146.091807,-38.819757],[146.017345,-38.831638],[146.003673,-38.896417],[145.921153,-38.906671],[145.855235,-38.759535],[145.757172,-38.659601],[145.853526,-38.700616],[145.809337,-38.65016],[145.733084,-38.638604],[145.59962,-38.680108],[145.513682,-38.578383],[145.373057,-38.536798],[145.433849,-38.50213],[145.420746,-38.426935],[145.506114,-38.424086],[145.556895,-38.385186],[145.464366,-38.234552],[145.25587,-38.241469],[145.202403,-38.324477],[145.229015,-38.413263],[145.112966,-38.406427],[145.050466,-38.455987],[145.044688,-38.488946],[144.944591,-38.510349],[144.676768,-38.333185],[144.676606,-38.316583],[144.72877,-38.331313],[144.803966,-38.379083],[144.982921,-38.341404],[144.991466,-38.304946],[145.119314,-38.159356],[145.110199,-38.05169],[145.02711,-37.99627],[144.982677,-37.899347],[144.934825,-37.867934],[144.911469,-37.869806],[144.906993,-37.899347],[144.82545,-37.898533],[144.804454,-37.940851],[144.672048,-38.017185],[144.558442,-38.047621],[144.5171,-38.111586],[144.482432,-38.097345],[144.373057,-38.118422],[144.362559,-38.14658],[144.381847,-38.15781],[144.523611,-38.177992],[144.653575,-38.124688],[144.704763,-38.146091],[144.725108,-38.164809],[144.715099,-38.214614],[144.670421,-38.238051],[144.652843,-38.285821],[144.401866,-38.301202],[144.187511,-38.43434],[144.052501,-38.485772],[143.992361,-38.567804],[143.941173,-38.585138],[143.8449,-38.691176],[143.7046,-38.728123],[143.666759,-38.790134],[143.536957,-38.858331],[143.357432,-38.758233],[143.223399,-38.75628],[143.060069,-38.635919],[142.810232,-38.578383],[142.515391,-38.406427],[142.502452,-38.374444],[142.46754,-38.406427],[142.397716,-38.36712],[142.175466,-38.398696],[141.946788,-38.282892],[141.761974,-38.261814],[141.632091,-38.30877],[141.617849,-38.338149],[141.653982,-38.399835],[141.60141,-38.392267],[141.557872,-38.439711],[141.483084,-38.376235],[141.394542,-38.401625],[141.37086,-38.386489],[141.399913,-38.336358],[141.374766,-38.291192],[141.134288,-38.127618],[140.968174,-38.059426],[140.967086,-33.986452],[141.045582,-34.06221],[141.190121,-34.089288],[141.241849,-34.076008],[141.330785,-34.144737],[141.391918,-34.133678],[141.51067,-34.172229],[141.546172,-34.218635],[141.665906,-34.127064],[141.748537,-34.103189],[141.840986,-34.130475],[142.051257,-34.115953],[142.094252,-34.170834],[142.150114,-34.158587],[142.235122,-34.191918],[142.25879,-34.272843],[142.305144,-34.31713],[142.344935,-34.342761],[142.396456,-34.338007],[142.372323,-34.424668],[142.385759,-34.533396],[142.467924,-34.603469],[142.522495,-34.75023],[142.556601,-34.774156],[142.642797,-34.787644],[142.630809,-34.736329],[142.694681,-34.730903],[142.7261,-34.603211],[142.790024,-34.582333],[142.855188,-34.620832],[142.880354,-34.67933],[142.934046,-34.658039],[142.981381,-34.690595],[142.995748,-34.668685],[143.142612,-34.699019],[143.268754,-34.753951],[143.282707,-34.792501],[143.32813,-34.784388],[143.36048,-34.806247],[143.331283,-34.962827],[143.363994,-35.107211],[143.418357,-35.188033],[143.581397,-35.249424],[143.585996,-35.352932],[143.77694,-35.418406],[143.9807,-35.523361],[143.998425,-35.5554],[144.100073,-35.586768],[144.180378,-35.679114],[144.353287,-35.777557],[144.452558,-35.94716],[144.492659,-35.959665],[144.602781,-36.066119],[144.681898,-36.083792],[144.740706,-36.135003],[144.810934,-36.131593],[144.890154,-36.076351],[144.975472,-36.097435],[144.977435,-36.060176],[144.933924,-36.005554],[144.971234,-35.894811],[145.008441,-35.867629],[145.217937,-35.851196],[145.375964,-35.8729],[145.493786,-35.828976],[145.572593,-35.8436],[145.786947,-35.979974],[145.939754,-35.966848],[145.983472,-36.014287],[146.216223,-36.055835],[146.24356,-36.035371],[146.369495,-36.052734],[146.43192,-35.98385],[146.504267,-35.973928],[146.624053,-35.993772],[146.689217,-36.042192],[146.756397,-36.046327],[146.846882,-36.097435],[146.878766,-36.087564],[146.956126,-36.117898],[147.005322,-36.090148],[147.044906,-36.107615],[147.040979,-36.173709],[147.106918,-36.241198],[147.196318,-36.220321],[147.093792,-36.168025],[147.079633,-36.103636],[147.13472,-36.03935],[147.184329,-36.064258],[147.306337,-36.051959],[147.340289,-36.076351],[147.382198,-35.979612],[147.483691,-35.945971],[147.556761,-35.996355],[147.713806,-35.939408],[147.909711,-36.005037],[147.940665,-36.042606],[147.996889,-36.059246],[147.991412,-36.114178],[148.045465,-36.172572],[148.031926,-36.237116],[148.077815,-36.341916],[148.067583,-36.409715],[148.13099,-36.45886],[148.150317,-36.562471],[148.21486,-36.616886],[148.206179,-36.67249],[148.12329,-36.788245],[148.216824,-36.801681],[149.972075,-37.510292]]],[[[146.471365,-38.747247],[146.660899,-38.755955],[146.53891,-38.797052],[146.471365,-38.747247]]],[[[145.314952,-38.503676],[145.361013,-38.548517],[145.35255,-38.570977],[145.263682,-38.51922],[145.112966,-38.530532],[145.187673,-38.466974],[145.279307,-38.451593],[145.31837,-38.46852],[145.314952,-38.503676]]],[[[145.441905,-38.316502],[145.494395,-38.365167],[145.414073,-38.379083],[145.353282,-38.428399],[145.283702,-38.402602],[145.27003,-38.358657],[145.297862,-38.296563],[145.364106,-38.323419],[145.441905,-38.316502]]]]}},{"type":"Feature","properties":{"country_code":"AU","region_code":"AU-TAS","name":"Tasmania","native_name":"Tasmania","type":"State"},"geometry":{"type":"MultiPolygon","coordinates":[[[[147.998546,-43.230401],[147.904552,-43.180271],[147.882823,-43.131524],[147.856781,-43.156183],[147.867524,-43.203058],[147.837576,-43.201918],[147.792491,-43.244073],[147.700206,-43.162774],[147.695567,-43.13421],[147.747895,-43.105727],[147.664561,-43.081801],[147.627208,-43.042739],[147.624278,-43.008233],[147.682628,-42.984552],[147.692556,-42.936212],[147.730479,-42.946873],[147.716807,-43.005141],[147.763031,-43.03753],[147.816417,-43.052911],[147.887055,-43.034438],[147.90919,-43.018731],[147.85906,-43.007501],[147.833507,-42.963556],[147.860688,-42.95672],[147.833832,-42.944513],[147.840343,-42.902032],[147.689464,-42.895278],[147.621267,-42.861098],[147.595714,-42.821466],[147.533539,-42.836602],[147.50294,-42.882094],[147.559093,-42.977227],[147.511404,-43.024998],[147.436209,-43.046075],[147.40211,-42.998224],[147.416677,-42.984552],[147.469005,-43.011326],[147.477306,-42.908868],[147.422211,-42.926935],[147.409679,-42.888116],[147.353689,-42.861098],[147.283702,-42.778497],[147.26002,-42.790134],[147.360199,-42.925226],[147.330821,-42.978611],[147.333181,-43.042657],[147.271739,-43.011326],[147.254405,-43.027276],[147.30128,-43.083103],[147.247732,-43.129164],[147.257579,-43.254327],[147.208669,-43.286716],[147.163829,-43.270115],[147.158702,-43.240981],[147.092133,-43.231866],[147.118012,-43.196954],[147.106619,-43.154718],[147.060557,-43.201593],[147.024099,-43.179295],[147.017833,-43.1124],[146.972911,-43.131117],[146.966482,-43.198989],[147.099783,-43.299412],[147.065115,-43.326593],[147.019379,-43.312188],[146.962657,-43.340265],[147.055349,-43.356215],[146.997325,-43.422784],[146.921641,-43.42962],[147.017833,-43.478123],[146.94337,-43.476658],[146.949555,-43.531996],[146.901703,-43.531996],[146.894054,-43.557875],[146.942149,-43.58115],[146.927013,-43.611749],[146.846528,-43.64129],[146.803233,-43.610447],[146.710704,-43.629002],[146.600108,-43.552504],[146.554698,-43.469415],[146.558442,-43.52516],[146.51352,-43.533949],[146.37794,-43.528497],[146.339366,-43.504815],[146.291677,-43.531996],[146.238129,-43.484552],[146.209158,-43.491795],[146.18922,-43.539483],[146.149913,-43.505629],[146.1067,-43.518487],[146.1067,-43.546319],[146.024181,-43.552504],[146.023936,-43.451837],[145.934825,-43.378106],[145.943207,-43.364841],[146.003673,-43.381931],[145.975759,-43.347752],[146.085623,-43.353936],[146.161388,-43.415948],[146.180186,-43.364841],[146.230235,-43.395603],[146.229503,-43.319757],[146.168224,-43.277602],[146.111013,-43.336033],[146.067638,-43.281915],[146.025401,-43.324884],[145.975352,-43.283949],[145.96339,-43.226983],[145.917166,-43.195896],[145.915701,-43.246759],[145.869314,-43.273045],[145.925792,-43.289158],[145.897227,-43.306085],[145.831798,-43.292576],[145.802745,-43.208103],[145.73463,-43.143324],[145.729991,-43.10003],[145.674083,-43.099298],[145.688243,-43.049737],[145.6338,-43.024998],[145.597504,-42.971856],[145.510265,-42.958429],[145.366222,-42.757501],[145.386485,-42.714451],[145.352712,-42.650811],[145.265473,-42.604262],[145.297862,-42.558852],[145.234386,-42.464532],[145.188731,-42.195733],[145.241059,-42.264581],[145.303966,-42.283298],[145.330821,-42.323012],[145.434825,-42.379327],[145.472016,-42.512791],[145.48227,-42.41546],[145.519786,-42.426935],[145.558116,-42.341567],[145.520518,-42.360121],[145.503429,-42.319268],[145.48227,-42.339776],[145.463145,-42.327244],[145.366222,-42.2374],[145.345714,-42.147231],[145.281505,-42.177016],[145.27003,-42.223728],[145.229015,-42.195733],[145.266368,-42.123468],[145.251475,-42.041436],[145.206554,-41.966567],[145.060395,-41.849542],[144.959727,-41.714044],[144.920177,-41.702895],[144.866466,-41.54461],[144.749848,-41.414239],[144.781098,-41.365167],[144.681651,-41.223077],[144.675304,-41.080743],[144.605805,-40.996515],[144.638194,-40.974216],[144.617361,-40.92962],[144.703787,-40.871352],[144.698578,-40.660252],[144.721365,-40.640313],[144.766287,-40.726495],[144.984711,-40.744806],[145.118826,-40.821384],[145.146251,-40.807712],[145.133556,-40.791681],[145.250255,-40.791681],[145.250255,-40.715997],[145.269216,-40.719985],[145.307872,-40.755141],[145.270356,-40.774184],[145.27003,-40.797296],[145.332367,-40.838067],[145.443044,-40.867934],[145.523936,-40.845798],[145.533702,-40.885024],[145.572113,-40.909438],[145.729259,-40.93906],[145.809825,-41.026951],[145.915538,-41.041274],[146.214366,-41.155369],[146.423676,-41.166192],[146.546397,-41.132745],[146.585623,-41.180108],[146.591075,-41.147149],[146.654796,-41.092869],[146.744151,-41.065525],[146.795909,-41.091729],[146.808116,-41.156671],[146.949555,-41.161065],[146.838064,-41.115818],[146.819347,-41.075372],[146.837738,-41.039727],[147.017589,-40.976658],[147.171072,-41.006524],[147.285981,-40.941339],[147.295665,-40.957127],[147.342784,-40.942153],[147.358165,-40.971775],[147.444835,-41.008396],[147.520356,-40.952081],[147.586436,-40.856215],[147.650564,-40.828546],[147.717133,-40.867364],[147.753673,-40.856622],[147.849457,-40.888767],[147.916189,-40.852716],[147.958263,-40.751153],[147.984223,-40.736505],[148.080903,-40.767755],[148.143809,-40.834893],[148.209321,-40.840753],[148.331391,-41.002211],[148.272309,-41.045017],[148.306407,-41.065525],[148.27475,-41.124933],[148.272309,-41.202569],[148.321544,-41.268487],[148.254161,-41.325942],[148.257986,-41.346612],[148.354177,-41.291436],[148.27947,-41.450372],[148.281261,-41.53631],[148.314952,-41.606541],[148.286143,-41.689386],[148.306407,-41.750665],[148.260997,-41.800388],[148.326915,-41.915785],[148.299327,-42.050551],[148.36378,-42.110284],[148.315929,-42.17018],[148.364268,-42.20436],[148.321788,-42.278009],[148.257986,-42.244236],[148.306407,-42.185805],[148.272309,-42.15545],[148.320079,-42.119399],[148.162446,-42.059177],[148.24171,-42.00742],[148.181,-41.947361],[148.193696,-42.000909],[148.146983,-41.999282],[148.15504,-42.045587],[148.131358,-42.061944],[148.217052,-42.093357],[148.092947,-42.100193],[148.074474,-42.197361],[147.963878,-42.339776],[148.004731,-42.312433],[148.030935,-42.332289],[148.005219,-42.366876],[148.006033,-42.514093],[147.953298,-42.552667],[147.915294,-42.517267],[147.888682,-42.545099],[147.93686,-42.590916],[147.953136,-42.719985],[147.889334,-42.760675],[147.888682,-42.819513],[147.844574,-42.866143],[147.858409,-42.888442],[147.915294,-42.888442],[147.881602,-42.871677],[147.920746,-42.838311],[148.004731,-42.908868],[147.991059,-42.936212],[148.009776,-42.969903],[147.973969,-42.987726],[147.949555,-43.072849],[147.977387,-43.106866],[147.963878,-43.141697],[148.003429,-43.158136],[147.977387,-43.203058],[147.998546,-43.230401]]],[[[147.304454,-43.261814],[147.364513,-43.396742],[147.303884,-43.508884],[147.237559,-43.484308],[147.216482,-43.442641],[147.237559,-43.42962],[147.215587,-43.415216],[147.167735,-43.501642],[147.086192,-43.42962],[147.109223,-43.414972],[147.17921,-43.454034],[147.168142,-43.368259],[147.190115,-43.352716],[147.225597,-43.385512],[147.228526,-43.332208],[147.304454,-43.261814]]],[[[147.360037,-43.074884],[147.437511,-43.238946],[147.36085,-43.257908],[147.347341,-43.22796],[147.387869,-43.196222],[147.291759,-43.153009],[147.354177,-43.139418],[147.326345,-43.120538],[147.360037,-43.074884]]],[[[148.141856,-42.603774],[148.176036,-42.648207],[148.073009,-42.666762],[148.110118,-42.716485],[148.011567,-42.751235],[148.045177,-42.668715],[148.012869,-42.651625],[148.024587,-42.613458],[148.079845,-42.579278],[148.141856,-42.603774]]],[[[148.265636,-42.296482],[148.340587,-42.354099],[148.230724,-42.299412],[148.265636,-42.296482]]],[[[144.930512,-40.61533],[145.065196,-40.709161],[145.01588,-40.694268],[144.927419,-40.723403],[144.872813,-40.715997],[144.86964,-40.664809],[144.930512,-40.61533]]],[[[148.12086,-40.5617],[148.131114,-40.513767],[148.25115,-40.489435],[148.194184,-40.596287],[148.12086,-40.5617]]],[[[144.779145,-40.405369],[144.790538,-40.50213],[144.765636,-40.524509],[144.764659,-40.584568],[144.742442,-40.592462],[144.708263,-40.489435],[144.76295,-40.469496],[144.779145,-40.405369]]],[[[144.900727,-40.469496],[144.831228,-40.427992],[144.866466,-40.421157],[144.896983,-40.379571],[144.96046,-40.397882],[144.950206,-40.453383],[144.900727,-40.469496]]],[[[148.323497,-40.304457],[148.484548,-40.427992],[148.422537,-40.455255],[148.408865,-40.489435],[148.340587,-40.503676],[148.327322,-40.435968],[148.230724,-40.462091],[148.196544,-40.441664],[148.082042,-40.454278],[147.998546,-40.417739],[148.013031,-40.378106],[148.074067,-40.35117],[148.194102,-40.365655],[148.210216,-40.338637],[148.323497,-40.304457]]],[[[148.058849,-40.202081],[148.002452,-40.102472],[147.951671,-40.086358],[147.941417,-40.045099],[147.88502,-40.030857],[147.90919,-39.97617],[147.88087,-39.894952],[147.826671,-39.914158],[147.75766,-39.879327],[147.863617,-39.81699],[147.854015,-39.797459],[147.881196,-39.783136],[147.865082,-39.742852],[147.894867,-39.756443],[147.953298,-39.711684],[148.167003,-39.935642],[148.299001,-39.961847],[148.283214,-40.081476],[148.223888,-40.126397],[148.267426,-40.127374],[148.299001,-40.099054],[148.332042,-40.192153],[148.292166,-40.167901],[148.286306,-40.189711],[148.326915,-40.222589],[148.307384,-40.237726],[148.214122,-40.204197],[148.186046,-40.250584],[148.124278,-40.270603],[148.049978,-40.240981],[148.058849,-40.202081]]],[[[144.105479,-39.892999],[144.144786,-39.926446],[144.112478,-40.030857],[143.902843,-40.126153],[143.872244,-40.051202],[143.892426,-40.034763],[143.885997,-39.967869],[143.837169,-39.918634],[143.866547,-39.819431],[143.86199,-39.700616],[143.948009,-39.653985],[143.944591,-39.578871],[143.993175,-39.575128],[144.084158,-39.626153],[144.109223,-39.665785],[144.12615,-39.807712],[144.105479,-39.892999]]]]}},{"type":"Feature","properties":{"country_code":"AU","region_code":"AU-X03~","name":"Macquarie Island","native_name":"Macquarie Island","type":""},"geometry":{"type":"Polygon","coordinates":[[[158.893403,-54.510837],[158.962413,-54.469334],[158.955577,-54.551202],[158.880544,-54.745701],[158.838227,-54.750421],[158.85255,-54.613214],[158.893403,-54.510837]]]}},{"type":"Feature","properties":{"country_code":"AU","region_code":"AU-NSW","name":"Lord Howe Island","native_name":"Lord Howe Island","type":"Territory"},"geometry":{"type":"Polygon","coordinates":[[[159.044444,-31.51922],[159.068858,-31.520929],[159.106456,-31.567641],[159.08961,-31.589044],[159.064789,-31.588149],[159.083018,-31.558364],[159.044444,-31.51922]]]}},{"type":"Feature","properties":{"country_code":"AU","region_code":"AU-X04~","name":"Ashmore and Cartier Islands","native_name":"Ashmore and Cartier Islands","type":""},"geometry":{"type":"Polygon","coordinates":[[[123.575043,-12.426609],[123.597748,-12.438572],[123.575613,-12.436782],[123.575043,-12.426609]]]}},{"type":"Feature","properties":{"country_code":"AU","region_code":"AU-ACT","name":"Australian Capital Territory","native_name":"Australian Capital Territory","type":"Territory"},"geometry":{"type":"Polygon","coordinates":[[[149.127105,-35.139509],[149.184982,-35.174028],[149.194646,-35.216041],[149.24255,-35.233766],[149.249423,-35.263945],[149.4044,-35.330195],[149.359545,-35.35903],[149.277483,-35.349056],[149.232783,-35.382543],[149.20033,-35.372621],[149.142659,-35.434529],[149.150256,-35.518193],[149.126329,-35.581962],[149.086435,-35.610022],[149.104625,-35.839724],[149.035999,-35.919358],[148.922724,-35.867629],[148.883037,-35.727896],[148.848258,-35.750479],[148.7956,-35.712704],[148.772553,-35.651105],[148.770537,-35.493285],[148.817718,-35.320479],[149.127105,-35.139509]]]}}]}