{"type":"FeatureCollection","features":[{"type":"Feature","properties":{"country_code":"HK","region_code":"HK-X16~","name":"North District","native_name":"North","type":""},"geometry":{"type":"Polygon","coordinates":[[[114.173217,22.563946],[114.234711,22.556179],[114.209321,22.523708],[114.254568,22.550971],[114.289236,22.505194],[114.332774,22.511949],[114.102144,22.47041],[114.082367,22.529364],[114.148722,22.538109],[114.173217,22.563946]]]}},{"type":"Feature","properties":{"country_code":"HK","region_code":"HK-X18~","name":"Lantau Island","native_name":"Islands","type":""},"geometry":{"type":"MultiPolygon","coordinates":[[[[114.154633,22.203599],[114.11085,22.177069],[114.1067,22.235785],[114.154633,22.203599]]],[[[113.846446,22.197089],[113.839203,22.234198],[113.892507,22.292711],[114.030458,22.316164],[114.012706,22.311347],[114.018891,22.264594],[113.995372,22.267768],[114.014985,22.227078],[114.000173,22.216132],[113.945649,22.23725],[113.919119,22.205024],[113.892507,22.222398],[113.846446,22.197089]]]]}},{"type":"Feature","properties":{"country_code":"HK","region_code":"HK-X04~","name":"Southern District","native_name":"Southern","type":""},"geometry":{"type":"Polygon","coordinates":[[[114.251475,22.248887],[114.256114,22.203599],[114.222667,22.238837],[114.207693,22.189561],[114.183849,22.241034],[114.164887,22.227851],[114.112559,22.271511],[114.251475,22.248887]]]}},{"type":"Feature","properties":{"country_code":"HK","region_code":"HK-X01~","name":"Central and Western District","native_name":"Central and Western","type":""},"geometry":{"type":"Polygon","coordinates":[[[114.112559,22.271511],[114.139089,22.288723],[114.165701,22.279364],[114.162485,22.258232],[114.112559,22.271511]]]}},{"type":"Feature","properties":{"country_code":"HK","region_code":"HK-X02~","name":"Wan Chai","native_name":"Wan Chai","type":""},"geometry":{"type":"Polygon","coordinates":[[[114.165701,22.279364],[114.195002,22.27377],[114.188791,22.259378],[114.162485,22.258232],[114.165701,22.279364]]]}},{"type":"Feature","properties":{"country_code":"HK","region_code":"HK-X03~","name":"Siu Ma Shan","native_name":"Eastern","type":""},"geometry":{"type":"Polygon","coordinates":[[[114.178884,22.279364],[114.23585,22.277818],[114.251475,22.248887],[114.188791,22.259378],[114.178884,22.279364]]]}},{"type":"Feature","properties":{"country_code":"HK","region_code":"HK-X13~","name":"Tsuen Wan","native_name":"Tsuen Wan","type":""},"geometry":{"type":"MultiPolygon","coordinates":[[[[113.995632,22.315835],[114.043793,22.345771],[114.054861,22.33633],[114.050222,22.319932],[113.995632,22.315835]]],[[[114.150524,22.366628],[114.104828,22.369859],[114.020518,22.350369],[114.035817,22.382234],[114.170778,22.417825],[114.150524,22.366628]]]]}},{"type":"Feature","properties":{"country_code":"HK","region_code":"HK-X17~","name":"Tai Po","native_name":"Tai Po","type":""},"geometry":{"type":"MultiPolygon","coordinates":[[[[114.332774,22.511949],[114.253754,22.451768],[114.211762,22.470567],[114.217133,22.447943],[114.167491,22.448065],[114.205254,22.424862],[114.137259,22.411886],[114.125554,22.451683],[114.16535,22.484456],[114.297224,22.490699],[114.332774,22.511949]]],[[[114.251475,22.430732],[114.272553,22.409654],[114.276459,22.443996],[114.323741,22.480048],[114.347585,22.422919],[114.367849,22.454983],[114.350286,22.403303],[114.318293,22.418909],[114.251186,22.3955],[114.251475,22.430732]]]]}},{"type":"Feature","properties":{"country_code":"HK","region_code":"HK-X11~","name":"Sha Tin","native_name":"Sha Tin","type":""},"geometry":{"type":"Polygon","coordinates":[[[114.205254,22.424862],[114.209321,22.398668],[114.251475,22.430732],[114.251186,22.3955],[114.223094,22.355703],[114.159479,22.341871],[114.170778,22.417825],[114.205254,22.424862]]]}},{"type":"Feature","properties":{"country_code":"HK","region_code":"HK-X10~","name":"Sai Kung","native_name":"Sai Kung","type":""},"geometry":{"type":"Polygon","coordinates":[[[114.367361,22.446275],[114.39975,22.436143],[114.401296,22.412746],[114.381765,22.419053],[114.370209,22.397976],[114.38974,22.365953],[114.357595,22.332424],[114.318614,22.38939],[114.278005,22.390977],[114.276459,22.348049],[114.255544,22.355902],[114.311615,22.297309],[114.288992,22.287177],[114.303152,22.262152],[114.255544,22.322333],[114.243448,22.286189],[114.223094,22.355703],[114.251186,22.3955],[114.318293,22.418909],[114.350286,22.403303],[114.367361,22.446275]]]}},{"type":"Feature","properties":{"country_code":"HK","region_code":"HK-X09~","name":"Kwun Tong","native_name":"Kwun Tong","type":""},"geometry":{"type":"Polygon","coordinates":[[[114.243448,22.286189],[114.211762,22.310574],[114.205159,22.334539],[114.234018,22.333074],[114.243448,22.286189]]]}},{"type":"Feature","properties":{"country_code":"HK","region_code":"HK-X06~","name":"Kowloon City","native_name":"Kowloon City","type":""},"geometry":{"type":"Polygon","coordinates":[[[114.211762,22.310574],[114.176524,22.291083],[114.170032,22.344779],[114.205159,22.334539],[114.211762,22.310574]]]}},{"type":"Feature","properties":{"country_code":"HK","region_code":"HK-X05~","name":"Yau Tsim Mong","native_name":"Yau Tsim Mong","type":""},"geometry":{"type":"Polygon","coordinates":[[[114.175336,22.323053],[114.167247,22.294176],[114.159516,22.322252],[114.175336,22.323053]]]}},{"type":"Feature","properties":{"country_code":"HK","region_code":"HK-X07~","name":"Sham Shui Po","native_name":"Sham Shui Po","type":""},"geometry":{"type":"Polygon","coordinates":[[[114.175336,22.323053],[114.148326,22.338797],[114.170032,22.344779],[114.175336,22.323053]]]}},{"type":"Feature","properties":{"country_code":"HK","region_code":"HK-X12~","name":"Kwai Tsing","native_name":"Kwai Tsing","type":""},"geometry":{"type":"Polygon","coordinates":[[[114.159479,22.341871],[114.112488,22.357663],[114.141941,22.379893],[114.159479,22.341871]]]}},{"type":"Feature","properties":{"country_code":"HK","region_code":"HK-X14~","name":"Tuen Mun","native_name":"Tuen Mun","type":""},"geometry":{"type":"Polygon","coordinates":[[[114.020518,22.350369],[113.970632,22.387071],[113.97462,22.372056],[113.925955,22.369086],[113.896983,22.408759],[113.94101,22.426785],[114.035037,22.404083],[114.020518,22.350369]]]}},{"type":"Feature","properties":{"country_code":"HK","region_code":"HK-X15~","name":"Yuen Long","native_name":"Yuen Long","type":""},"geometry":{"type":"Polygon","coordinates":[[[113.94101,22.426785],[113.998627,22.488552],[114.029877,22.478258],[114.085297,22.522935],[114.102144,22.47041],[114.1396,22.468069],[114.137259,22.411886],[114.035817,22.382234],[114.035037,22.404083],[113.94101,22.426785]]]}},{"type":"Feature","properties":{"country_code":"HK","region_code":"HK-X08~","name":"Wong Tai Sin District","native_name":"Wong Tai Sin","type":""},"geometry":{"type":"Polygon","coordinates":[[[114.234018,22.333074],[114.18562,22.347988],[114.223094,22.355703],[114.234018,22.333074]]]}}]}