{"type":"FeatureCollection","features":[{"type":"Feature","properties":{"country_code":"MX","region_code":"MX-SON","name":"Sonora","native_name":"Sonora","type":"State"},"geometry":{"type":"MultiPolygon","coordinates":[[[[-114.819373,32.499363],[-111.067118,31.333644],[-108.968282,31.327391],[-109.04029,30.814088],[-108.799684,30.636244],[-108.645456,30.572604],[-108.58347,30.506614],[-108.536755,30.038632],[-108.559647,29.98215],[-108.613287,29.407611],[-108.707829,29.40079],[-108.610445,28.742742],[-108.645688,28.60766],[-108.540243,28.320055],[-108.640314,28.238793],[-108.879938,28.289075],[-109.051348,28.283519],[-109.15359,28.198951],[-109.013237,27.894189],[-108.906293,27.836157],[-108.871308,27.757014],[-108.762529,27.674952],[-108.7786,27.621984],[-108.659564,27.524884],[-108.665584,27.393083],[-108.63742,27.313837],[-108.686926,27.204438],[-108.573832,27.043285],[-108.496163,27.028092],[-108.466461,26.97987],[-108.507376,26.801569],[-109.139251,26.331772],[-109.156728,26.364203],[-109.184438,26.378567],[-109.170155,26.35871],[-109.211741,26.364936],[-109.249623,26.334459],[-109.255727,26.497992],[-109.387089,26.638021],[-109.482753,26.682211],[-109.428522,26.671851],[-109.441398,26.714555],[-109.528946,26.751438],[-109.552788,26.71701],[-109.494391,26.669173],[-109.604642,26.696597],[-109.664071,26.674062],[-109.768372,26.706512],[-109.831451,26.765692],[-109.945565,26.99709],[-109.88329,26.940904],[-109.917037,27.060074],[-109.952219,27.098578],[-110.016469,27.119045],[-110.062329,27.081692],[-110.287622,27.148394],[-110.447883,27.274262],[-110.522329,27.290354],[-110.425628,27.301906],[-110.499664,27.393378],[-110.550933,27.377387],[-110.558502,27.434394],[-110.587405,27.449365],[-110.627101,27.641099],[-110.567942,27.681383],[-110.581939,27.700141],[-110.603342,27.681383],[-110.594716,27.714504],[-110.548085,27.742825],[-110.599517,27.752346],[-110.589019,27.791246],[-110.612864,27.80093],[-110.609527,27.824774],[-110.521067,27.84455],[-110.513295,27.873196],[-110.623769,27.872992],[-110.741851,27.91413],[-110.84911,27.906684],[-110.808176,27.927802],[-110.838857,27.989407],[-110.890696,27.899848],[-110.863637,27.889797],[-110.886301,27.838853],[-110.96581,27.906684],[-110.938466,27.920356],[-110.999257,27.964057],[-111.105025,27.935372],[-111.103995,27.962051],[-111.250662,28.052013],[-111.332648,28.160407],[-111.340443,28.205268],[-111.372792,28.217719],[-111.394114,28.27383],[-111.451772,28.325629],[-111.43814,28.387112],[-111.4735,28.381049],[-111.708354,28.460141],[-111.76061,28.58397],[-111.94938,28.756514],[-111.894358,28.780666],[-111.867055,28.749579],[-111.868235,28.803127],[-111.925017,28.801719],[-112.030296,28.861431],[-112.105526,28.957378],[-112.170819,28.972993],[-112.152179,28.987436],[-112.186017,29.074745],[-112.166127,29.120429],[-112.22704,29.188422],[-112.211425,29.252808],[-112.239453,29.315337],[-112.314002,29.330543],[-112.333079,29.296536],[-112.411224,29.344728],[-112.419822,29.37591],[-112.377754,29.485729],[-112.430452,29.520222],[-112.431996,29.561184],[-112.505972,29.616919],[-112.535878,29.688218],[-112.58019,29.718004],[-112.669455,29.897623],[-112.746287,29.910465],[-112.730458,30.013373],[-112.758815,30.059181],[-112.764293,30.21152],[-112.808949,30.258583],[-112.86079,30.268999],[-112.847743,30.361345],[-112.870676,30.428534],[-112.986543,30.532352],[-113.079895,30.670441],[-113.128841,30.81244],[-113.097359,30.946008],[-113.130961,31.06499],[-113.083187,30.989408],[-113.055898,31.030707],[-113.048723,31.156692],[-113.116869,31.217645],[-113.145496,31.219293],[-113.120994,31.190026],[-113.197046,31.225188],[-113.2329,31.288031],[-113.27599,31.278266],[-113.241444,31.24124],[-113.622269,31.325584],[-113.643492,31.341775],[-113.609306,31.352915],[-113.659577,31.49754],[-113.884877,31.614691],[-113.939524,31.600409],[-113.977691,31.663072],[-113.981068,31.586737],[-113.950999,31.56802],[-113.982767,31.532285],[-114.028942,31.491539],[-114.159013,31.494509],[-114.494263,31.677366],[-114.584712,31.760755],[-114.686838,31.76553],[-114.933631,31.908763],[-114.936984,32.031895],[-114.97941,32.074012],[-114.955923,32.141553],[-115.037107,32.291699],[-114.981684,32.341489],[-114.960187,32.43864],[-114.926313,32.48254],[-114.819373,32.499363]]],[[[-110.044442,27.087],[-109.985245,27.069568],[-109.938034,27.021165],[-109.991444,27.064195],[-110.044442,27.087]]],[[[-110.604176,27.318024],[-110.604563,27.382514],[-110.59309,27.416986],[-110.594042,27.331832],[-110.534342,27.284357],[-110.604176,27.318024]]],[[[-112.253187,28.76905],[-112.30966,28.74636],[-112.359055,28.758236],[-112.583033,28.875363],[-112.526104,28.908842],[-112.485911,28.971625],[-112.500356,29.075629],[-112.464711,29.18183],[-112.264337,29.24689],[-112.281569,29.225471],[-112.272747,29.137675],[-112.195606,29.02133],[-112.276229,28.805451],[-112.253187,28.76905]]],[[[-114.786122,31.803046],[-114.710072,31.763739],[-114.652699,31.689765],[-114.762563,31.715644],[-114.798207,31.756659],[-114.786122,31.803046]]],[[[-109.231372,26.263417],[-109.216664,26.34398],[-109.16393,26.331366],[-109.156339,26.308058],[-109.231372,26.263417]]],[[[-109.292934,26.236943],[-109.262196,26.304104],[-109.254709,26.301988],[-109.262074,26.268012],[-109.292934,26.236943]]],[[[-111.381951,27.957243],[-111.38744,27.988079],[-111.365587,27.9534],[-111.381951,27.957243]]]]}},{"type":"Feature","properties":{"country_code":"MX","region_code":"MX-BCN","name":"Baja California","native_name":"Baja California","type":"State"},"geometry":{"type":"MultiPolygon","coordinates":[[[[-114.724285,32.712836],[-114.802678,32.594497],[-114.809447,32.511324],[-114.926313,32.48254],[-114.960187,32.43864],[-114.981684,32.341489],[-115.037107,32.291699],[-114.955923,32.141553],[-114.97941,32.074012],[-114.936984,32.031895],[-114.933631,31.908763],[-115.035227,31.966051],[-115.011952,31.91474],[-114.888958,31.85635],[-114.835032,31.801907],[-114.780629,31.655829],[-114.85291,31.526606],[-114.888678,31.162892],[-114.863904,31.089673],[-114.813471,31.049986],[-114.832916,31.027411],[-114.821767,30.988959],[-114.710452,30.918416],[-114.687242,30.744994],[-114.698474,30.637212],[-114.630599,30.494874],[-114.660302,30.183252],[-114.533132,29.967951],[-114.408795,29.880942],[-114.39224,29.783012],[-114.322526,29.741101],[-114.28054,29.772067],[-114.208485,29.744775],[-113.636331,29.282179],[-113.623076,29.252714],[-113.655337,29.207323],[-113.535884,29.05142],[-113.563599,29.014042],[-113.524854,28.891566],[-113.477229,28.898159],[-113.478693,28.946248],[-113.434665,28.959874],[-113.413052,28.922322],[-113.387871,28.939804],[-113.354476,28.800274],[-113.309971,28.802064],[-113.260386,28.840107],[-113.196044,28.792052],[-113.194241,28.74402],[-113.126992,28.627869],[-113.10297,28.504583],[-113.001639,28.455579],[-112.902362,28.475342],[-112.879938,28.434581],[-112.846304,28.441077],[-112.872126,28.28374],[-112.786456,28.196077],[-112.811771,28.12054],[-112.789558,28.067475],[-112.805409,28.03205],[-112.763566,27.999424],[-114.062833,28.000488],[-114.037709,28.037235],[-114.099667,28.055064],[-114.113121,28.120413],[-114.057485,28.206285],[-114.078196,28.246772],[-114.124883,28.255725],[-114.042592,28.458441],[-114.096344,28.551907],[-114.160126,28.566187],[-114.174916,28.657701],[-114.271751,28.658801],[-114.275342,28.696241],[-114.346923,28.730755],[-114.419299,28.87848],[-114.476633,28.929145],[-114.542832,28.934394],[-114.561215,28.9804],[-114.591633,28.965404],[-114.631418,29.094468],[-114.689036,29.113135],[-114.704927,29.096113],[-114.743804,29.187567],[-114.785313,29.19416],[-114.972035,29.377753],[-115.187123,29.428616],[-115.285722,29.529885],[-115.371449,29.556952],[-115.451964,29.620106],[-115.498583,29.611401],[-115.697564,29.755826],[-115.699899,29.898014],[-115.744293,29.947496],[-115.811187,29.968004],[-115.783272,30.092638],[-115.807281,30.284125],[-115.837303,30.346467],[-115.975413,30.401272],[-115.933827,30.449652],[-115.989084,30.497463],[-115.961741,30.442206],[-116.015126,30.434475],[-115.979785,30.359356],[-116.004549,30.359165],[-116.049254,30.479593],[-116.031117,30.627143],[-116.057932,30.802476],[-116.175774,30.860147],[-116.249745,30.956773],[-116.335446,30.95634],[-116.309438,31.148505],[-116.341542,31.21955],[-116.508209,31.419338],[-116.675608,31.552639],[-116.68106,31.577297],[-116.644521,31.579535],[-116.664174,31.601142],[-116.648061,31.659166],[-116.750381,31.75236],[-116.643625,31.73428],[-116.611819,31.84288],[-116.754768,31.909641],[-116.769887,31.977769],[-116.842275,31.986518],[-116.865387,32.013007],[-116.922678,32.219387],[-117.024973,32.276923],[-117.123385,32.490565],[-117.125121,32.531669],[-114.724285,32.712836]]],[[[-115.214867,28.378279],[-115.162715,28.261342],[-115.155829,28.14078],[-115.185777,28.106173],[-115.181697,28.027582],[-115.228143,28.028323],[-115.280263,28.08747],[-115.358052,28.082579],[-115.352157,28.11642],[-115.239756,28.233606],[-115.262453,28.298756],[-115.248642,28.359315],[-115.214867,28.378279]]],[[[-112.893769,28.677696],[-112.860757,28.67186],[-112.752401,28.591081],[-112.773919,28.575782],[-112.893769,28.677696]]],[[[-112.61315,28.725763],[-112.547957,28.728549],[-112.553939,28.672288],[-112.604349,28.669434],[-112.61315,28.725763]]],[[[-113.138173,29.064887],[-113.102084,29.053106],[-113.114792,28.984478],[-113.405533,29.211975],[-113.450128,29.279715],[-113.49608,29.285201],[-113.589104,29.409599],[-113.571144,29.53995],[-113.510876,29.549338],[-113.39516,29.459318],[-113.349779,29.384066],[-113.373138,29.361205],[-113.370287,29.310009],[-113.297415,29.280457],[-113.168525,29.276118],[-113.174315,29.129248],[-113.138173,29.064887]]],[[[-114.0713,28.000394],[-114.117854,28.011107],[-114.121224,28.022985],[-114.0713,28.000394]]],[[[-114.207021,27.999986],[-114.134389,28.08393],[-114.119868,28.08595],[-114.117184,28.04318],[-114.1475,28.000154],[-114.207021,27.999986]]],[[[-118.286176,29.13644],[-118.220529,29.01518],[-118.225804,28.915052],[-118.288782,28.868083],[-118.304343,28.998019],[-118.355518,29.067004],[-118.365383,29.131653],[-118.273755,29.189563],[-118.255895,29.180932],[-118.286176,29.13644]]],[[[-115.592321,28.297501],[-115.588265,28.309779],[-115.564667,28.307373],[-115.592321,28.297501]]],[[[-113.514318,29.053284],[-113.504707,29.092178],[-113.492011,29.03595],[-113.514318,29.053284]]],[[[-114.422017,29.966236],[-114.401849,29.986034],[-114.394781,29.960184],[-114.422017,29.966236]]],[[[-116.122767,30.485167],[-116.109612,30.495347],[-116.104175,30.482589],[-116.122767,30.485167]]],[[[-117.243205,32.388743],[-117.245032,32.414627],[-117.239321,32.389118],[-117.243205,32.388743]]]]}},{"type":"Feature","properties":{"country_code":"MX","region_code":"MX-CHH","name":"Chihuahua","native_name":"Chihuahua","type":"State"},"geometry":{"type":"Polygon","coordinates":[[[-108.215121,31.777751],[-106.517189,31.773824],[-106.39177,31.745919],[-106.209249,31.477305],[-105.961202,31.371006],[-105.76819,31.18001],[-105.59094,31.071438],[-105.555955,31.002605],[-105.363771,30.850366],[-105.249049,30.798845],[-105.204917,30.80241],[-105.008495,30.676992],[-104.98276,30.620716],[-104.93434,30.610536],[-104.859254,30.497261],[-104.853259,30.41215],[-104.681564,30.192939],[-104.701589,30.055324],[-104.680479,29.942308],[-104.570279,29.787511],[-104.530824,29.667906],[-104.444008,29.589203],[-104.338484,29.524013],[-104.267171,29.526571],[-104.057313,29.339037],[-103.928122,29.293019],[-103.78366,29.274803],[-103.777718,29.235297],[-103.702477,29.187858],[-103.550238,29.154656],[-103.38663,29.028798],[-103.309994,29.031175],[-103.963468,27.91889],[-103.627261,26.64393],[-103.988402,26.774697],[-104.154955,26.76772],[-104.234588,26.723227],[-104.557049,26.340511],[-104.833337,26.486782],[-104.988031,26.503576],[-105.026374,26.459471],[-105.116834,26.552411],[-105.327467,26.459471],[-105.578227,26.586595],[-105.680417,26.698939],[-105.808497,26.693255],[-106.027528,26.838595],[-106.091994,26.734932],[-106.128555,26.76772],[-106.157882,26.742063],[-106.165711,26.62052],[-106.224828,26.559671],[-106.195709,26.445337],[-106.432154,26.361776],[-106.378307,26.131506],[-106.410424,26.050736],[-106.512098,26.021668],[-106.536231,25.792018],[-106.75924,25.620297],[-106.93693,25.641588],[-107.075836,25.729386],[-107.15087,25.812895],[-107.254559,25.863254],[-107.273343,25.938236],[-107.313832,25.96578],[-107.343778,26.083835],[-107.385223,26.121894],[-107.776491,26.201321],[-107.835144,26.599591],[-107.999578,26.814565],[-108.021308,26.920011],[-108.197318,26.970835],[-108.269071,27.051527],[-108.338911,27.051088],[-108.374335,27.077443],[-108.466461,26.97987],[-108.496163,27.028092],[-108.573832,27.043285],[-108.686926,27.204438],[-108.63742,27.313837],[-108.665584,27.393083],[-108.659564,27.524884],[-108.7786,27.621984],[-108.762529,27.674952],[-108.871308,27.757014],[-108.906293,27.836157],[-109.013237,27.894189],[-109.15359,28.198951],[-109.051348,28.283519],[-108.879938,28.289075],[-108.640314,28.238793],[-108.540243,28.320055],[-108.645688,28.60766],[-108.610445,28.742742],[-108.707829,29.40079],[-108.613287,29.407611],[-108.559647,29.98215],[-108.536755,30.038632],[-108.58347,30.506614],[-108.645456,30.572604],[-108.799684,30.636244],[-109.043235,30.82848],[-108.968282,31.327391],[-108.214811,31.327443],[-108.215121,31.777751]]]}},{"type":"Feature","properties":{"country_code":"MX","region_code":"MX-COA","name":"Coahuila","native_name":"Coahuila","type":"State"},"geometry":{"type":"Polygon","coordinates":[[[-102.321011,29.893939],[-102.109344,29.80211],[-101.805978,29.811928],[-101.632216,29.775651],[-101.564907,29.786478],[-101.546458,29.820145],[-101.528604,29.801438],[-101.542893,29.771052],[-101.470908,29.791516],[-101.446103,29.771052],[-101.405098,29.778442],[-101.357684,29.667441],[-101.301073,29.649509],[-101.312158,29.597859],[-101.233919,29.622663],[-101.212861,29.531584],[-101.037782,29.460063],[-101.008068,29.380585],[-100.796143,29.257673],[-100.762501,29.173776],[-100.668967,29.116208],[-100.624318,28.924721],[-100.534453,28.830231],[-100.493939,28.708378],[-100.44619,28.626497],[-100.401438,28.60226],[-100.38423,28.537174],[-100.322631,28.510406],[-100.355549,28.478185],[-100.278551,28.331088],[-100.275089,28.277242],[-100.205946,28.242877],[-100.189203,28.201329],[-100.056498,28.137922],[-99.991127,28.007801],[-99.928289,27.975761],[-99.929916,27.946331],[-99.88134,27.906463],[-99.891288,27.876026],[-99.863357,27.804661],[-99.806963,27.771423],[-99.975675,27.637616],[-100.181864,27.793549],[-100.358184,27.674151],[-100.455181,27.353602],[-100.494558,27.34492],[-100.511766,27.365746],[-100.627522,27.327893],[-100.81304,27.199477],[-100.799552,27.059718],[-100.751442,27.038841],[-100.753767,27.013106],[-100.704416,27.027084],[-100.711806,27.064317],[-100.665142,27.099535],[-100.559515,27.053],[-100.551867,26.886886],[-100.609228,26.716354],[-100.711496,26.617316],[-100.752578,26.731857],[-101.215651,26.372964],[-101.108732,26.283409],[-101.048995,26.165612],[-100.990342,26.149825],[-100.946417,26.107761],[-100.923317,26.000119],[-100.847715,25.956866],[-100.84632,25.785326],[-100.782034,25.678045],[-100.738626,25.626498],[-100.648554,25.604587],[-100.636151,25.55689],[-100.581736,25.54609],[-100.571711,25.523817],[-100.570884,25.498315],[-100.664832,25.529863],[-100.696355,25.505808],[-100.627728,25.476378],[-100.572331,25.413875],[-100.498899,25.397468],[-100.468306,25.343001],[-100.303459,25.344862],[-100.199279,25.275874],[-100.258448,25.257425],[-100.27359,25.203191],[-100.402161,25.192597],[-100.596102,25.229494],[-100.714648,25.182288],[-100.794436,25.121568],[-100.835467,25.041314],[-100.731598,24.96243],[-100.796193,24.893468],[-100.767151,24.77593],[-100.82844,24.564961],[-100.925178,24.611676],[-101.01711,24.602349],[-101.09664,24.641003],[-101.169297,24.767687],[-101.231102,24.817504],[-101.341586,24.811871],[-101.34417,24.838019],[-101.44158,24.752185],[-101.617177,24.757094],[-101.654332,24.825798],[-101.574389,24.80691],[-101.59077,24.882435],[-101.767762,24.938065],[-101.860728,25.07555],[-102.199932,25.165544],[-102.63404,25.116323],[-102.838549,24.898661],[-102.843097,24.728284],[-102.971875,24.806652],[-103.226174,24.887215],[-103.25147,24.922975],[-103.275319,25.072139],[-103.387973,25.14061],[-103.506157,25.28055],[-103.479854,25.377263],[-103.423837,25.417467],[-103.483575,25.485292],[-103.487786,25.540948],[-103.320174,25.698716],[-103.349526,26.073732],[-103.269582,26.31289],[-103.325703,26.408673],[-103.627261,26.64393],[-103.963468,27.91889],[-103.313094,29.024689],[-103.301545,29.002365],[-103.122771,28.996474],[-103.104684,29.057866],[-103.024275,29.116157],[-102.988386,29.177135],[-102.858781,29.229147],[-102.899709,29.2639],[-102.883069,29.343766],[-102.837672,29.366322],[-102.839067,29.45195],[-102.69104,29.736817],[-102.566758,29.771052],[-102.546578,29.757875],[-102.515288,29.784721],[-102.406096,29.777279],[-102.370723,29.857765],[-102.321011,29.893939]]]}},{"type":"Feature","properties":{"country_code":"MX","region_code":"MX-TAM","name":"Tamaulipas","native_name":"Tamaulipas","type":"State"},"geometry":{"type":"MultiPolygon","coordinates":[[[[-99.710674,27.670116],[-99.644869,27.632733],[-99.590247,27.642061],[-99.507203,27.57377],[-99.509503,27.500028],[-99.480409,27.490778],[-99.472916,27.426647],[-99.521362,27.311254],[-99.451832,27.26118],[-99.431988,27.207591],[-99.461728,27.056954],[-99.399329,27.012668],[-99.386177,26.962231],[-99.248278,26.827097],[-99.164873,26.540448],[-99.10299,26.512078],[-99.089373,26.47115],[-99.108907,26.434253],[-99.085498,26.40764],[-98.962844,26.399527],[-98.893029,26.367849],[-98.801329,26.372138],[-98.653663,26.244291],[-98.581627,26.262274],[-98.472383,26.207652],[-98.428845,26.217729],[-98.36934,26.19401],[-98.377272,26.163572],[-98.339264,26.159851],[-98.300429,26.111431],[-98.185062,26.065232],[-98.103103,26.074947],[-98.065457,26.042184],[-98.013057,26.063682],[-97.80201,26.063733],[-97.766948,26.039652],[-97.659874,26.03066],[-97.52027,25.912786],[-97.448259,25.892322],[-97.425418,25.854857],[-97.345733,25.852222],[-97.351107,25.918419],[-97.287649,25.928651],[-97.266358,25.960639],[-97.139272,25.965806],[-97.165151,25.723334],[-97.319447,25.38996],[-97.458974,25.179389],[-97.651438,24.515855],[-97.725209,23.80565],[-97.750966,23.781928],[-97.822092,23.788398],[-97.75886,23.769029],[-97.76061,23.651923],[-97.733306,23.774807],[-97.722239,23.739325],[-97.768544,23.260077],[-97.74234,22.972073],[-97.753814,22.849311],[-97.753896,22.923245],[-97.838246,22.739691],[-97.876698,22.739447],[-97.855051,22.698554],[-97.893219,22.610256],[-97.881988,22.587877],[-97.858388,22.593451],[-97.834299,22.669745],[-97.850006,22.534613],[-97.781858,22.273336],[-97.851774,22.220298],[-97.912804,22.267427],[-97.908618,22.319103],[-98.092793,22.37264],[-98.197696,22.48054],[-98.289783,22.466794],[-98.30942,22.399512],[-98.439231,22.43274],[-98.616171,22.41858],[-98.656324,22.44292],[-98.830887,22.358377],[-99.206471,22.437959],[-99.265227,22.478267],[-99.379174,22.683422],[-99.431729,22.635518],[-99.547846,22.728277],[-99.527692,22.625493],[-99.55446,22.620997],[-100.000066,22.783364],[-100.039754,22.868269],[-99.933404,22.93519],[-99.907565,22.984075],[-99.998723,23.110373],[-100.006319,23.165253],[-100.08926,23.120811],[-100.046265,23.297235],[-100.125588,23.356249],[-100.042854,23.415264],[-99.906015,23.375111],[-99.952111,23.527711],[-99.852995,23.726407],[-99.821524,23.74868],[-99.599729,23.766844],[-99.502164,23.890377],[-99.449919,23.900118],[-99.475551,23.972465],[-99.609444,24.091811],[-99.616317,24.186121],[-99.573942,24.361924],[-99.606292,24.512509],[-99.709955,24.472486],[-99.736827,24.569663],[-99.650579,24.639091],[-99.586965,24.658547],[-99.547277,24.645809],[-99.499993,24.674282],[-99.478548,24.739834],[-99.414727,24.779185],[-99.335611,24.790193],[-99.29396,24.82665],[-99.163942,24.775775],[-99.192984,24.878017],[-99.142444,24.945868],[-99.188488,25.006898],[-99.142548,25.013021],[-99.145338,25.052037],[-99.106529,25.048859],[-99.03382,25.119552],[-98.980542,25.070951],[-98.887318,25.086273],[-98.445691,25.424572],[-98.449825,25.468652],[-98.554315,25.476921],[-98.561033,25.502578],[-98.568939,25.997432],[-98.830164,26.05934],[-98.888816,25.970818],[-99.037231,26.100784],[-99.133142,26.056704],[-99.180013,26.288706],[-99.254479,26.294829],[-99.332769,26.39503],[-99.391835,26.365574],[-99.41974,26.399242],[-99.422892,26.464431],[-99.384187,26.540215],[-99.39137,26.597886],[-99.558181,26.684651],[-99.652852,26.68385],[-99.562574,26.834977],[-99.630063,26.883863],[-99.700446,26.896266],[-99.731866,26.93231],[-99.676107,27.153666],[-99.711867,27.19958],[-99.75636,27.450469],[-99.777909,27.481889],[-99.903638,27.499769],[-99.9148,27.534289],[-99.909943,27.572167],[-99.710674,27.670116]]],[[[-97.84317,22.684882],[-97.798411,22.762519],[-97.788564,22.774848],[-97.796132,22.723782],[-97.84317,22.684882]]]]}},{"type":"Feature","properties":{"country_code":"MX","region_code":"MX-NLE","name":"Nuevo León","native_name":"Nuevo León","type":"State"},"geometry":{"type":"Polygon","coordinates":[[[-99.806963,27.771423],[-99.710674,27.670116],[-99.909943,27.572167],[-99.9148,27.534289],[-99.903638,27.499769],[-99.777909,27.481889],[-99.75636,27.450469],[-99.711867,27.19958],[-99.676107,27.153666],[-99.731866,26.93231],[-99.700446,26.896266],[-99.630063,26.883863],[-99.562574,26.834977],[-99.652852,26.68385],[-99.558181,26.684651],[-99.39137,26.597886],[-99.384187,26.540215],[-99.422892,26.464431],[-99.41974,26.399242],[-99.391835,26.365574],[-99.332769,26.39503],[-99.254479,26.294829],[-99.180013,26.288706],[-99.133142,26.056704],[-99.037231,26.100784],[-98.888816,25.970818],[-98.830164,26.05934],[-98.568939,25.997432],[-98.561033,25.502578],[-98.554315,25.476921],[-98.449825,25.468652],[-98.445691,25.424572],[-98.887318,25.086273],[-98.980542,25.070951],[-99.03382,25.119552],[-99.106529,25.048859],[-99.145338,25.052037],[-99.142548,25.013021],[-99.188488,25.006898],[-99.142444,24.945868],[-99.192984,24.878017],[-99.163942,24.775775],[-99.29396,24.82665],[-99.335611,24.790193],[-99.414727,24.779185],[-99.478548,24.739834],[-99.499993,24.674282],[-99.547277,24.645809],[-99.586965,24.658547],[-99.650579,24.639091],[-99.736827,24.569663],[-99.709955,24.472486],[-99.606292,24.512509],[-99.573942,24.361924],[-99.616317,24.186121],[-99.609444,24.091811],[-99.463665,23.957401],[-99.451728,23.891643],[-99.502164,23.890377],[-99.599729,23.766844],[-99.840076,23.740799],[-99.950302,23.538564],[-99.906015,23.375111],[-100.042854,23.415264],[-100.125588,23.356249],[-100.054998,23.313771],[-100.057272,23.241062],[-100.326816,23.254136],[-100.340046,23.189593],[-100.422159,23.210883],[-100.450581,23.257599],[-100.472751,23.43304],[-100.452959,23.49991],[-100.4943,23.661579],[-100.480347,23.788522],[-100.597239,23.974377],[-100.618065,24.311049],[-100.82844,24.564961],[-100.767151,24.77593],[-100.796193,24.893468],[-100.731598,24.96243],[-100.835467,25.041314],[-100.770614,25.147251],[-100.657287,25.211769],[-100.52882,25.229416],[-100.402161,25.192597],[-100.27359,25.203191],[-100.258448,25.257425],[-100.199279,25.275874],[-100.303459,25.344862],[-100.468306,25.343001],[-100.498899,25.397468],[-100.572331,25.413875],[-100.627728,25.476378],[-100.696355,25.505808],[-100.664832,25.529863],[-100.570884,25.498315],[-100.571711,25.523817],[-100.581736,25.54609],[-100.636151,25.55689],[-100.648554,25.604587],[-100.738626,25.626498],[-100.782034,25.678045],[-100.84632,25.785326],[-100.847715,25.956866],[-100.923317,26.000119],[-100.946417,26.107761],[-100.990342,26.149825],[-101.048995,26.165612],[-101.108732,26.283409],[-101.215651,26.372964],[-100.752578,26.731857],[-100.711496,26.617316],[-100.609228,26.716354],[-100.551867,26.886886],[-100.559515,27.053],[-100.665142,27.099535],[-100.711806,27.064317],[-100.704416,27.027084],[-100.753767,27.013106],[-100.751442,27.038841],[-100.799552,27.059718],[-100.81304,27.199477],[-100.627522,27.327893],[-100.511766,27.365746],[-100.494558,27.34492],[-100.455181,27.353602],[-100.358184,27.674151],[-100.181864,27.793549],[-99.975675,27.637616],[-99.806963,27.771423]]]}},{"type":"Feature","properties":{"country_code":"MX","region_code":"MX-ROO","name":"Quintana Roo","native_name":"Quintana Roo","type":"State"},"geometry":{"type":"MultiPolygon","coordinates":[[[[-88.283315,18.491441],[-88.489245,18.484506],[-88.527822,18.454146],[-88.616989,18.235426],[-88.696623,18.178065],[-88.726647,18.066728],[-88.871367,17.89095],[-89.049444,17.999213],[-89.146337,17.951456],[-89.154088,18.031407],[-89.035671,18.202714],[-89.060967,18.425104],[-89.044533,18.492205],[-89.075875,18.505796],[-89.067116,18.58959],[-89.101119,18.632016],[-89.108845,18.690772],[-89.082361,18.961402],[-89.020736,19.033464],[-89.013502,19.217846],[-89.037247,19.289159],[-89.13458,19.405225],[-89.373867,19.593947],[-89.415364,19.651049],[-89.37025,19.75497],[-89.368829,19.820134],[-89.202043,19.841735],[-89.150884,19.89305],[-89.055747,19.931755],[-88.927538,19.940876],[-88.83943,20.013895],[-88.791474,19.98121],[-88.790027,20.018985],[-88.707448,20.080842],[-88.445268,20.183652],[-88.346333,20.318579],[-88.313338,20.316383],[-88.260835,20.262975],[-88.272436,20.34341],[-88.194017,20.452835],[-88.160711,20.459217],[-88.1064,20.428288],[-87.988422,20.442732],[-87.674875,20.647887],[-87.53398,20.955698],[-87.585036,21.111063],[-87.525091,21.298778],[-87.539784,21.499335],[-87.474599,21.480129],[-87.492747,21.468492],[-87.238189,21.44302],[-87.155588,21.481757],[-87.129994,21.519436],[-87.138336,21.563056],[-87.199859,21.562323],[-87.256581,21.528022],[-87.331207,21.534084],[-87.337473,21.554592],[-87.402333,21.509467],[-87.413157,21.534084],[-87.365305,21.573961],[-87.272125,21.560777],[-87.134185,21.619452],[-87.043324,21.602118],[-86.918528,21.439602],[-86.827952,21.433295],[-86.815053,21.204779],[-86.790924,21.158352],[-86.741567,21.16413],[-86.783681,21.035956],[-86.827748,21.012641],[-86.875315,20.855048],[-87.067454,20.619208],[-87.234975,20.49258],[-87.379018,20.266669],[-87.430491,20.221015],[-87.471303,20.069037],[-87.434193,19.889228],[-87.479807,19.784329],[-87.48176,19.836656],[-87.447336,19.861965],[-87.443918,19.913479],[-87.478017,19.96483],[-87.474599,19.875637],[-87.454701,19.889309],[-87.525258,19.802883],[-87.549672,19.817613],[-87.579945,19.799018],[-87.667348,19.633775],[-87.660146,19.683783],[-87.7412,19.671698],[-87.731516,19.600531],[-87.660146,19.567776],[-87.673818,19.505683],[-87.564565,19.567776],[-87.441396,19.553656],[-87.425771,19.592108],[-87.443918,19.57392],[-87.529205,19.587592],[-87.447336,19.580797],[-87.440419,19.635972],[-87.41275,19.577623],[-87.458404,19.455024],[-87.534779,19.402045],[-87.57079,19.39643],[-87.536692,19.437445],[-87.617665,19.405463],[-87.65567,19.373236],[-87.675852,19.311184],[-87.660146,19.307034],[-87.687856,19.242133],[-87.638987,19.220933],[-87.567128,19.317206],[-87.495717,19.327582],[-87.516184,19.286566],[-87.460927,19.320705],[-87.533437,19.228095],[-87.662017,18.766832],[-87.73705,18.644965],[-87.762563,18.429389],[-87.84142,18.277655],[-87.844553,18.196682],[-87.858795,18.245063],[-87.887196,18.230048],[-87.865631,18.327582],[-87.885487,18.292222],[-87.879303,18.340644],[-87.89977,18.389065],[-87.935292,18.400051],[-87.93517,18.443101],[-88.077789,18.498603],[-88.002187,18.690131],[-88.004547,18.786851],[-88.036285,18.874986],[-88.103912,18.80272],[-88.127309,18.730211],[-88.142934,18.731635],[-88.134674,18.769517],[-88.198801,18.739936],[-88.247792,18.696275],[-88.255483,18.676459],[-88.187123,18.738511],[-88.194651,18.676459],[-88.150746,18.698554],[-88.283315,18.491441]]],[[[-87.343617,18.452338],[-87.310129,18.567206],[-87.334503,18.454372],[-87.379425,18.402493],[-87.343617,18.452338]]],[[[-87.269154,18.738511],[-87.248158,18.676215],[-87.262929,18.628648],[-87.258616,18.656968],[-87.269154,18.738511]]],[[[-86.837148,20.547187],[-86.735341,20.585354],[-86.797109,20.477484],[-86.889801,20.353664],[-86.995269,20.26081],[-87.019683,20.397447],[-86.968129,20.506252],[-86.905426,20.567694],[-86.837148,20.547187]]],[[[-86.700592,21.19892],[-86.739573,21.242825],[-86.741567,21.287665],[-86.727528,21.242906],[-86.700592,21.19892]]]]}},{"type":"Feature","properties":{"country_code":"MX","region_code":"MX-CAM","name":"Campeche","native_name":"Campeche","type":"State"},"geometry":{"type":"MultiPolygon","coordinates":[[[[-89.154088,18.031407],[-89.160496,17.814314],[-90.990901,17.801964],[-90.991676,17.968206],[-91.123709,17.975802],[-91.167996,18.006808],[-91.245665,18.010632],[-91.331965,18.066856],[-91.540841,18.10458],[-91.5889,18.097862],[-91.633083,17.950894],[-91.859323,17.953581],[-91.965415,18.010839],[-91.97513,18.041638],[-92.155636,18.168814],[-92.149073,18.461871],[-92.368077,18.460786],[-92.416498,18.503315],[-92.486144,18.648483],[-92.060133,18.701617],[-91.94806,18.691225],[-91.860422,18.621812],[-91.866567,18.598375],[-91.932362,18.593899],[-91.950185,18.629543],[-92.008209,18.612982],[-91.990712,18.593899],[-92.039133,18.601304],[-92.052805,18.546698],[-91.95519,18.547675],[-91.888295,18.505764],[-91.964182,18.562323],[-91.970286,18.593899],[-91.901967,18.580797],[-91.915028,18.56037],[-91.874013,18.52558],[-91.894521,18.52558],[-91.826283,18.491441],[-91.860422,18.433173],[-91.802073,18.385647],[-91.812611,18.450507],[-91.771596,18.436835],[-91.798329,18.491441],[-91.68224,18.450507],[-91.504058,18.464179],[-91.48648,18.436428],[-91.483632,18.498277],[-91.538889,18.471015],[-91.504058,18.511949],[-91.345041,18.565619],[-91.301747,18.621812],[-91.251332,18.619696],[-91.181996,18.656562],[-91.298655,18.628648],[-91.265533,18.735663],[-91.302358,18.780951],[-91.367014,18.771226],[-91.414703,18.813625],[-91.237213,18.957587],[-91.391265,18.871283],[-91.414703,18.826646],[-91.505279,18.816555],[-91.431188,18.880117],[-91.16161,19.016262],[-90.935536,19.163072],[-90.856557,19.258287],[-90.742421,19.342963],[-90.702789,19.711127],[-90.66454,19.781928],[-90.477823,19.922101],[-90.463857,19.977851],[-90.500234,20.07925],[-90.474477,20.408515],[-90.489898,20.534125],[-90.459381,20.715522],[-90.381143,20.824027],[-90.391996,20.547222],[-90.374168,20.518541],[-90.236347,20.509989],[-90.169219,20.424697],[-90.129945,20.439218],[-90.094237,20.407359],[-90.018402,20.467537],[-89.943755,20.323178],[-89.869832,20.268608],[-89.81074,20.137427],[-89.629976,20.019088],[-89.557835,19.890078],[-89.454741,19.77701],[-89.44208,19.706162],[-89.373867,19.593947],[-89.13458,19.405225],[-89.037247,19.289159],[-89.013502,19.217846],[-89.020736,19.033464],[-89.082361,18.961402],[-89.108845,18.690772],[-89.101119,18.632016],[-89.067116,18.58959],[-89.075875,18.505796],[-89.044533,18.492205],[-89.060967,18.425104],[-89.035671,18.202714],[-89.154088,18.031407]]],[[[-91.842681,18.65119],[-91.538889,18.793118],[-91.524566,18.752143],[-91.620839,18.744696],[-91.688873,18.66942],[-91.723215,18.662787],[-91.702748,18.697496],[-91.842681,18.65119]]]]}},{"type":"Feature","properties":{"country_code":"MX","region_code":"MX-TAB","name":"Tabasco","native_name":"Tabasco","type":"State"},"geometry":{"type":"Polygon","coordinates":[[[-90.991676,17.968206],[-90.991986,17.25192],[-91.433267,17.254538],[-91.434749,17.303027],[-91.387414,17.333258],[-91.423742,17.385657],[-91.492317,17.40147],[-91.500688,17.463586],[-91.644711,17.524925],[-91.698144,17.713596],[-91.794262,17.728841],[-91.775555,17.774316],[-91.799223,17.869349],[-91.914978,17.888159],[-91.942935,17.854001],[-91.966862,17.909243],[-92.077811,17.832762],[-92.060809,17.802635],[-92.080756,17.787287],[-92.148142,17.787803],[-92.368077,17.696853],[-92.383012,17.623317],[-92.439494,17.607349],[-92.695448,17.383539],[-92.755237,17.364263],[-92.829341,17.401832],[-92.910215,17.525804],[-92.98313,17.542134],[-93.010725,17.708273],[-92.99791,17.932911],[-93.054547,17.89467],[-93.087568,17.900303],[-93.186477,17.974407],[-93.27102,17.993682],[-93.313446,17.963865],[-93.414422,17.637683],[-93.511418,17.546371],[-93.589502,17.375529],[-93.6434,17.420797],[-93.622678,17.563011],[-93.733782,17.67148],[-93.846023,17.710289],[-93.862146,17.744499],[-93.93687,17.758555],[-93.97046,17.832297],[-94.076707,17.88201],[-94.050765,17.993682],[-94.089781,18.072747],[-94.096034,18.15822],[-94.125593,18.16747],[-94.137073,18.207436],[-93.86148,18.306545],[-93.878285,18.256903],[-93.781117,18.272773],[-93.738596,18.340644],[-93.592844,18.344957],[-93.576405,18.411851],[-93.847808,18.299709],[-93.839589,18.318549],[-93.552358,18.429389],[-93.155751,18.443061],[-93.183095,18.408922],[-93.176422,18.377672],[-93.121653,18.389065],[-93.128489,18.340644],[-93.088368,18.392768],[-93.137603,18.42886],[-92.855731,18.466047],[-92.716908,18.59219],[-92.669097,18.429389],[-92.662262,18.535834],[-92.695872,18.615627],[-92.486144,18.648483],[-92.416498,18.503315],[-92.368077,18.460786],[-92.149073,18.461871],[-92.155636,18.168814],[-91.890949,17.966656],[-91.633083,17.950894],[-91.5889,18.097862],[-91.476556,18.102203],[-91.331965,18.066856],[-91.245665,18.010632],[-91.167996,18.006808],[-91.123709,17.975802],[-90.991676,17.968206]]]}},{"type":"Feature","properties":{"country_code":"MX","region_code":"MX-CHP","name":"Chiapas","native_name":"Chiapas","type":"State"},"geometry":{"type":"MultiPolygon","coordinates":[[[[-91.434749,17.303027],[-91.442502,17.237967],[-91.372945,17.213576],[-91.364884,17.189753],[-91.279514,17.180089],[-91.259205,17.124331],[-91.1712,17.028006],[-91.126552,17.024595],[-91.054928,16.908013],[-90.993072,16.874372],[-90.98625,16.901088],[-90.955193,16.898763],[-90.968887,16.874372],[-90.919071,16.836338],[-90.810602,16.812928],[-90.73531,16.746576],[-90.667717,16.652576],[-90.6672,16.586999],[-90.633765,16.592167],[-90.648183,16.529586],[-90.612061,16.507624],[-90.633094,16.483336],[-90.543719,16.490209],[-90.532893,16.459927],[-90.497753,16.46804],[-90.475842,16.430729],[-90.394917,16.419206],[-90.379853,16.367271],[-90.418223,16.367167],[-90.404684,16.331511],[-90.444888,16.30836],[-90.414063,16.287844],[-90.459435,16.25906],[-90.434475,16.236323],[-90.461812,16.189142],[-90.42613,16.163149],[-90.459487,16.116795],[-90.434475,16.107183],[-90.485738,16.0707],[-91.739848,16.060985],[-92.211292,15.272066],[-92.073807,15.073706],[-92.103831,15.01787],[-92.154215,14.995933],[-92.15468,14.900797],[-92.191655,14.835297],[-92.160804,14.683498],[-92.226097,14.549346],[-92.250762,14.550727],[-92.840606,15.16116],[-92.840443,15.181952],[-92.780873,15.15884],[-92.737416,15.092597],[-92.768422,15.171454],[-92.854034,15.208523],[-92.846669,15.188788],[-92.863515,15.191107],[-92.983144,15.26557],[-93.199615,15.490994],[-93.656036,15.83926],[-93.943389,16.010565],[-93.878041,16.005398],[-93.854034,16.024848],[-93.898101,16.088935],[-94.083619,16.148857],[-94.046425,16.21591],[-94.039862,16.302571],[-94.125076,16.508812],[-94.03981,16.64286],[-94.041464,16.800525],[-93.911291,16.880675],[-93.905296,17.000513],[-93.868089,17.012192],[-93.873412,17.15022],[-93.618544,17.316101],[-93.511418,17.546371],[-93.414422,17.637683],[-93.313446,17.963865],[-93.27102,17.993682],[-93.186477,17.974407],[-93.087568,17.900303],[-93.054547,17.89467],[-92.99791,17.932911],[-93.010725,17.708273],[-92.98313,17.542134],[-92.910215,17.525804],[-92.829341,17.401832],[-92.755237,17.364263],[-92.695448,17.383539],[-92.439494,17.607349],[-92.383012,17.623317],[-92.368077,17.696853],[-92.343479,17.712976],[-92.148142,17.787803],[-92.080756,17.787287],[-92.060809,17.802635],[-92.077811,17.832762],[-91.995594,17.904747],[-91.953529,17.902318],[-91.942935,17.854001],[-91.914978,17.888159],[-91.818757,17.88542],[-91.78403,17.840203],[-91.794262,17.728841],[-91.698144,17.713596],[-91.644711,17.524925],[-91.500688,17.463586],[-91.492317,17.40147],[-91.423742,17.385657],[-91.387414,17.333258],[-91.434749,17.303027]]],[[[-94.094028,16.098969],[-94.030385,16.03974],[-93.963897,15.997504],[-94.114857,16.057202],[-94.094028,16.098969]]]]}},{"type":"Feature","properties":{"country_code":"MX","region_code":"MX-COL","name":"Colima","native_name":"Colima","type":"State"},"geometry":{"type":"MultiPolygon","coordinates":[[[[-114.775543,18.354926],[-114.724029,18.354926],[-114.720855,18.345689],[-114.798573,18.330878],[-114.775543,18.354926]]],[[[-110.956166,18.843695],[-110.911204,18.762519],[-110.924306,18.727362],[-110.979482,18.716783],[-111.06725,18.768744],[-111.000559,18.868232],[-110.956166,18.843695]]],[[[-110.81432,19.348049],[-110.787668,19.31391],[-110.83023,19.273342],[-110.836049,19.293402],[-110.81432,19.348049]]],[[[-103.742025,18.690412],[-103.979977,18.874938],[-104.331668,19.022256],[-104.329012,19.053299],[-104.299608,19.065755],[-104.328721,19.099297],[-104.386139,19.115433],[-104.390002,19.093372],[-104.415802,19.105658],[-104.439548,19.081607],[-104.503814,19.129665],[-104.592559,19.149604],[-104.592267,19.172525],[-104.525656,19.253295],[-104.475271,19.229524],[-104.420572,19.288022],[-104.384734,19.270452],[-104.214512,19.320371],[-104.152216,19.398196],[-104.135447,19.457676],[-104.055762,19.537154],[-104.050646,19.502324],[-103.833476,19.397576],[-103.716868,19.441088],[-103.648577,19.501394],[-103.600648,19.407756],[-103.491326,19.310811],[-103.525226,19.09253],[-103.477813,18.96644],[-103.5776,18.883964],[-103.61181,18.88846],[-103.627028,18.802419],[-103.679067,18.778854],[-103.742025,18.690412]]]]}},{"type":"Feature","properties":{"country_code":"MX","region_code":"MX-NAY","name":"Nayarit","native_name":"Nayarit","type":"State"},"geometry":{"type":"MultiPolygon","coordinates":[[[[-106.224038,21.328736],[-106.227506,21.291166],[-106.279363,21.314659],[-106.260005,21.334097],[-106.224038,21.328736]]],[[[-106.459587,21.494885],[-106.362887,21.464307],[-106.387098,21.420636],[-106.492614,21.469005],[-106.459587,21.494885]]],[[[-106.512353,21.597034],[-106.532361,21.541629],[-106.631156,21.600861],[-106.660848,21.693064],[-106.548004,21.668546],[-106.512353,21.597034]]],[[[-106.663823,21.777246],[-106.657766,21.739878],[-106.678963,21.727036],[-106.688941,21.746832],[-106.663823,21.777246]]],[[[-105.290781,20.68515],[-105.361561,20.762751],[-105.410907,20.733999],[-105.544896,20.768096],[-105.486535,20.796223],[-105.455285,20.867023],[-105.309682,21.030666],[-105.270559,21.025323],[-105.234327,21.060966],[-105.216081,21.204379],[-105.243138,21.342064],[-105.186635,21.453396],[-105.217559,21.517239],[-105.263504,21.513401],[-105.448417,21.631032],[-105.632264,21.955737],[-105.657261,22.047253],[-105.655032,22.256298],[-105.732696,22.504055],[-105.678738,22.448966],[-105.661788,22.480024],[-105.677472,22.535214],[-105.591353,22.544154],[-105.499989,22.490049],[-105.442783,22.51475],[-105.486527,22.684145],[-105.577142,22.770187],[-105.452266,22.90129],[-105.470947,22.985522],[-105.451801,23.023556],[-105.413586,23.03508],[-105.17882,23.031618],[-104.955914,22.928472],[-104.888579,22.790289],[-104.988573,22.691638],[-104.996661,22.543482],[-104.942374,22.556246],[-104.774349,22.676239],[-104.659162,22.616604],[-104.613842,22.48147],[-104.533485,22.427417],[-104.477157,22.416772],[-104.334634,22.474856],[-104.311431,22.319103],[-104.398661,22.085422],[-104.098421,21.784459],[-104.158133,21.59677],[-104.2103,21.519152],[-103.944683,21.375181],[-103.968584,21.287073],[-104.039665,21.219842],[-104.20167,21.198603],[-104.224124,21.169251],[-104.208182,20.993293],[-104.271072,20.861518],[-104.285619,20.708039],[-104.462481,20.830408],[-104.522917,20.906579],[-104.620973,20.923116],[-104.727891,21.009726],[-104.77794,21.020629],[-104.924339,20.931177],[-105.02733,20.916605],[-105.057432,20.936759],[-105.094562,20.918103],[-105.290781,20.68515]]]]}},{"type":"Feature","properties":{"country_code":"MX","region_code":"MX-BCS","name":"Baja California Sur","native_name":"Baja California Sur","type":"State"},"geometry":{"type":"MultiPolygon","coordinates":[[[[-109.93322,24.374414],[-109.802865,24.137062],[-109.873927,24.151703],[-109.900432,24.199241],[-109.93322,24.374414]]],[[[-111.561635,24.378079],[-111.462958,24.329771],[-111.561253,24.362367],[-111.673254,24.358401],[-111.561635,24.378079]]],[[[-111.753489,24.446967],[-111.692317,24.373939],[-111.708111,24.299854],[-111.871583,24.439099],[-112.006844,24.5144],[-111.864395,24.520479],[-111.837343,24.512756],[-111.818232,24.467621],[-111.753489,24.446967]]],[[[-110.363989,24.532489],[-110.287863,24.469742],[-110.326505,24.400749],[-110.34804,24.402451],[-110.39677,24.511183],[-110.376232,24.530767],[-110.415745,24.569601],[-110.386497,24.586864],[-110.363989,24.532489]]],[[[-110.710792,25.095047],[-110.668625,25.052773],[-110.574916,25.015727],[-110.570692,24.955493],[-110.524929,24.880001],[-110.579153,24.863662],[-110.57388,24.887455],[-110.642313,24.914498],[-110.675838,25.011198],[-110.713282,25.029215],[-110.710792,25.095047]]],[[[-112.103485,24.617166],[-112.059907,24.540603],[-112.102478,24.559152],[-112.113862,24.599166],[-112.176344,24.653562],[-112.138381,24.680297],[-112.155764,24.743385],[-112.237785,24.789228],[-112.259413,24.749407],[-112.304596,24.792182],[-112.125326,25.265833],[-112.120224,25.220521],[-112.179304,25.044986],[-112.161827,24.974397],[-112.186964,24.961331],[-112.19593,24.915301],[-112.176865,24.872388],[-112.213715,24.847527],[-112.115623,24.689301],[-112.136464,24.632882],[-112.103485,24.617166]]],[[[-110.753187,25.598096],[-110.805532,25.644418],[-110.773414,25.712795],[-110.753187,25.598096]]],[[[-111.081194,25.998658],[-111.067386,25.965818],[-111.11233,25.99666],[-111.180803,25.902525],[-111.204991,25.803754],[-111.233355,25.842899],[-111.169255,25.987594],[-111.176027,26.043342],[-111.056369,26.071817],[-111.081194,25.998658]]],[[[-114.098307,28.000276],[-112.760362,27.997756],[-112.773218,27.863902],[-112.719371,27.82618],[-112.692868,27.742556],[-112.598008,27.654297],[-112.354714,27.547323],[-112.297325,27.381062],[-112.195579,27.250129],[-112.212764,27.210463],[-112.164947,27.166815],[-111.950372,27.093276],[-111.944254,27.069626],[-112.003128,27.035743],[-112.017161,26.978502],[-111.870717,26.82807],[-111.861446,26.783795],[-111.900114,26.714559],[-111.784275,26.571796],[-111.73581,26.539684],[-111.676793,26.581859],[-111.814585,26.714577],[-111.823641,26.820475],[-111.852168,26.873879],[-111.818073,26.896233],[-111.560055,26.695653],[-111.564772,26.558001],[-111.442238,26.517526],[-111.468867,26.419504],[-111.393656,26.330011],[-111.397449,26.252215],[-111.322037,26.098183],[-111.337328,25.987698],[-111.36026,25.964097],[-111.331028,25.837358],[-111.291923,25.812266],[-111.315394,25.820034],[-111.307116,25.779207],[-111.225005,25.724353],[-111.191744,25.614829],[-111.123896,25.530322],[-111.019256,25.51525],[-111.025389,25.447153],[-110.934262,25.291141],[-110.947316,25.261814],[-110.904451,25.143013],[-110.814232,25.03319],[-110.757791,25.012239],[-110.683868,24.882959],[-110.656972,24.806918],[-110.688438,24.710239],[-110.723528,24.681178],[-110.738585,24.554572],[-110.6872,24.466039],[-110.681849,24.36066],[-110.60989,24.253725],[-110.511586,24.195746],[-110.325195,24.175709],[-110.36931,24.149693],[-110.432429,24.173617],[-110.416837,24.108576],[-110.360857,24.111083],[-110.306134,24.176716],[-110.300811,24.217042],[-110.322139,24.265456],[-110.336259,24.255892],[-110.33247,24.328795],[-110.296997,24.351932],[-110.232613,24.343206],[-110.236384,24.320184],[-110.17276,24.252976],[-110.006985,24.158826],[-109.987652,24.046319],[-109.931409,24.029305],[-109.828288,24.0628],[-109.803444,24.02206],[-109.837322,23.938087],[-109.698443,23.798428],[-109.696321,23.66552],[-109.468016,23.555138],[-109.477949,23.525435],[-109.414317,23.405945],[-109.425649,23.297187],[-109.453838,23.202271],[-109.531672,23.108207],[-109.713176,23.03105],[-109.731519,22.987543],[-109.803377,22.956122],[-109.851064,22.89997],[-109.901739,22.889677],[-109.895378,22.874203],[-109.999659,22.894442],[-110.09838,23.017562],[-110.16726,23.321086],[-110.307362,23.541032],[-110.647518,23.733901],[-111.039714,24.104185],[-111.444445,24.324391],[-111.359749,24.290322],[-111.595578,24.442235],[-111.6535,24.552219],[-111.634251,24.547823],[-111.67903,24.586334],[-111.695627,24.587144],[-111.698781,24.535562],[-111.803145,24.546451],[-111.761715,24.515249],[-111.812908,24.50588],[-111.848924,24.653686],[-111.941597,24.744225],[-111.91222,24.736583],[-112.008372,24.874579],[-111.966705,24.744208],[-112.025258,24.755561],[-112.035634,24.840399],[-112.054514,24.817125],[-112.043054,24.753466],[-112.078114,24.762152],[-112.124215,24.874046],[-112.09024,24.90119],[-112.096921,24.999609],[-112.137278,24.946112],[-112.123023,24.909327],[-112.144931,24.874094],[-112.165803,24.953935],[-112.123363,25.038267],[-112.142525,25.085979],[-112.130621,25.172028],[-112.077871,25.258735],[-112.083098,25.443995],[-112.030778,25.473615],[-112.08445,25.481021],[-112.062571,25.494696],[-112.08145,25.720682],[-112.10409,25.504154],[-112.108712,25.784145],[-112.178942,25.955175],[-112.238515,26.040839],[-112.308746,26.06977],[-112.343495,26.178127],[-112.402699,26.24022],[-112.452952,26.262926],[-112.49828,26.235012],[-112.556793,26.272366],[-112.559967,26.301093],[-112.590168,26.287845],[-112.617096,26.319729],[-112.689117,26.32274],[-113.060716,26.599118],[-113.057037,26.650214],[-113.143056,26.757717],[-113.119049,26.794094],[-113.163686,26.78913],[-113.192616,26.743638],[-113.21581,26.744452],[-113.238149,26.786607],[-113.18106,26.814765],[-113.124582,26.886298],[-113.145741,26.97012],[-113.192544,26.94506],[-113.204221,26.853463],[-113.257965,26.824652],[-113.270544,26.752474],[-113.363971,26.795068],[-113.470986,26.804554],[-113.503887,26.793416],[-113.542966,26.719196],[-113.574149,26.705039],[-113.637138,26.725531],[-113.725209,26.799994],[-113.816388,26.948969],[-113.909901,26.992336],[-114.005198,26.977444],[-114.114369,27.105455],[-114.181956,27.139635],[-114.274083,27.148898],[-114.293999,27.125462],[-114.395149,27.182914],[-114.435143,27.176367],[-114.429799,27.20893],[-114.487542,27.238098],[-114.506461,27.406184],[-114.596586,27.477189],[-114.734229,27.521252],[-114.78173,27.602757],[-114.875819,27.643824],[-114.848878,27.640565],[-114.861562,27.689887],[-114.886586,27.694892],[-114.899805,27.664122],[-114.950964,27.716259],[-115.001726,27.715931],[-115.083823,27.851054],[-114.499057,27.774071],[-114.303863,27.87226],[-114.304758,27.764797],[-114.240224,27.706041],[-114.15095,27.669664],[-114.102935,27.601874],[-114.047597,27.653144],[-114.074859,27.690375],[-113.953277,27.655666],[-113.918568,27.719306],[-113.983062,27.75731],[-114.025258,27.749905],[-114.066558,27.803656],[-114.041819,27.732489],[-114.117055,27.709377],[-114.172434,27.788764],[-114.173248,27.826809],[-114.131093,27.888821],[-114.153432,27.945014],[-114.267694,27.886901],[-114.276452,27.901148],[-114.207021,27.999986],[-114.1475,28.000154],[-114.106402,27.927952],[-114.098307,28.000276]]],[[[-113.264556,26.70893],[-113.174428,26.720445],[-113.138051,26.665107],[-113.264556,26.70893]]],[[[-110.580328,24.821168],[-110.569228,24.843842],[-110.561414,24.815017],[-110.580328,24.821168]]],[[[-115.753774,24.954413],[-115.752309,24.953274],[-115.753285,24.95303],[-115.753774,24.954413]]],[[[-110.732742,25.287954],[-110.689525,25.308389],[-110.728873,25.259982],[-110.732742,25.287954]]],[[[-112.138051,25.297347],[-112.098136,25.485822],[-112.104347,25.342348],[-112.122754,25.282136],[-112.138051,25.297347]]],[[[-111.059148,25.700978],[-111.037154,25.713811],[-111.019226,25.693887],[-111.02851,25.651793],[-111.059148,25.700978]]],[[[-111.258235,25.812789],[-111.247525,25.799136],[-111.245943,25.765702],[-111.258494,25.781399],[-111.258235,25.812789]]],[[[-111.286204,26.103132],[-111.263725,26.135042],[-111.264243,26.105006],[-111.286204,26.103132]]],[[[-112.087448,27.182942],[-112.09009,27.259978],[-112.045253,27.216644],[-112.066279,27.178965],[-112.087448,27.182942]]],[[[-111.859621,27.430141],[-111.901083,27.449228],[-111.856394,27.43787],[-111.859621,27.430141]]],[[[-115.220367,27.88864],[-115.162365,27.868343],[-115.164596,27.851296],[-115.220367,27.88864]]]]}},{"type":"Feature","properties":{"country_code":"MX","region_code":"MX-SIN","name":"Sinaloa","native_name":"Sinaloa","type":"State"},"geometry":{"type":"MultiPolygon","coordinates":[[[[-108.831614,25.426418],[-108.786529,25.385443],[-108.803944,25.374579],[-109.013092,25.446926],[-108.831614,25.426418]]],[[[-105.678738,22.448966],[-105.732452,22.541449],[-105.757598,22.534613],[-105.80016,22.638454],[-106.001617,22.823188],[-105.98412,22.856757],[-106.031972,22.830105],[-106.220326,23.051947],[-106.370839,23.183987],[-106.429799,23.185126],[-106.43517,23.244289],[-106.486928,23.307685],[-106.522817,23.407538],[-106.611846,23.469062],[-106.732574,23.606513],[-106.793243,23.632351],[-106.902008,23.846625],[-107.035878,23.98078],[-107.377756,24.206855],[-107.404286,24.252509],[-107.543202,24.346584],[-107.775014,24.477444],[-107.799672,24.512152],[-107.498036,24.34394],[-107.553293,24.378079],[-107.498036,24.357611],[-107.478261,24.400092],[-107.529693,24.521918],[-107.592641,24.520087],[-107.553293,24.50845],[-107.624135,24.458482],[-107.676747,24.501614],[-107.718821,24.492377],[-107.820546,24.59516],[-107.936838,24.638821],[-107.806508,24.528957],[-107.908559,24.577867],[-107.995188,24.648383],[-108.060292,24.786444],[-107.978871,24.756985],[-107.976308,24.79678],[-108.013173,24.836819],[-107.985219,24.953437],[-108.048695,25.001451],[-108.041127,24.838365],[-108.087636,24.823147],[-108.155588,24.883002],[-108.23412,25.028388],[-108.32787,25.111151],[-108.266184,25.096869],[-108.183258,24.981391],[-108.130605,24.976793],[-108.132476,25.019355],[-108.163401,25.022366],[-108.13679,25.059963],[-108.10554,25.026923],[-108.013173,25.001899],[-108.003529,25.03144],[-108.119537,25.123481],[-108.172922,25.113593],[-108.218007,25.173163],[-108.351796,25.169501],[-108.355214,25.206732],[-108.314198,25.186225],[-108.317454,25.228502],[-108.361399,25.269355],[-108.399241,25.14525],[-108.396148,25.214179],[-108.435048,25.26081],[-108.614003,25.343329],[-108.731923,25.35814],[-108.708608,25.373847],[-108.594146,25.351304],[-108.687245,25.398505],[-108.765736,25.380927],[-108.779693,25.398505],[-108.729888,25.405992],[-108.746938,25.444648],[-108.779693,25.433254],[-108.768951,25.540188],[-108.896311,25.560248],[-108.884755,25.496772],[-108.929677,25.466376],[-108.951812,25.503892],[-109.001861,25.499945],[-109.006256,25.467353],[-109.034657,25.465237],[-109.116119,25.536322],[-109.057769,25.584662],[-109.00536,25.577948],[-108.980458,25.544623],[-108.971547,25.584662],[-108.896392,25.652981],[-108.873118,25.736721],[-108.833323,25.768866],[-108.838043,25.804633],[-108.900868,25.70067],[-109.009674,25.649563],[-109.062123,25.590277],[-109.131256,25.583401],[-109.171213,25.648749],[-109.250152,25.686184],[-109.156484,25.556789],[-109.227528,25.628648],[-109.410308,25.646145],[-109.359283,25.668402],[-109.300526,25.659166],[-109.286855,25.710679],[-109.321767,25.748196],[-109.378041,25.761786],[-109.399648,25.678534],[-109.406239,25.759223],[-109.440541,25.793402],[-109.418406,25.862047],[-109.433258,26.021674],[-109.292934,26.236943],[-109.280426,26.160631],[-109.231372,26.263417],[-109.156339,26.308058],[-109.176991,26.262519],[-109.095041,26.214748],[-109.108713,26.262519],[-109.082997,26.277004],[-109.116119,26.288886],[-109.130052,26.34847],[-108.507376,26.801569],[-108.466461,26.97987],[-108.374335,27.077443],[-108.338911,27.051088],[-108.269071,27.051527],[-108.197318,26.970835],[-108.021308,26.920011],[-107.999578,26.814565],[-107.835144,26.599591],[-107.776491,26.201321],[-107.361245,26.10652],[-107.254559,25.863254],[-107.15087,25.812895],[-107.075836,25.729386],[-106.93693,25.641588],[-107.082709,25.465268],[-107.125678,25.2374],[-107.115343,25.144538],[-107.036381,24.919694],[-106.962535,24.878792],[-106.932356,24.799546],[-106.854609,24.789185],[-106.756372,24.703531],[-106.621833,24.481943],[-106.595943,24.368048],[-106.476208,24.28565],[-106.389082,24.295546],[-106.273999,24.39094],[-106.18403,24.385153],[-106.035021,24.260948],[-105.94836,24.07326],[-105.90937,24.05153],[-105.861879,24.064449],[-105.922289,23.901952],[-105.897355,23.71354],[-105.843043,23.580525],[-105.765606,23.551069],[-105.715325,23.464149],[-105.687833,23.297235],[-105.622075,23.227575],[-105.51544,23.146029],[-105.392347,23.14975],[-105.388626,23.033323],[-105.451801,23.023556],[-105.470947,22.985522],[-105.444979,22.914209],[-105.577142,22.770187],[-105.486527,22.684145],[-105.442783,22.51475],[-105.499989,22.490049],[-105.591353,22.544154],[-105.677472,22.535214],[-105.661788,22.480024],[-105.678738,22.448966]]]]}},{"type":"Feature","properties":{"country_code":"MX","region_code":"MX-YUC","name":"Yucatán","native_name":"Yucatán","type":"State"},"geometry":{"type":"Polygon","coordinates":[[[-90.381143,20.824027],[-90.339101,20.972357],[-90.398061,20.820746],[-90.442128,20.787421],[-90.332387,21.032457],[-90.099477,21.16413],[-89.785959,21.284573],[-89.11262,21.362779],[-88.702707,21.458564],[-88.605458,21.534084],[-88.447825,21.5751],[-88.300404,21.554592],[-88.084788,21.589301],[-88.152211,21.601142],[-88.235097,21.573798],[-88.129465,21.616034],[-87.962066,21.600084],[-87.706288,21.533433],[-87.73762,21.522406],[-87.865631,21.554592],[-87.778066,21.510647],[-87.611806,21.506781],[-87.685658,21.528754],[-87.539784,21.499335],[-87.525091,21.298778],[-87.585036,21.111063],[-87.53398,20.955698],[-87.674875,20.647887],[-87.988422,20.442732],[-88.1064,20.428288],[-88.160711,20.459217],[-88.194017,20.452835],[-88.272436,20.34341],[-88.260835,20.262975],[-88.313338,20.316383],[-88.346333,20.318579],[-88.445268,20.183652],[-88.707448,20.080842],[-88.790027,20.018985],[-88.791474,19.98121],[-88.83943,20.013895],[-88.927538,19.940876],[-89.055747,19.931755],[-89.150884,19.89305],[-89.202043,19.841735],[-89.368829,19.820134],[-89.37025,19.75497],[-89.415364,19.651049],[-89.454741,19.77701],[-89.557835,19.890078],[-89.629976,20.019088],[-89.81074,20.137427],[-89.869832,20.268608],[-89.943755,20.323178],[-90.018402,20.467537],[-90.094237,20.407359],[-90.129945,20.439218],[-90.169219,20.424697],[-90.236347,20.509989],[-90.374168,20.518541],[-90.391996,20.547222],[-90.381143,20.824027]]]}},{"type":"Feature","properties":{"country_code":"MX","region_code":"MX-VER","name":"Veracruz","native_name":"Veracruz","type":"State"},"geometry":{"type":"MultiPolygon","coordinates":[[[[-97.781858,22.273336],[-97.76061,22.095852],[-97.610463,21.835761],[-97.316233,21.56094],[-97.34789,21.417914],[-97.418609,21.273383],[-97.472239,21.437812],[-97.419423,21.476752],[-97.390736,21.472642],[-97.370229,21.537502],[-97.625071,21.79442],[-97.658844,21.907457],[-97.781117,22.095852],[-97.719716,21.951809],[-97.657582,21.636542],[-97.562001,21.485663],[-97.48941,21.48078],[-97.496816,21.400621],[-97.197174,20.810207],[-97.177846,20.759467],[-97.198313,20.738959],[-97.150543,20.64704],[-96.676015,20.157864],[-96.456125,19.868801],[-96.360015,19.536851],[-96.3155,19.482245],[-96.290354,19.332587],[-96.157379,19.225165],[-96.131947,19.235907],[-96.061431,19.078518],[-95.977162,19.058254],[-95.903554,18.881903],[-95.752756,18.799994],[-95.752756,18.765815],[-95.914784,18.862494],[-95.958852,18.856391],[-95.807362,18.752143],[-95.866322,18.758979],[-95.861887,18.723375],[-95.774729,18.744045],[-95.646881,18.710598],[-95.585032,18.669664],[-95.568349,18.683295],[-95.728383,18.757229],[-95.732818,18.799994],[-95.583608,18.721666],[-95.190053,18.705146],[-95.051422,18.61225],[-95.024241,18.564032],[-94.786936,18.511949],[-94.718007,18.374823],[-94.543324,18.166205],[-94.466949,18.144232],[-94.137073,18.207436],[-94.125593,18.16747],[-94.096034,18.15822],[-94.089781,18.072747],[-94.050765,17.993682],[-94.076707,17.88201],[-93.97046,17.832297],[-93.93687,17.758555],[-93.862146,17.744499],[-93.846023,17.710289],[-93.733782,17.67148],[-93.622678,17.563011],[-93.6434,17.420797],[-93.589502,17.375529],[-93.63663,17.299978],[-93.873412,17.15022],[-94.938463,17.21652],[-94.971743,17.237036],[-94.998769,17.360388],[-95.075509,17.391135],[-95.254723,17.582648],[-95.242321,17.628847],[-95.20563,17.64838],[-95.208369,17.732303],[-95.24108,17.730133],[-95.243974,17.703157],[-95.27653,17.715663],[-95.364225,17.641352],[-95.430991,17.636081],[-95.600438,17.517587],[-95.770195,17.515985],[-95.908533,17.756281],[-95.893805,17.824287],[-95.775466,17.995439],[-95.837685,18.120393],[-95.966411,18.165662],[-96.083096,18.171449],[-96.109348,18.142821],[-96.160352,18.149745],[-96.170223,18.185815],[-96.228875,18.201008],[-96.260243,18.299503],[-96.357136,18.38725],[-96.411035,18.539282],[-96.56224,18.592922],[-96.664146,18.668887],[-96.63376,18.535768],[-96.728121,18.410246],[-96.785637,18.478304],[-96.80021,18.550548],[-97.086962,18.481301],[-97.109287,18.500111],[-97.091407,18.551064],[-97.136365,18.64987],[-97.304055,18.675915],[-97.341624,18.782575],[-97.282093,18.868461],[-97.226334,18.892491],[-97.264109,19.160433],[-97.166958,19.193816],[-97.10908,19.178675],[-96.981543,19.280839],[-97.049394,19.317219],[-97.112491,19.303215],[-97.209022,19.329673],[-97.269639,19.399591],[-97.316819,19.387602],[-97.407511,19.445997],[-97.320643,19.480827],[-97.392422,19.575808],[-97.383792,19.647225],[-97.324519,19.694457],[-97.307517,19.748304],[-97.308861,19.896822],[-97.135538,20.121718],[-97.403481,20.259591],[-97.470402,20.237525],[-97.522491,20.157891],[-97.578819,20.118824],[-97.605484,20.187089],[-97.677779,20.178872],[-97.714314,20.239127],[-97.774052,20.273233],[-97.75948,20.336072],[-97.778083,20.429916],[-97.693437,20.46578],[-97.62202,20.421338],[-97.558562,20.504227],[-97.588844,20.582207],[-97.722428,20.610784],[-97.700827,20.644373],[-97.740876,20.713103],[-97.74284,20.778112],[-97.77922,20.813769],[-97.887275,20.820073],[-97.896164,20.757958],[-97.966392,20.6822],[-97.94629,20.570476],[-98.000188,20.484486],[-98.025096,20.524846],[-98.001429,20.580656],[-98.021582,20.660806],[-98.079357,20.697083],[-98.146123,20.654399],[-98.335775,20.43498],[-98.377271,20.464798],[-98.43427,20.371057],[-98.468429,20.353642],[-98.500623,20.362427],[-98.568526,20.472291],[-98.507858,20.62453],[-98.418664,20.709434],[-98.416907,20.744781],[-98.464915,20.729743],[-98.494939,20.756925],[-98.419129,20.788344],[-98.424452,20.869114],[-98.365851,20.873197],[-98.22958,20.830925],[-98.232422,20.938309],[-98.129896,21.072151],[-98.212423,21.150596],[-98.277536,21.124137],[-98.266167,21.197001],[-98.286269,21.2463],[-98.312934,21.188371],[-98.373396,21.155143],[-98.485637,21.244853],[-98.490494,21.291672],[-98.442797,21.353684],[-98.515092,21.398849],[-98.530078,21.524836],[-98.642268,21.608862],[-98.624026,21.684878],[-98.570179,21.691958],[-98.559276,21.727356],[-98.521087,21.727821],[-98.456388,21.797068],[-98.490908,21.852775],[-98.531835,21.849364],[-98.561601,21.882334],[-98.528425,21.959228],[-98.587646,21.95189],[-98.58992,21.979692],[-98.452254,21.980416],[-98.348591,22.192031],[-98.373706,22.264946],[-98.616171,22.41858],[-98.439231,22.43274],[-98.30942,22.399512],[-98.289783,22.466794],[-98.197696,22.48054],[-98.092793,22.37264],[-97.908618,22.319103],[-97.912804,22.267427],[-97.862781,22.219781],[-97.781858,22.273336]]],[[[-97.684926,21.862454],[-97.610463,21.74018],[-97.663482,21.778469],[-97.684926,21.862454]]]]}},{"type":"Feature","properties":{"country_code":"MX","region_code":"MX-JAL","name":"Jalisco","native_name":"Jalisco","type":"State"},"geometry":{"type":"Polygon","coordinates":[[[-104.592559,19.149604],[-104.672963,19.176581],[-104.733551,19.228461],[-104.806915,19.229071],[-104.801422,19.294745],[-104.880523,19.27912],[-105.01712,19.368476],[-105.039337,19.435614],[-105.070098,19.447781],[-105.08771,19.561073],[-105.151845,19.584174],[-105.250762,19.666083],[-105.525624,20.031928],[-105.558949,20.218207],[-105.655652,20.313181],[-105.698681,20.406911],[-105.575592,20.487738],[-105.300952,20.531844],[-105.243642,20.583564],[-105.234296,20.636127],[-105.290781,20.68515],[-105.126188,20.890663],[-105.057432,20.936759],[-105.02733,20.916605],[-104.924339,20.931177],[-104.787707,21.019906],[-104.727891,21.009726],[-104.620973,20.923116],[-104.522917,20.906579],[-104.462481,20.830408],[-104.285619,20.708039],[-104.271072,20.861518],[-104.208182,20.993293],[-104.224124,21.169251],[-104.20167,21.198603],[-104.039665,21.219842],[-103.968584,21.287073],[-103.944683,21.375181],[-104.2103,21.519152],[-104.158133,21.59677],[-104.098421,21.784459],[-104.398661,22.085422],[-104.32975,22.264378],[-104.13183,22.343391],[-103.952151,22.369539],[-103.926933,22.506999],[-103.991838,22.574333],[-103.983182,22.771582],[-103.77875,22.734685],[-103.794951,22.623994],[-103.85133,22.568545],[-103.847945,22.505655],[-103.887426,22.467104],[-103.866368,22.40871],[-103.890113,22.286134],[-103.852131,22.179422],[-103.761077,22.559605],[-103.72803,22.606372],[-103.644934,22.588854],[-103.645012,22.543379],[-103.60796,22.524414],[-103.683046,22.321997],[-103.663254,22.239418],[-103.678266,22.136892],[-103.658241,22.117203],[-103.569409,22.151671],[-103.488639,22.134928],[-103.447556,22.241847],[-103.406448,22.258952],[-103.390841,22.328715],[-103.358647,22.348765],[-103.426808,22.410054],[-103.37278,22.516765],[-103.185169,22.380495],[-103.189122,22.322204],[-103.115147,22.33781],[-103.092436,22.298329],[-103.037684,22.287425],[-103.079026,22.192754],[-103.127136,22.174099],[-103.129152,22.140303],[-103.085873,22.124645],[-103.082591,22.098858],[-103.156075,21.998399],[-103.204987,21.977419],[-103.289013,21.98548],[-103.328003,21.94295],[-103.400737,21.928791],[-103.526828,21.817222],[-103.542382,21.78973],[-103.519283,21.600284],[-103.59194,21.558684],[-103.643927,21.486802],[-103.733947,21.52494],[-103.704259,21.384173],[-103.713922,21.329499],[-103.746504,21.297253],[-103.747047,21.228369],[-103.653409,21.264697],[-103.611345,21.197776],[-103.508018,21.196071],[-103.231678,21.079075],[-103.059569,21.044504],[-103.044997,21.288262],[-102.914927,21.282267],[-102.814727,21.341488],[-102.808319,21.292913],[-102.78664,21.29498],[-102.739977,21.370324],[-102.687809,21.398022],[-102.64714,21.487319],[-102.640525,21.568348],[-102.776176,21.607829],[-102.760492,21.748802],[-102.661377,21.777844],[-102.468029,21.694593],[-102.231248,21.677747],[-102.079888,21.767922],[-102.04914,21.865901],[-101.891734,21.955663],[-101.845432,22.017468],[-101.764196,21.962846],[-101.664357,21.956541],[-101.577851,21.880887],[-101.528759,21.876546],[-101.520542,21.840941],[-101.586223,21.755055],[-101.533358,21.668393],[-101.538267,21.636871],[-101.640121,21.553413],[-101.568239,21.405722],[-101.572683,21.347586],[-101.674383,21.24258],[-101.785384,21.221806],[-102.045626,20.872473],[-102.094409,20.758992],[-101.983408,20.640446],[-101.967543,20.587426],[-102.09968,20.386818],[-102.242772,20.340361],[-102.29729,20.36222],[-102.421314,20.342583],[-102.649775,20.223159],[-102.75349,20.211738],[-103.077501,20.10482],[-103.073832,19.997281],[-103.036418,19.970409],[-102.933867,19.990408],[-102.888004,19.961624],[-102.767055,19.955423],[-102.757211,19.891034],[-102.7068,19.861527],[-102.809843,19.820858],[-102.816587,19.790472],[-102.796536,19.688669],[-102.738736,19.598442],[-102.745713,19.475607],[-102.607065,19.489715],[-102.575258,19.412717],[-102.544717,19.400005],[-102.657501,19.231126],[-102.751009,19.258876],[-102.884438,19.202549],[-102.93658,19.152991],[-102.967146,19.074443],[-103.122253,19.006127],[-103.149125,18.95383],[-103.281726,19.053049],[-103.348105,18.977757],[-103.477813,18.96644],[-103.525226,19.09253],[-103.491326,19.310811],[-103.600648,19.407756],[-103.648577,19.501394],[-103.716868,19.441088],[-103.833476,19.397576],[-104.050646,19.502324],[-104.055762,19.537154],[-104.135447,19.457676],[-104.152216,19.398196],[-104.214512,19.320371],[-104.384734,19.270452],[-104.420572,19.288022],[-104.475271,19.229524],[-104.536379,19.248851],[-104.592559,19.149604]]]}},{"type":"Feature","properties":{"country_code":"MX","region_code":"MX-MIC","name":"Michoacán","native_name":"Michoacán","type":"State"},"geometry":{"type":"Polygon","coordinates":[[[-102.168887,17.921199],[-102.597247,18.049051],[-102.742299,18.066962],[-103.024444,18.185818],[-103.36164,18.26682],[-103.4984,18.333483],[-103.575103,18.492255],[-103.706737,18.591221],[-103.686228,18.628552],[-103.742025,18.690412],[-103.679067,18.778854],[-103.627028,18.802419],[-103.61181,18.88846],[-103.524916,18.915125],[-103.490887,18.968558],[-103.348105,18.977757],[-103.281726,19.053049],[-103.149125,18.95383],[-103.122253,19.006127],[-102.967146,19.074443],[-102.93658,19.152991],[-102.884438,19.202549],[-102.751009,19.258876],[-102.657501,19.231126],[-102.548645,19.386879],[-102.607065,19.489715],[-102.745713,19.475607],[-102.738736,19.598442],[-102.796536,19.688669],[-102.816587,19.790472],[-102.809843,19.820858],[-102.7068,19.861527],[-102.757211,19.891034],[-102.762895,19.952374],[-102.888004,19.961624],[-102.933867,19.990408],[-103.036418,19.970409],[-103.073832,19.997281],[-103.077501,20.10482],[-102.75349,20.211738],[-102.649775,20.223159],[-102.421314,20.342583],[-102.29729,20.36222],[-102.242772,20.340361],[-101.995603,20.403148],[-102.016067,20.344185],[-101.949301,20.366044],[-101.932455,20.251942],[-101.893181,20.198922],[-101.779906,20.211997],[-101.673453,20.190861],[-101.615472,20.31783],[-101.461217,20.334883],[-101.462199,20.312404],[-101.376933,20.269667],[-101.434087,20.224761],[-101.411453,20.192825],[-101.419721,20.053608],[-101.39316,20.039346],[-101.35342,20.054745],[-101.213222,20.029527],[-101.163354,20.101564],[-101.020676,20.097017],[-100.9829,20.042963],[-101.044964,19.992217],[-101.017162,19.951289],[-100.914481,19.925192],[-100.829628,19.975629],[-100.774644,19.910465],[-100.733252,19.907674],[-100.716198,19.93992],[-100.560756,19.947155],[-100.532437,19.9054],[-100.490217,19.953769],[-100.379475,19.974957],[-100.391154,20.112674],[-100.349296,20.122441],[-100.285992,20.213392],[-100.235711,20.190861],[-100.176541,20.086164],[-100.176696,19.978471],[-100.122849,19.938008],[-100.214523,19.565008],[-100.146362,19.435765],[-100.330072,19.322904],[-100.298808,19.258515],[-100.516727,19.003543],[-100.527269,18.949386],[-100.606851,18.896935],[-100.663695,18.812237],[-100.684779,18.794099],[-100.698628,18.839367],[-100.735009,18.857196],[-100.788752,18.801178],[-100.745344,18.734412],[-100.771699,18.684183],[-100.741985,18.524296],[-100.60034,18.399807],[-100.632431,18.337124],[-100.651654,18.358621],[-100.689172,18.325858],[-100.720229,18.37769],[-100.694287,18.407301],[-100.69961,18.441097],[-100.740693,18.435929],[-100.818363,18.497734],[-100.925074,18.500628],[-100.912465,18.485642],[-100.95298,18.46585],[-100.964038,18.50192],[-100.993907,18.500628],[-101.024397,18.538765],[-101.257147,18.537112],[-101.515323,18.478304],[-101.577954,18.506003],[-101.645082,18.579796],[-101.802179,18.588168],[-101.880572,18.522849],[-101.876438,18.295163],[-101.930698,18.208243],[-102.132959,18.186384],[-102.163965,18.153879],[-102.1789,18.020554],[-102.151304,17.958697],[-102.168887,17.921199]]]}},{"type":"Feature","properties":{"country_code":"MX","region_code":"MX-GRO","name":"Guerrero","native_name":"Guerrero","type":"State"},"geometry":{"type":"Polygon","coordinates":[[[-98.554548,16.318275],[-98.776898,16.555135],[-98.906986,16.53479],[-99.37426,16.667911],[-99.663289,16.698164],[-99.858104,16.796029],[-99.8357,16.802109],[-99.876835,16.815336],[-99.858192,16.851425],[-99.897505,16.852804],[-99.913706,16.827167],[-99.991686,16.909737],[-101.059029,17.264237],[-101.055084,17.302639],[-101.182245,17.412536],[-101.455773,17.526338],[-101.440704,17.557156],[-101.496491,17.614406],[-101.55314,17.611376],[-101.644487,17.668294],[-101.67189,17.74027],[-101.74554,17.792204],[-101.811061,17.89026],[-102.036733,17.990668],[-102.100477,17.982327],[-102.168887,17.921199],[-102.151304,17.958697],[-102.1789,18.020554],[-102.163965,18.153879],[-102.132959,18.186384],[-101.930698,18.208243],[-101.876438,18.295163],[-101.880572,18.522849],[-101.802179,18.588168],[-101.645082,18.579796],[-101.577954,18.506003],[-101.515323,18.478304],[-101.257147,18.537112],[-101.024397,18.538765],[-100.993907,18.500628],[-100.964038,18.50192],[-100.95298,18.46585],[-100.912465,18.485642],[-100.925074,18.500628],[-100.818363,18.497734],[-100.740693,18.435929],[-100.69961,18.441097],[-100.694287,18.407301],[-100.720229,18.37769],[-100.689172,18.325858],[-100.651654,18.358621],[-100.632431,18.337124],[-100.609745,18.417843],[-100.741985,18.524296],[-100.771699,18.684183],[-100.745344,18.734412],[-100.788752,18.801178],[-100.735009,18.857196],[-100.698628,18.839367],[-100.684779,18.794099],[-100.623594,18.870631],[-100.447894,18.838592],[-100.427585,18.786709],[-100.448049,18.718031],[-100.429911,18.636537],[-100.356014,18.555147],[-100.366452,18.455411],[-100.302528,18.389989],[-100.147913,18.491275],[-100.071173,18.609562],[-99.849688,18.663306],[-99.784782,18.621758],[-99.747265,18.691779],[-99.660345,18.763816],[-99.560041,18.676018],[-99.495498,18.674054],[-99.507383,18.624135],[-99.467592,18.61473],[-99.390284,18.505796],[-99.344551,18.498044],[-99.331373,18.452931],[-99.24466,18.453913],[-99.215928,18.546362],[-99.161461,18.552925],[-99.059038,18.384615],[-99.031443,18.237698],[-99.001678,18.243021],[-98.969225,18.185505],[-98.930054,18.195117],[-98.920494,18.139927],[-98.829543,18.116259],[-98.815642,18.069595],[-98.75053,18.008462],[-98.555245,17.951928],[-98.427346,17.963968],[-98.331434,17.872656],[-98.388692,17.640629],[-98.362337,17.589728],[-98.373964,17.527768],[-98.323735,17.464826],[-98.324768,17.317496],[-98.272213,17.2945],[-98.227616,17.222877],[-98.149585,17.215125],[-98.003031,17.025886],[-98.058996,16.900416],[-98.078737,16.766264],[-98.160592,16.705286],[-98.240174,16.702598],[-98.219658,16.618056],[-98.233766,16.580952],[-98.307353,16.577696],[-98.345904,16.547259],[-98.315311,16.467471],[-98.342596,16.409696],[-98.393291,16.372128],[-98.519433,16.350682],[-98.554548,16.318275]]]}},{"type":"Feature","properties":{"country_code":"MX","region_code":"MX-OAX","name":"Oaxaca","native_name":"Oaxaca","type":"State"},"geometry":{"type":"Polygon","coordinates":[[[-94.114857,16.057202],[-94.392201,16.17768],[-94.722401,16.199652],[-94.711822,16.230292],[-94.587148,16.282416],[-94.580841,16.326483],[-94.670033,16.363837],[-94.793121,16.257636],[-94.807403,16.298611],[-94.772694,16.327175],[-94.814361,16.403103],[-94.878651,16.424628],[-94.974965,16.326483],[-95.033315,16.326483],[-95.063832,16.268256],[-94.902062,16.251744],[-94.834096,16.285549],[-94.858754,16.256293],[-94.930328,16.243964],[-94.805531,16.237128],[-94.766957,16.198676],[-94.895879,16.211688],[-95.149301,16.186952],[-95.149289,16.168284],[-95.233247,16.158248],[-95.28455,16.104223],[-95.353263,16.07949],[-95.372648,16.027458],[-95.434478,15.97538],[-95.572369,15.957122],[-95.959882,15.827914],[-96.236637,15.68333],[-96.431142,15.695868],[-96.486129,15.660809],[-96.556038,15.659025],[-96.680975,15.709413],[-96.845123,15.732571],[-97.022282,15.807167],[-97.062264,15.859414],[-97.266025,15.935912],[-97.772719,15.979454],[-98.172149,16.209174],[-98.082143,16.189276],[-98.068471,16.202338],[-98.552847,16.31475],[-98.519433,16.350682],[-98.393291,16.372128],[-98.342596,16.409696],[-98.315311,16.467471],[-98.345904,16.547259],[-98.307353,16.577696],[-98.233766,16.580952],[-98.219658,16.618056],[-98.240174,16.702598],[-98.160592,16.705286],[-98.078737,16.766264],[-98.058996,16.900416],[-98.001739,17.015034],[-98.149585,17.215125],[-98.227616,17.222877],[-98.272213,17.2945],[-98.324768,17.317496],[-98.323735,17.464826],[-98.373964,17.527768],[-98.362337,17.589728],[-98.388692,17.640629],[-98.328024,17.85798],[-98.347816,17.89219],[-98.309782,17.922989],[-98.242809,17.913791],[-98.149016,18.026342],[-97.925103,18.03585],[-97.873581,17.916529],[-97.796118,17.942729],[-97.732711,18.014508],[-97.81374,18.120083],[-97.8125,18.154654],[-97.724856,18.302191],[-97.606104,18.36043],[-97.64021,18.170519],[-97.545332,18.10551],[-97.481409,17.985311],[-97.426993,17.990065],[-97.355628,18.110988],[-97.253257,18.169072],[-97.187938,18.176307],[-96.994617,18.123494],[-96.894209,18.234133],[-96.789513,18.28369],[-96.728121,18.410246],[-96.643992,18.504814],[-96.636654,18.570081],[-96.664146,18.668887],[-96.56224,18.592922],[-96.411035,18.539282],[-96.357136,18.38725],[-96.260243,18.299503],[-96.228875,18.201008],[-96.170223,18.185815],[-96.160352,18.149745],[-96.109348,18.142821],[-96.083096,18.171449],[-95.966411,18.165662],[-95.837685,18.120393],[-95.775466,17.995439],[-95.893805,17.824287],[-95.908533,17.756281],[-95.784923,17.522807],[-95.727252,17.502343],[-95.661726,17.526424],[-95.600438,17.517587],[-95.430991,17.636081],[-95.364225,17.641352],[-95.27653,17.715663],[-95.243974,17.703157],[-95.24108,17.730133],[-95.208369,17.732303],[-95.20563,17.64838],[-95.242321,17.628847],[-95.254723,17.582648],[-95.075509,17.391135],[-94.998769,17.360388],[-94.971743,17.237036],[-94.938463,17.21652],[-93.873412,17.15022],[-93.868089,17.012192],[-93.905296,17.000513],[-93.911291,16.880675],[-94.041464,16.800525],[-94.03981,16.64286],[-94.125076,16.508812],[-94.039862,16.302571],[-94.060119,16.185007],[-94.083619,16.148857],[-94.127838,16.220852],[-94.266713,16.215277],[-94.377675,16.295356],[-94.417266,16.292507],[-94.416371,16.243964],[-94.436513,16.245551],[-94.414215,16.234036],[-94.436879,16.222846],[-94.345489,16.163153],[-94.292633,16.14114],[-94.265533,16.148383],[-94.341298,16.181912],[-94.219472,16.161322],[-94.169952,16.134711],[-94.183624,16.120429],[-94.094028,16.098969],[-94.114857,16.057202]]]}},{"type":"Feature","properties":{"country_code":"MX","region_code":"MX-X01~","name":"","native_name":"","type":""},"geometry":{"type":"Polygon","coordinates":[[[-89.664188,22.371069],[-89.697972,22.417544],[-89.655165,22.472001],[-89.714017,22.541046],[-89.770756,22.533241],[-89.745707,22.577249],[-89.658248,22.54067],[-89.610152,22.461081],[-89.634276,22.378891],[-89.664188,22.371069]]]}},{"type":"Feature","properties":{"country_code":"MX","region_code":"MX-MEX","name":"State of Mexico","native_name":"México","type":"State"},"geometry":{"type":"Polygon","coordinates":[[[-98.640873,19.461913],[-98.671724,19.389876],[-98.632811,19.189578],[-98.655394,19.095941],[-98.639839,19.047468],[-98.709757,18.96985],[-98.81063,18.968765],[-98.840137,19.044626],[-98.963954,19.089119],[-98.939149,19.13661],[-98.966434,19.201206],[-98.966641,19.303163],[-99.058832,19.377267],[-99.03873,19.42729],[-99.123737,19.571054],[-99.165492,19.512091],[-99.152883,19.491782],[-99.259698,19.360886],[-99.309256,19.362591],[-99.334732,19.246732],[-99.285071,19.142449],[-99.332148,19.088913],[-99.306207,19.047365],[-99.337368,19.018116],[-99.301504,18.95197],[-99.403824,18.884429],[-99.47245,18.800455],[-99.495498,18.674054],[-99.560041,18.676018],[-99.660345,18.763816],[-99.747265,18.691779],[-99.784782,18.621758],[-99.849688,18.663306],[-100.071173,18.609562],[-100.125847,18.514064],[-100.274778,18.392004],[-100.316378,18.394433],[-100.366452,18.455411],[-100.349502,18.532668],[-100.429911,18.636537],[-100.448049,18.718031],[-100.427585,18.786709],[-100.447894,18.838592],[-100.623594,18.870631],[-100.527269,18.949386],[-100.516727,19.003543],[-100.298808,19.258515],[-100.330072,19.322904],[-100.146362,19.435765],[-100.214523,19.565008],[-100.122849,19.938008],[-99.950922,20.170862],[-99.888497,20.190499],[-99.937745,20.252253],[-99.844107,20.30889],[-99.791862,20.282121],[-99.657865,20.136084],[-99.608979,20.164816],[-99.548673,20.157581],[-99.485782,20.060998],[-99.512241,19.935321],[-99.431626,19.89739],[-99.386564,19.756314],[-99.321245,19.825405],[-99.287035,19.821995],[-99.271222,19.880802],[-99.223008,19.896564],[-99.202079,19.979091],[-99.034337,20.041103],[-98.974392,20.029734],[-98.94256,19.990356],[-98.947366,19.933409],[-98.929692,19.931239],[-98.9592,19.808765],[-98.915688,19.804321],[-98.834763,19.886383],[-98.765981,19.841115],[-98.689139,19.844474],[-98.596483,19.721381],[-98.659476,19.585523],[-98.709086,19.582939],[-98.693686,19.5324],[-98.647487,19.51328],[-98.640873,19.461913]]]}},{"type":"Feature","properties":{"country_code":"MX","region_code":"MX-PUE","name":"Puebla","native_name":"Puebla","type":"State"},"geometry":{"type":"Polygon","coordinates":[[[-98.655135,18.946079],[-98.651208,19.169786],[-98.632811,19.189578],[-98.671724,19.389876],[-98.640873,19.461913],[-98.465896,19.438349],[-98.432978,19.344091],[-98.385695,19.308072],[-98.343061,19.228956],[-98.193458,19.106483],[-98.108295,19.134853],[-98.050108,19.209164],[-97.929133,19.158469],[-97.884433,19.166221],[-97.846658,19.211903],[-97.8834,19.267093],[-97.827589,19.311431],[-97.668116,19.28394],[-97.620418,19.319493],[-97.621245,19.364555],[-97.693127,19.380885],[-97.759014,19.447857],[-97.844487,19.436333],[-97.882159,19.501084],[-97.842575,19.543459],[-98.034605,19.636114],[-98.043597,19.718642],[-98.072897,19.716265],[-98.072535,19.677094],[-98.143125,19.672753],[-98.251336,19.848866],[-98.157491,20.027563],[-98.100957,20.086164],[-98.135322,20.210291],[-98.238107,20.200886],[-98.268596,20.22166],[-98.251077,20.302637],[-98.159403,20.329664],[-98.11615,20.393381],[-97.965358,20.516112],[-97.944378,20.612024],[-97.966392,20.6822],[-97.896164,20.757958],[-97.887275,20.820073],[-97.77922,20.813769],[-97.74284,20.778112],[-97.740876,20.713103],[-97.700827,20.644373],[-97.722428,20.610784],[-97.588844,20.582207],[-97.558562,20.504227],[-97.62202,20.421338],[-97.693437,20.46578],[-97.778083,20.429916],[-97.75948,20.336072],[-97.774052,20.273233],[-97.714314,20.239127],[-97.677779,20.178872],[-97.605484,20.187089],[-97.578819,20.118824],[-97.522491,20.157891],[-97.470402,20.237525],[-97.403481,20.259591],[-97.135538,20.121718],[-97.308861,19.896822],[-97.307517,19.748304],[-97.324519,19.694457],[-97.383792,19.647225],[-97.392422,19.575808],[-97.320643,19.480827],[-97.407511,19.445997],[-97.316819,19.387602],[-97.269639,19.399591],[-97.209022,19.329673],[-97.112491,19.303215],[-97.049394,19.317219],[-96.981543,19.280839],[-97.10908,19.178675],[-97.166958,19.193816],[-97.264109,19.160433],[-97.226334,18.892491],[-97.282093,18.868461],[-97.330875,18.80986],[-97.328291,18.721597],[-97.287105,18.663202],[-97.220856,18.675605],[-97.136365,18.64987],[-97.091407,18.551064],[-97.100502,18.485125],[-97.040144,18.478976],[-96.974101,18.517785],[-96.80021,18.550548],[-96.732152,18.390196],[-96.789513,18.28369],[-96.894209,18.234133],[-96.994617,18.123494],[-97.187938,18.176307],[-97.255634,18.168349],[-97.355628,18.110988],[-97.45309,17.978283],[-97.502028,18.005775],[-97.545332,18.10551],[-97.64021,18.170519],[-97.606104,18.36043],[-97.724856,18.302191],[-97.8125,18.154654],[-97.81374,18.120083],[-97.747232,18.055487],[-97.732504,18.004844],[-97.857561,17.915548],[-97.884123,17.924591],[-97.925103,18.03585],[-98.162091,18.023861],[-98.242809,17.913791],[-98.309782,17.922989],[-98.347816,17.89219],[-98.427346,17.963968],[-98.555245,17.951928],[-98.705055,17.990685],[-98.788357,18.034197],[-98.829543,18.116259],[-98.920494,18.139927],[-98.930054,18.195117],[-98.969225,18.185505],[-99.001678,18.243021],[-99.031443,18.237698],[-99.049737,18.34994],[-98.940286,18.40358],[-98.877809,18.480474],[-98.825668,18.493962],[-98.676943,18.427506],[-98.750013,18.691934],[-98.666091,18.692348],[-98.733374,18.811927],[-98.658184,18.89125],[-98.676736,18.941376],[-98.655135,18.946079]]]}},{"type":"Feature","properties":{"country_code":"MX","region_code":"MX-MOR","name":"Morelos","native_name":"Morelos","type":"State"},"geometry":{"type":"Polygon","coordinates":[[[-98.646402,19.023594],[-98.655135,18.946079],[-98.676736,18.941376],[-98.658184,18.89125],[-98.733374,18.811927],[-98.666091,18.692348],[-98.750013,18.691934],[-98.676943,18.427506],[-98.825668,18.493962],[-98.877809,18.480474],[-98.940286,18.40358],[-99.049737,18.34994],[-99.15464,18.549152],[-99.215928,18.546362],[-99.24466,18.453913],[-99.331373,18.452931],[-99.344551,18.498044],[-99.390284,18.505796],[-99.467592,18.61473],[-99.507383,18.624135],[-99.47245,18.800455],[-99.390801,18.895591],[-99.307602,18.934814],[-99.306103,18.978377],[-99.337368,19.018116],[-99.306207,19.047365],[-99.332148,19.088913],[-99.285071,19.142449],[-99.042812,19.057803],[-99.005502,19.089119],[-98.898428,19.075373],[-98.840137,19.044626],[-98.80417,18.966078],[-98.720248,18.964579],[-98.646402,19.023594]]]}},{"type":"Feature","properties":{"country_code":"MX","region_code":"MX-QUE","name":"Querétaro","native_name":"Querétaro","type":"State"},"geometry":{"type":"Polygon","coordinates":[[[-99.043381,21.268315],[-99.042295,21.175762],[-99.122084,21.171266],[-99.227917,21.118815],[-99.302745,21.147495],[-99.380363,21.096025],[-99.354318,21.027812],[-99.397881,20.914228],[-99.492035,20.834388],[-99.521387,20.735479],[-99.49002,20.661065],[-99.5973,20.611352],[-99.644998,20.562001],[-99.819509,20.512495],[-99.844107,20.30889],[-99.937745,20.252253],[-99.888497,20.190499],[-99.950922,20.170862],[-100.122849,19.938008],[-100.165793,19.959971],[-100.197832,20.143939],[-100.235711,20.190861],[-100.373997,20.272458],[-100.468772,20.401907],[-100.491096,20.543398],[-100.558378,20.658119],[-100.5652,20.739768],[-100.510423,20.895986],[-100.459728,20.967454],[-100.439109,20.969831],[-100.411514,20.912212],[-100.382885,20.903582],[-100.322165,20.896296],[-100.234884,20.931384],[-100.161865,20.878778],[-100.087038,20.945027],[-100.06585,21.124912],[-100.036033,21.178553],[-99.95981,21.201187],[-99.883794,21.159484],[-99.826899,21.158347],[-99.713934,21.233795],[-99.71967,21.270072],[-99.792534,21.291414],[-99.790622,21.419106],[-99.748402,21.504993],[-99.679362,21.492849],[-99.582262,21.39425],[-99.476067,21.407014],[-99.375298,21.437348],[-99.325172,21.533931],[-99.265951,21.538479],[-99.197531,21.645501],[-99.098829,21.381538],[-99.112317,21.290329],[-99.043381,21.268315]]]}},{"type":"Feature","properties":{"country_code":"MX","region_code":"MX-HID","name":"Hidalgo","native_name":"Hidalgo","type":"State"},"geometry":{"type":"Polygon","coordinates":[[[-99.042295,21.175762],[-99.043381,21.268315],[-98.99589,21.296478],[-98.939097,21.291207],[-98.905559,21.21607],[-98.823601,21.176899],[-98.592297,21.212246],[-98.589558,21.371512],[-98.515092,21.398849],[-98.442797,21.353684],[-98.492251,21.256119],[-98.410137,21.177571],[-98.35934,21.155298],[-98.294899,21.208422],[-98.286269,21.2463],[-98.266167,21.197001],[-98.277536,21.124137],[-98.212423,21.150596],[-98.129896,21.072151],[-98.232422,20.938309],[-98.22958,20.830925],[-98.365851,20.873197],[-98.424452,20.869114],[-98.419129,20.788344],[-98.494939,20.756925],[-98.464915,20.729743],[-98.416907,20.744781],[-98.418664,20.709434],[-98.507858,20.62453],[-98.534058,20.531409],[-98.5708,20.494925],[-98.500623,20.362427],[-98.468429,20.353642],[-98.43427,20.371057],[-98.377271,20.464798],[-98.335775,20.43498],[-98.110828,20.688402],[-98.079357,20.697083],[-98.021582,20.660806],[-98.001429,20.580656],[-98.025096,20.524846],[-98.000188,20.484486],[-98.11615,20.393381],[-98.159403,20.329664],[-98.251077,20.302637],[-98.27552,20.242176],[-98.245858,20.202436],[-98.135322,20.210291],[-98.101164,20.102443],[-98.251336,19.848866],[-98.143125,19.672753],[-98.251749,19.719624],[-98.346214,19.594515],[-98.487084,19.644124],[-98.529717,19.613945],[-98.586199,19.631257],[-98.659476,19.585523],[-98.596483,19.721381],[-98.642475,19.795019],[-98.697665,19.850417],[-98.765981,19.841115],[-98.834763,19.886383],[-98.915688,19.804321],[-98.9592,19.808765],[-98.929692,19.931239],[-98.947366,19.933409],[-98.94256,19.990356],[-99.017749,20.042136],[-99.202079,19.979091],[-99.223008,19.896564],[-99.271222,19.880802],[-99.287035,19.821995],[-99.321245,19.825405],[-99.386564,19.756314],[-99.431626,19.89739],[-99.512241,19.935321],[-99.485782,20.060998],[-99.548673,20.157581],[-99.608979,20.164816],[-99.657865,20.136084],[-99.791862,20.282121],[-99.844107,20.30889],[-99.819509,20.512495],[-99.644998,20.562001],[-99.5973,20.611352],[-99.49002,20.661065],[-99.521387,20.735479],[-99.492035,20.834388],[-99.397881,20.914228],[-99.354318,21.027812],[-99.380363,21.096025],[-99.302745,21.147495],[-99.227917,21.118815],[-99.122084,21.171266],[-99.042295,21.175762]]]}},{"type":"Feature","properties":{"country_code":"MX","region_code":"MX-GUA","name":"Guanajuato","native_name":"Guanajuato","type":"State"},"geometry":{"type":"Polygon","coordinates":[[[-99.790622,21.419106],[-99.792534,21.291414],[-99.71967,21.270072],[-99.713934,21.233795],[-99.826899,21.158347],[-99.883794,21.159484],[-99.95981,21.201187],[-100.036033,21.178553],[-100.06585,21.124912],[-100.105796,20.916656],[-100.161865,20.878778],[-100.234884,20.931384],[-100.341958,20.896864],[-100.411514,20.912212],[-100.439109,20.969831],[-100.510423,20.895986],[-100.5652,20.739768],[-100.558378,20.658119],[-100.491096,20.543398],[-100.468772,20.401907],[-100.373997,20.272458],[-100.285992,20.213392],[-100.349296,20.122441],[-100.391154,20.112674],[-100.379475,19.974957],[-100.490217,19.953769],[-100.517864,19.908914],[-100.542979,19.911085],[-100.560756,19.947155],[-100.716198,19.93992],[-100.733252,19.907674],[-100.774644,19.910465],[-100.829628,19.975629],[-100.914481,19.925192],[-100.988326,19.940334],[-101.044964,19.992217],[-100.986363,20.023429],[-100.994838,20.083167],[-101.020676,20.097017],[-101.163354,20.101564],[-101.213222,20.029527],[-101.35342,20.054745],[-101.39316,20.039346],[-101.419721,20.053608],[-101.411453,20.192825],[-101.434087,20.224761],[-101.376933,20.269667],[-101.462199,20.312404],[-101.461217,20.334883],[-101.615472,20.31783],[-101.673453,20.190861],[-101.779906,20.211997],[-101.893181,20.198922],[-101.932455,20.251942],[-101.949301,20.366044],[-101.982064,20.369455],[-102.006145,20.334883],[-101.995603,20.403148],[-102.09968,20.386818],[-101.967543,20.587426],[-101.983408,20.640446],[-102.085107,20.729329],[-102.087949,20.790669],[-101.855044,21.148374],[-101.771948,21.230074],[-101.662084,21.251106],[-101.572683,21.347586],[-101.568239,21.405722],[-101.640121,21.553413],[-101.538267,21.636871],[-101.533358,21.668393],[-101.586223,21.755055],[-101.520542,21.840941],[-101.449384,21.822131],[-101.32598,21.872929],[-101.236477,21.758362],[-101.091162,21.77247],[-100.961455,21.750352],[-100.627315,21.491763],[-100.499209,21.513623],[-100.46319,21.636561],[-100.403969,21.677747],[-100.076134,21.554292],[-99.958622,21.459104],[-99.878472,21.455797],[-99.790622,21.419106]]]}},{"type":"Feature","properties":{"country_code":"MX","region_code":"MX-SLP","name":"San Luis Potosí","native_name":"San Luis Potosí","type":"State"},"geometry":{"type":"Polygon","coordinates":[[[-100.82844,24.564961],[-100.618065,24.311049],[-100.597239,23.974377],[-100.480347,23.788522],[-100.4943,23.661579],[-100.452959,23.49991],[-100.472751,23.43304],[-100.439316,23.229022],[-100.340046,23.189593],[-100.326816,23.254136],[-100.057272,23.241062],[-100.08926,23.120811],[-100.006319,23.165253],[-99.998723,23.110373],[-99.907565,22.984075],[-99.933404,22.93519],[-100.03748,22.879689],[-100.000066,22.783364],[-99.536839,22.617483],[-99.547846,22.728277],[-99.431729,22.635518],[-99.379174,22.683422],[-99.228537,22.445297],[-98.830887,22.358377],[-98.656324,22.44292],[-98.356549,22.245206],[-98.361303,22.15255],[-98.452254,21.980416],[-98.58992,21.979692],[-98.587646,21.95189],[-98.528425,21.959228],[-98.561601,21.882334],[-98.531835,21.849364],[-98.490908,21.852775],[-98.456388,21.797068],[-98.521087,21.727821],[-98.559276,21.727356],[-98.570179,21.691958],[-98.624026,21.684878],[-98.642268,21.608862],[-98.521035,21.504476],[-98.515092,21.398849],[-98.589558,21.371512],[-98.592297,21.212246],[-98.715597,21.208163],[-98.806754,21.174263],[-98.905559,21.21607],[-98.939097,21.291207],[-98.99589,21.296478],[-99.043381,21.268315],[-99.112317,21.290329],[-99.098829,21.381538],[-99.197531,21.645501],[-99.265951,21.538479],[-99.325172,21.533931],[-99.381189,21.432646],[-99.570222,21.39239],[-99.720083,21.514656],[-99.748402,21.504993],[-99.790622,21.419106],[-99.878472,21.455797],[-99.958622,21.459104],[-100.076134,21.554292],[-100.403969,21.677747],[-100.46319,21.636561],[-100.499209,21.513623],[-100.627315,21.491763],[-100.961455,21.750352],[-101.091162,21.77247],[-101.236477,21.758362],[-101.32598,21.872929],[-101.449384,21.822131],[-101.520542,21.840941],[-101.325205,22.087593],[-101.378638,22.382355],[-101.298695,22.46018],[-101.35187,22.589578],[-101.388199,22.609111],[-101.554338,22.603117],[-101.630199,22.498007],[-101.761664,22.449534],[-101.813186,22.464727],[-101.953229,22.647558],[-102.022734,22.677014],[-102.154353,22.795922],[-102.25104,22.983662],[-102.228044,23.100761],[-102.252952,23.189024],[-102.299047,23.250416],[-102.230835,23.277856],[-102.190372,23.404205],[-102.137765,23.405703],[-102.113839,23.345294],[-102.034412,23.375783],[-101.828327,23.581197],[-101.727919,23.617939],[-101.663531,23.707055],[-101.450417,23.833584],[-101.315955,23.969571],[-101.226968,24.002695],[-100.970446,24.402464],[-100.851591,24.491167],[-100.82844,24.564961]]]}},{"type":"Feature","properties":{"country_code":"MX","region_code":"MX-ZAC","name":"Zacatecas","native_name":"Zacatecas","type":"State"},"geometry":{"type":"Polygon","coordinates":[[[-100.82844,24.564961],[-100.851591,24.491167],[-100.970446,24.402464],[-101.226968,24.002695],[-101.315955,23.969571],[-101.450417,23.833584],[-101.663531,23.707055],[-101.727919,23.617939],[-101.828327,23.581197],[-102.034412,23.375783],[-102.113839,23.345294],[-102.137765,23.405703],[-102.190372,23.404205],[-102.230835,23.277856],[-102.299047,23.250416],[-102.252952,23.189024],[-102.228044,23.100761],[-102.25104,22.983662],[-102.154353,22.795922],[-102.022734,22.677014],[-101.953229,22.647558],[-101.813186,22.464727],[-101.761664,22.449534],[-101.630199,22.498007],[-101.554338,22.603117],[-101.388199,22.609111],[-101.35187,22.589578],[-101.298695,22.46018],[-101.378638,22.382355],[-101.325205,22.087593],[-101.520542,21.840941],[-101.528759,21.876546],[-101.577851,21.880887],[-101.67893,21.962071],[-101.764196,21.962846],[-101.902896,22.084854],[-101.97979,22.123043],[-101.998859,22.275281],[-102.132236,22.32241],[-102.166394,22.373725],[-102.211404,22.354501],[-102.291554,22.464779],[-102.345143,22.396979],[-102.45604,22.359824],[-102.478468,22.315279],[-102.621043,22.306649],[-102.676285,22.26076],[-102.652256,22.187173],[-102.841779,21.932977],[-102.856352,21.850295],[-102.824933,21.786991],[-102.760492,21.748802],[-102.776176,21.607829],[-102.640525,21.568348],[-102.64714,21.487319],[-102.687809,21.398022],[-102.739977,21.370324],[-102.78664,21.29498],[-102.808319,21.292913],[-102.814727,21.341488],[-102.914927,21.282267],[-103.044997,21.288262],[-103.059569,21.044504],[-103.231678,21.079075],[-103.508018,21.196071],[-103.611345,21.197776],[-103.653409,21.264697],[-103.747047,21.228369],[-103.746504,21.297253],[-103.713922,21.329499],[-103.704259,21.384173],[-103.733947,21.52494],[-103.643927,21.486802],[-103.59194,21.558684],[-103.519283,21.600284],[-103.542382,21.78973],[-103.526828,21.817222],[-103.400737,21.928791],[-103.328003,21.94295],[-103.289013,21.98548],[-103.204987,21.977419],[-103.156075,21.998399],[-103.082591,22.098858],[-103.085873,22.124645],[-103.129152,22.140303],[-103.127136,22.174099],[-103.079026,22.192754],[-103.037684,22.287425],[-103.092436,22.298329],[-103.115147,22.33781],[-103.189122,22.322204],[-103.185169,22.380495],[-103.37278,22.516765],[-103.426808,22.410054],[-103.358647,22.348765],[-103.390841,22.328715],[-103.406448,22.258952],[-103.447556,22.241847],[-103.488639,22.134928],[-103.569409,22.151671],[-103.658241,22.117203],[-103.678266,22.136892],[-103.663254,22.239418],[-103.683046,22.321997],[-103.60796,22.524414],[-103.645012,22.543379],[-103.644934,22.588854],[-103.72803,22.606372],[-103.761077,22.559605],[-103.852131,22.179422],[-103.890113,22.286134],[-103.866368,22.40871],[-103.887426,22.467104],[-103.847945,22.505655],[-103.85133,22.568545],[-103.794951,22.623994],[-103.77875,22.734685],[-103.983182,22.771582],[-103.991838,22.574333],[-103.926933,22.506999],[-103.952151,22.369539],[-104.13183,22.343391],[-104.32975,22.264378],[-104.208802,22.643683],[-104.189061,23.117711],[-104.134284,23.18675],[-104.10364,23.450404],[-103.952487,23.551224],[-103.917915,23.653053],[-103.874197,23.658401],[-103.833372,23.629979],[-103.810402,23.671294],[-103.818438,23.717054],[-103.878951,23.773071],[-103.851407,23.850741],[-103.904505,23.924767],[-103.839419,23.945128],[-103.83593,24.085042],[-103.670437,24.161755],[-103.590596,24.278544],[-103.526621,24.297923],[-103.516105,24.340556],[-103.413191,24.360296],[-103.397688,24.42546],[-103.28214,24.483183],[-102.800877,24.409983],[-102.493247,24.460445],[-102.491697,24.824015],[-102.668172,25.078935],[-102.613499,25.1218],[-102.199932,25.165544],[-101.860728,25.07555],[-101.767762,24.938065],[-101.59077,24.882435],[-101.574389,24.80691],[-101.654332,24.825798],[-101.617177,24.757094],[-101.44158,24.752185],[-101.34417,24.838019],[-101.341586,24.811871],[-101.231102,24.817504],[-101.169297,24.767687],[-101.09664,24.641003],[-101.01711,24.602349],[-100.925178,24.611676],[-100.82844,24.564961]]]}},{"type":"Feature","properties":{"country_code":"MX","region_code":"MX-AGU","name":"Aguascalientes","native_name":"Aguascalientes","type":"State"},"geometry":{"type":"Polygon","coordinates":[[[-101.845432,22.017468],[-101.891734,21.955663],[-102.04914,21.865901],[-102.079888,21.767922],[-102.258946,21.670719],[-102.514176,21.706117],[-102.630319,21.773038],[-102.760492,21.748802],[-102.824933,21.786991],[-102.856352,21.850295],[-102.841779,21.932977],[-102.652256,22.187173],[-102.676285,22.26076],[-102.654323,22.29249],[-102.492524,22.307993],[-102.45604,22.359824],[-102.345143,22.396979],[-102.291554,22.464779],[-102.211404,22.354501],[-102.166394,22.373725],[-102.132236,22.32241],[-101.998859,22.275281],[-101.97979,22.123043],[-101.902896,22.084854],[-101.845432,22.017468]]]}},{"type":"Feature","properties":{"country_code":"MX","region_code":"MX-DUR","name":"Durango","native_name":"Durango","type":"State"},"geometry":{"type":"Polygon","coordinates":[[[-106.854609,24.789185],[-106.943467,24.809442],[-106.962535,24.878792],[-107.036381,24.919694],[-107.115343,25.144538],[-107.125678,25.2374],[-107.082709,25.465268],[-106.93693,25.641588],[-106.740353,25.622467],[-106.544499,25.779925],[-106.512098,26.021668],[-106.410424,26.050736],[-106.378307,26.131506],[-106.432154,26.361776],[-106.195709,26.445337],[-106.224828,26.559671],[-106.165711,26.62052],[-106.145195,26.762269],[-106.091994,26.734932],[-106.027528,26.838595],[-105.808497,26.693255],[-105.680417,26.698939],[-105.578227,26.586595],[-105.327467,26.459471],[-105.116834,26.552411],[-105.026374,26.459471],[-104.988031,26.503576],[-104.833337,26.486782],[-104.557049,26.340511],[-104.234588,26.723227],[-104.154955,26.76772],[-104.010364,26.776867],[-103.627261,26.64393],[-103.284905,26.363688],[-103.269582,26.31289],[-103.349526,26.073732],[-103.320174,25.698716],[-103.487786,25.540948],[-103.483575,25.485292],[-103.423837,25.417467],[-103.479854,25.377263],[-103.506157,25.28055],[-103.387973,25.14061],[-103.275319,25.072139],[-103.25147,24.922975],[-103.226174,24.887215],[-102.971875,24.806652],[-102.843097,24.728284],[-102.838549,24.898661],[-102.668172,25.078935],[-102.491697,24.824015],[-102.49025,24.474191],[-102.504668,24.454606],[-102.757133,24.409311],[-103.28214,24.483183],[-103.397688,24.42546],[-103.413191,24.360296],[-103.516105,24.340556],[-103.526621,24.297923],[-103.590596,24.278544],[-103.670437,24.161755],[-103.83593,24.085042],[-103.839419,23.945128],[-103.904505,23.924767],[-103.851407,23.850741],[-103.878951,23.773071],[-103.818438,23.717054],[-103.810402,23.671294],[-103.833372,23.629979],[-103.874197,23.658401],[-103.917915,23.653053],[-103.952487,23.551224],[-104.10364,23.450404],[-104.134284,23.18675],[-104.189061,23.117711],[-104.208802,22.643683],[-104.311431,22.319103],[-104.334634,22.474856],[-104.477157,22.416772],[-104.533485,22.427417],[-104.613842,22.48147],[-104.659162,22.616604],[-104.75373,22.673965],[-104.996661,22.543482],[-104.988573,22.691638],[-104.888579,22.790289],[-104.945475,22.915604],[-105.17882,23.031618],[-105.388626,23.033323],[-105.392347,23.14975],[-105.51544,23.146029],[-105.677937,23.282352],[-105.72566,23.48699],[-105.765606,23.551069],[-105.843043,23.580525],[-105.897355,23.71354],[-105.922289,23.901952],[-105.861879,24.064449],[-105.90937,24.05153],[-105.94836,24.07326],[-106.035021,24.260948],[-106.19558,24.389778],[-106.309242,24.374404],[-106.404611,24.289603],[-106.525327,24.306475],[-106.606097,24.381432],[-106.621833,24.481943],[-106.756372,24.703531],[-106.854609,24.789185]]]}},{"type":"Feature","properties":{"country_code":"MX","region_code":"MX-TLA","name":"Tlaxcala","native_name":"Tlaxcala","type":"State"},"geometry":{"type":"Polygon","coordinates":[[[-98.251749,19.719624],[-98.192683,19.679264],[-98.102301,19.670893],[-98.072535,19.677094],[-98.06251,19.730837],[-98.028197,19.69177],[-98.034605,19.636114],[-97.842575,19.543459],[-97.882159,19.501084],[-97.844487,19.436333],[-97.759014,19.447857],[-97.693127,19.380885],[-97.621245,19.364555],[-97.620418,19.319493],[-97.668116,19.28394],[-97.827589,19.311431],[-97.883813,19.265284],[-97.85198,19.194539],[-97.906447,19.155989],[-98.050108,19.209164],[-98.108295,19.134853],[-98.215731,19.112477],[-98.432978,19.344091],[-98.465896,19.438349],[-98.640873,19.461913],[-98.647487,19.51328],[-98.693686,19.5324],[-98.709086,19.582939],[-98.648676,19.587022],[-98.572505,19.633686],[-98.529717,19.613945],[-98.487084,19.644124],[-98.346214,19.594515],[-98.251749,19.719624]]]}},{"type":"Feature","properties":{"country_code":"MX","region_code":"MX-DIF","name":"Mexico","native_name":"Distrito Federal","type":"Federal District"},"geometry":{"type":"Polygon","coordinates":[[[-99.123737,19.571054],[-99.03873,19.42729],[-99.058832,19.377267],[-98.99005,19.336546],[-98.959613,19.274586],[-98.966434,19.201206],[-98.942198,19.121365],[-98.963954,19.089119],[-99.017801,19.086432],[-99.042812,19.057803],[-99.261713,19.120642],[-99.334732,19.246732],[-99.309256,19.362591],[-99.259698,19.360886],[-99.152883,19.491782],[-99.165492,19.512091],[-99.123737,19.571054]]]}}]}