{"type":"FeatureCollection","features":[{"type":"Feature","properties":{"country_code":"PH","region_code":"PH-SLU","name":"Sulu","native_name":"Sulu","type":"Province"},"geometry":{"type":"MultiPolygon","coordinates":[[[[120.860688,5.574368],[120.904552,5.538031],[120.897797,5.498521],[120.823741,5.533637],[120.860688,5.574368]]],[[[121.776622,6.077379],[121.943207,6.033637],[121.857677,6.002265],[121.776622,6.077379]]],[[[120.588145,6.380764],[120.60434,6.329657],[120.577322,6.251532],[120.49464,6.249335],[120.588145,6.380764]]],[[[121.162852,5.848049],[121.23113,5.80093],[121.16212,5.787584],[121.13502,5.807074],[121.162852,5.848049]]],[[[121.271251,6.02619],[121.421235,5.987128],[121.419444,5.947984],[121.292491,5.858832],[121.261729,5.871975],[121.227794,5.942125],[121.081065,5.88817],[121.008311,5.923774],[120.934093,5.885688],[120.871837,5.961005],[120.905528,6.015041],[121.042247,6.097113],[121.114757,6.09512],[121.179047,6.063625],[121.217784,5.998928],[121.271251,6.02619]]],[[[120.860118,5.703843],[120.88266,5.685289],[120.799327,5.667629],[120.807384,5.695705],[120.860118,5.703843]]],[[[120.904307,5.759101],[120.929373,5.733222],[120.909923,5.700019],[120.89088,5.709784],[120.904307,5.759101]]]]}},{"type":"Feature","properties":{"country_code":"PH","region_code":"PH-DAV","name":"Davao del Norte","native_name":"Davao del Norte","type":"Province"},"geometry":{"type":"MultiPolygon","coordinates":[[[[125.781912,7.135199],[125.776866,6.894029],[125.717621,7.052232],[125.674083,7.070217],[125.715831,7.19595],[125.781912,7.135199]]],[[[125.830715,7.354266],[125.622048,7.239351],[125.500898,7.241936],[125.501622,7.59163],[125.288921,7.595816],[125.303701,7.678395],[125.400336,7.666612],[125.434804,7.708057],[125.44054,7.80526],[125.374291,7.997755],[125.675441,7.996716],[125.702746,7.793685],[125.778917,7.698083],[125.777884,7.656846],[125.919891,7.826163],[125.943868,7.756426],[125.904801,7.68749],[125.93436,7.626899],[125.923818,7.562536],[125.916893,7.541995],[125.852505,7.528042],[125.88382,7.485254],[125.833901,7.455592],[125.830715,7.354266]]]]}},{"type":"Feature","properties":{"country_code":"PH","region_code":"PH-ZSI","name":"Zamboanga Sibugay","native_name":"Zamboanga Sibugay","type":"Province"},"geometry":{"type":"MultiPolygon","coordinates":[[[[122.97169,7.383612],[122.944509,7.389838],[122.950694,7.355699],[122.842052,7.294257],[122.800548,7.32095],[122.7942,7.383938],[122.82838,7.430813],[122.882986,7.397284],[122.90504,7.43773],[122.97169,7.383612]]],[[[123.096446,7.714301],[123.050304,7.655097],[122.995616,7.467271],[122.950694,7.486029],[122.917247,7.547512],[122.862559,7.465562],[122.822032,7.459418],[122.786876,7.486029],[122.79713,7.53559],[122.82838,7.527655],[122.793712,7.671047],[122.814708,7.743354],[122.739024,7.754136],[122.704275,7.788316],[122.618663,7.774075],[122.511485,7.695705],[122.433849,7.590644],[122.485606,7.578518],[122.443614,7.499701],[122.439952,7.541938],[122.359874,7.472846],[122.260682,7.471017],[122.37158,7.715033],[122.572808,7.88107],[122.713936,7.934968],[122.791968,7.945355],[122.915843,7.918415],[122.922554,7.831357],[123.085645,7.807586],[123.096446,7.714301]]]]}},{"type":"Feature","properties":{"country_code":"PH","region_code":"PH-PLW","name":"Palawan","native_name":"Palawan","type":"Province"},"geometry":{"type":"MultiPolygon","coordinates":[[[[121.258637,9.644843],[121.23463,9.594306],[121.210948,9.575873],[121.258637,9.644843]]],[[[119.632091,11.069892],[119.64796,11.015286],[119.613129,11.00845],[119.579763,11.045966],[119.579763,11.097846],[119.632091,11.069892]]],[[[119.613129,11.200263],[119.627696,11.173041],[119.570079,11.144355],[119.572927,11.179145],[119.613129,11.200263]]],[[[118.537608,7.006293],[118.520518,7.013373],[118.530772,6.978949],[118.503103,6.971422],[118.44516,6.982327],[118.427257,7.018215],[118.510265,7.047187],[118.537608,7.006293]]],[[[117.084972,8.057847],[117.086762,7.872138],[117.009939,7.800279],[116.955821,7.921088],[116.961681,8.061998],[116.982188,8.027289],[117.013194,8.061998],[117.084972,8.057847]]],[[[117.030528,8.068264],[116.99586,8.103013],[117.045421,8.13581],[117.068126,8.086249],[117.030528,8.068264]]],[[[117.161794,8.156724],[117.189708,8.176744],[117.20574,8.155504],[117.161794,8.156724]]],[[[117.32545,8.32274],[117.355317,8.30272],[117.359548,8.219062],[117.289724,8.184312],[117.279633,8.311103],[117.32545,8.32274]]],[[[117.242849,8.343207],[117.263927,8.301011],[117.190115,8.26203],[117.181407,8.287991],[117.242849,8.343207]]],[[[119.837901,10.637519],[120.011241,10.565253],[119.984141,10.531317],[119.950206,10.535468],[119.942719,10.515041],[119.908702,10.555976],[119.914887,10.480862],[119.788585,10.456977],[119.778331,10.535468],[119.752615,10.539781],[119.837901,10.637519]]],[[[118.638782,9.521117],[118.497895,9.313666],[118.35377,9.183173],[118.132091,9.126654],[118.113048,9.048977],[118.013682,8.8876],[117.910411,8.829739],[117.755382,8.690172],[117.565603,8.661078],[117.512869,8.506781],[117.472179,8.513821],[117.344981,8.471259],[117.190766,8.338324],[117.263927,8.610093],[117.279959,8.604967],[117.35963,8.731269],[117.435557,8.773139],[117.655528,9.057929],[117.761892,9.077948],[117.784028,9.151353],[117.866466,9.203599],[117.889985,9.250556],[117.989513,9.267401],[118.003184,9.233303],[118.133556,9.343166],[118.133556,9.384711],[118.192882,9.42182],[118.216319,9.477973],[118.332774,9.586412],[118.360118,9.658433],[118.638782,9.521117]]],[[[118.993419,10.300279],[119.02475,10.309556],[119.033946,10.349351],[118.984386,10.344062],[119.001964,10.397528],[119.072032,10.391506],[119.1067,10.425605],[119.085704,10.46662],[119.120372,10.487738],[119.127208,10.394924],[119.152843,10.398505],[119.278087,10.508205],[119.250743,10.555976],[119.290782,10.557685],[119.319102,10.590074],[119.342052,10.736151],[119.316905,10.772691],[119.273936,10.771674],[119.266124,10.826606],[119.223399,10.850816],[119.257579,10.891099],[119.22877,10.916246],[119.231944,10.951158],[119.250743,10.92593],[119.291677,10.932685],[119.278087,10.874945],[119.312836,10.878119],[119.333263,10.823472],[119.418712,10.769924],[119.445079,10.727484],[119.46754,10.732652],[119.439708,10.796047],[119.456798,10.830959],[119.355235,10.877753],[119.360606,10.932685],[119.324718,10.933498],[119.319998,11.000881],[119.325938,11.022773],[119.360606,11.000963],[119.327403,11.064439],[119.334972,11.102932],[119.377289,11.05622],[119.415294,11.05622],[119.43214,11.122219],[119.38795,11.186591],[119.428966,11.227525],[119.425548,11.313544],[119.501964,11.423326],[119.52296,11.339911],[119.552419,11.337388],[119.567068,11.301418],[119.561046,11.220282],[119.516368,11.117499],[119.572439,11.015326],[119.517589,11.011868],[119.504568,10.884955],[119.531586,10.81981],[119.602712,10.824408],[119.590831,10.672431],[119.653575,10.675116],[119.668468,10.652167],[119.634451,10.652167],[119.662771,10.57099],[119.725352,10.518622],[119.563243,10.373481],[119.463064,10.378485],[119.355968,10.328843],[119.257335,10.221991],[119.1963,10.056342],[119.083358,10.164422],[119.089908,10.203723],[118.993419,10.300279]]],[[[119.867198,11.51557],[119.869802,11.440619],[119.832856,11.378363],[119.832856,11.426174],[119.795421,11.43301],[119.770844,11.406317],[119.716156,11.460354],[119.728689,11.478013],[119.770844,11.440416],[119.785167,11.494452],[119.832856,11.460354],[119.844493,11.490668],[119.82602,11.508734],[119.867198,11.51557]]],[[[120.003103,11.910061],[120.083263,11.860419],[120.050059,11.854315],[120.039073,11.816596],[120.079926,11.789252],[120.047048,11.70893],[119.96697,11.664374],[119.956391,11.734687],[119.984386,11.714179],[120.004893,11.782538],[119.977061,11.796088],[119.959239,11.765855],[119.92921,11.77558],[119.901866,11.824042],[119.922374,11.837714],[119.854015,11.954413],[119.891612,11.940131],[119.919688,11.981513],[119.959321,11.929999],[120.031423,11.924465],[120.003103,11.910061]]],[[[120.347504,12.029486],[120.326427,11.995307],[120.237641,11.987942],[120.1421,12.029486],[120.134613,11.97484],[120.114106,11.967434],[120.082286,12.001532],[120.00115,12.011176],[119.942393,12.087144],[119.89503,12.207668],[119.847667,12.166734],[119.872325,12.251695],[119.922374,12.276516],[119.880707,12.269029],[119.88502,12.322699],[119.926931,12.316474],[119.935883,12.276516],[120.004893,12.262885],[120.114106,12.193996],[120.094249,12.166653],[120.196056,12.112006],[120.223969,12.125678],[120.229747,12.218655],[120.258311,12.131781],[120.286388,12.135443],[120.342133,12.080756],[120.315196,12.023179],[120.347504,12.029486]]],[[[121.085785,10.908881],[121.087169,10.823472],[121.017589,10.834133],[121.032074,10.87051],[121.085785,10.908881]]],[[[120.285167,11.930162],[120.263438,11.916164],[120.267914,11.81623],[120.203298,11.947577],[120.267914,11.968085],[120.285167,11.930162]]],[[[119.959727,8.880601],[119.960623,8.877102],[119.958344,8.877183],[119.959727,8.880601]]],[[[119.969249,8.880927],[119.968272,8.884101],[119.971934,8.882392],[119.969249,8.880927]]],[[[119.963227,8.88703],[119.966075,8.885688],[119.964854,8.884996],[119.963227,8.88703]]],[[[119.965668,8.891425],[119.968516,8.890041],[119.967296,8.88935],[119.965668,8.891425]]]]}},{"type":"Feature","properties":{"country_code":"PH","region_code":"PH-SUN","name":"Dinagat Islands","native_name":"Surigao del Norte","type":"Province"},"geometry":{"type":"MultiPolygon","coordinates":[[[[125.97283,9.754625],[125.984141,9.589504],[125.946951,9.56623],[125.915538,9.618964],[125.938731,9.672756],[125.934825,9.759914],[125.97283,9.754625]]],[[[125.465259,9.4447],[125.397472,9.699408],[125.459483,9.822943],[125.507091,9.779934],[125.589203,9.754625],[125.610362,9.647895],[125.643565,9.611274],[125.934093,9.492336],[125.729205,9.313282],[125.744604,9.359377],[125.677838,9.437099],[125.549577,9.464229],[125.465259,9.4447]]],[[[126.165863,9.829169],[126.178233,9.787828],[126.120128,9.758938],[126.041677,9.775133],[126.048595,9.754625],[125.965994,9.850246],[126.014415,9.864488],[125.983409,9.901801],[126.071462,10.059068],[126.13795,9.901923],[126.110606,9.857082],[126.165863,9.829169]]],[[[125.719574,9.911689],[125.699474,9.874254],[125.663585,9.889146],[125.658051,9.939032],[125.583181,10.009711],[125.617198,10.059068],[125.59669,10.08983],[125.521007,10.062567],[125.495291,10.10871],[125.514171,10.207099],[125.542003,10.199693],[125.522146,10.316962],[125.562511,10.330797],[125.562511,10.378485],[125.610362,10.370998],[125.637706,10.460395],[125.684825,10.399888],[125.661388,10.270575],[125.637706,10.248114],[125.668142,10.214667],[125.656505,10.176337],[125.685313,10.172349],[125.676768,10.127672],[125.706554,10.069322],[125.681488,9.958075],[125.719574,9.911689]]]]}},{"type":"Feature","properties":{"country_code":"PH","region_code":"PH-SUR","name":"Surigao del Sur","native_name":"Surigao del Sur","type":"Province"},"geometry":{"type":"Polygon","coordinates":[[[125.934093,9.492336],[125.952403,9.45303],[125.97283,9.480292],[125.971202,9.454088],[125.910981,9.404934],[125.955821,9.381781],[125.993907,9.397773],[125.996593,9.324652],[126.057953,9.245998],[126.143403,9.26142],[126.199962,9.308417],[126.22462,9.290961],[126.178966,9.093004],[126.312755,8.956244],[126.34547,8.853258],[126.300059,8.768297],[126.234141,8.733629],[126.254568,8.685207],[126.197765,8.6883],[126.138438,8.654039],[126.110525,8.607123],[126.158458,8.527574],[126.22877,8.52147],[126.22047,8.555487],[126.370128,8.541815],[126.405284,8.492621],[126.411632,8.466132],[126.370128,8.455552],[126.380056,8.395575],[126.33253,8.347073],[126.388438,8.292914],[126.338634,8.214586],[126.361583,8.187161],[126.459321,8.24018],[126.466156,8.095526],[126.431488,8.0456],[126.453136,7.980129],[126.383474,7.899563],[126.313975,7.940187],[126.217547,8.153973],[126.222818,8.348793],[126.068977,8.390703],[125.991256,8.568883],[126.031512,8.644589],[126.023967,8.688411],[125.952343,8.755125],[125.951517,8.801117],[125.873795,8.879097],[125.849249,8.950979],[125.802068,8.966688],[125.802533,9.11102],[125.729205,9.313282],[125.934093,9.492336]]]}},{"type":"Feature","properties":{"country_code":"PH","region_code":"PH-AGN","name":"Agusan del Norte","native_name":"Agusan del Norte","type":"Province"},"geometry":{"type":"MultiPolygon","coordinates":[[[[125.516612,9.015937],[125.542003,9.189195],[125.465259,9.4447],[125.622028,9.455806],[125.691791,9.42852],[125.730962,9.385216],[125.729515,9.270494],[125.766974,9.212283],[125.70962,9.014831],[125.516612,9.015937]]],[[[125.20362,9.081947],[125.288748,9.000434],[125.441173,8.980414],[125.461938,8.876591],[125.513274,8.79702],[125.6737,8.80087],[125.703366,8.71275],[125.662277,8.687326],[125.534694,8.699728],[125.489252,8.676081],[125.431755,8.596892],[125.320699,8.589837],[125.291017,8.782495],[125.32333,8.885575],[125.233628,8.987772],[125.20362,9.081947]]]]}},{"type":"Feature","properties":{"country_code":"PH","region_code":"PH-AGN","name":"Butuan","native_name":"Butuan","type":"Highly Urbanized City"},"geometry":{"type":"Polygon","coordinates":[[[125.441173,8.980414],[125.516612,9.015937],[125.70962,9.014831],[125.662149,8.876591],[125.6737,8.80087],[125.513274,8.79702],[125.461938,8.876591],[125.441173,8.980414]]]}},{"type":"Feature","properties":{"country_code":"PH","region_code":"PH-MSR","name":"Misamis Oriental","native_name":"Misamis Oriental","type":"Province"},"geometry":{"type":"MultiPolygon","coordinates":[[[[124.753184,8.561713],[124.773611,8.596422],[124.746349,8.670966],[124.787852,8.733629],[124.780772,8.949123],[124.799083,8.999986],[124.820811,9.014553],[124.915294,8.994127],[125.115733,8.830552],[125.187348,8.875922],[125.177745,9.007392],[125.20362,9.081947],[125.233628,8.987772],[125.32333,8.885575],[125.291017,8.782495],[125.320699,8.589837],[124.902537,8.592654],[124.82559,8.515553],[124.753184,8.561713]]],[[[124.261693,8.324176],[124.321788,8.514553],[124.405772,8.607896],[124.469981,8.624823],[124.480154,8.582831],[124.571544,8.528144],[124.510086,8.477386],[124.540536,8.469081],[124.537768,8.438631],[124.436648,8.349528],[124.377142,8.375613],[124.261693,8.324176]]]]}},{"type":"Feature","properties":{"country_code":"PH","region_code":"PH-MSR","name":"Cagayan de Oro","native_name":"Cagayan de Oro","type":"Highly Urbanized City"},"geometry":{"type":"Polygon","coordinates":[[[124.571544,8.528144],[124.657481,8.514553],[124.643321,8.431952],[124.663097,8.475816],[124.712169,8.472968],[124.753184,8.50023],[124.753184,8.561713],[124.82559,8.515553],[124.828691,8.432354],[124.785179,8.40295],[124.619815,8.413595],[124.572479,8.237224],[124.436648,8.349528],[124.537768,8.438631],[124.540536,8.469081],[124.510086,8.477386],[124.571544,8.528144]]]}},{"type":"Feature","properties":{"country_code":"PH","region_code":"PH-LAN","name":"Iligan","native_name":"Iligan","type":"Highly Urbanized City"},"geometry":{"type":"Polygon","coordinates":[[[124.23227,8.212877],[124.274669,8.281073],[124.261693,8.324176],[124.352338,8.370549],[124.407528,8.369877],[124.572479,8.237224],[124.559767,8.118885],[124.629737,8.00747],[124.396521,8.169424],[124.358125,8.225131],[124.263713,8.197795],[124.23227,8.212877]]]}},{"type":"Feature","properties":{"country_code":"PH","region_code":"PH-LAN","name":"Lanao del Norte","native_name":"Lanao del Norte","type":"Province"},"geometry":{"type":"Polygon","coordinates":[[[123.688967,7.968299],[124.000255,8.181342],[124.29911,8.215566],[124.288879,8.083331],[124.254463,8.034187],[124.162582,8.016824],[124.107873,7.909171],[124.058816,7.904014],[124.05835,7.844793],[124.005951,7.767278],[123.993393,7.701856],[123.869266,7.739735],[123.861819,7.703472],[123.7942,7.710517],[123.703949,7.809394],[123.614682,7.83349],[123.704212,7.909698],[123.688967,7.968299]]]}},{"type":"Feature","properties":{"country_code":"PH","region_code":"PH-ZAS","name":"Zamboanga del Sur","native_name":"Zamboanga del Sur","type":"Province"},"geometry":{"type":"Polygon","coordinates":[[[123.677582,8.010606],[123.69367,7.890836],[123.614682,7.83349],[123.52296,7.835517],[123.444672,7.801337],[123.497813,7.708808],[123.485688,7.66356],[123.400076,7.619452],[123.392345,7.575629],[123.362153,7.589057],[123.353526,7.572089],[123.451671,7.452541],[123.457774,7.408637],[123.431,7.36872],[123.342133,7.420478],[123.280284,7.520209],[123.243826,7.524075],[123.183604,7.480943],[123.140636,7.513129],[123.127615,7.572577],[123.177257,7.589057],[123.186778,7.626207],[123.140391,7.661363],[123.129405,7.7331],[123.096446,7.714301],[123.085645,7.807586],[122.922554,7.831357],[122.913873,7.869778],[122.915843,7.918415],[122.984726,7.928906],[123.065284,8.000029],[123.18476,7.987781],[123.171635,8.211489],[123.188894,8.230609],[123.556107,8.231953],[123.555022,8.070619],[123.571869,8.040543],[123.677582,8.010606]]]}},{"type":"Feature","properties":{"country_code":"PH","region_code":"PH-MSC","name":"Misamis Occidental","native_name":"Misamis Occidental","type":"Province"},"geometry":{"type":"Polygon","coordinates":[[[123.549001,8.618842],[123.581309,8.582831],[123.61671,8.670722],[123.7588,8.607489],[123.857595,8.40941],[123.882986,8.164496],[123.767751,8.059027],[123.684744,8.036811],[123.677582,8.010606],[123.571869,8.040543],[123.555022,8.070619],[123.549001,8.618842]]]}},{"type":"Feature","properties":{"country_code":"PH","region_code":"PH-ZAN","name":"Zamboanga del Norte","native_name":"Zamboanga del Norte","type":"Province"},"geometry":{"type":"Polygon","coordinates":[[[121.904276,7.154397],[121.933442,7.217922],[122.051036,7.307807],[122.032563,7.33983],[122.046886,7.452541],[122.077647,7.528022],[122.146007,7.588813],[122.113536,7.603258],[122.122732,7.700385],[122.096528,7.744696],[122.25172,7.980129],[122.437999,8.066555],[122.638438,8.108547],[122.67921,8.164211],[122.691905,8.131659],[122.735199,8.115465],[122.945323,8.161851],[123.013682,8.232408],[122.964366,8.274359],[122.958181,8.308498],[122.99643,8.342719],[122.992198,8.397203],[123.055431,8.50495],[123.195079,8.542222],[123.231944,8.520697],[123.300955,8.524237],[123.371593,8.63345],[123.436371,8.649482],[123.390147,8.719387],[123.51295,8.698879],[123.521821,8.622545],[123.549001,8.618842],[123.556107,8.231953],[123.188894,8.230609],[123.171635,8.211489],[123.18476,7.987781],[123.096032,8.00561],[122.947307,7.91621],[122.752539,7.943701],[122.572808,7.88107],[122.37158,7.715033],[122.191746,7.363789],[122.17583,7.244416],[122.122655,7.15207],[121.904276,7.154397]]]}},{"type":"Feature","properties":{"country_code":"PH","region_code":"PH-ZAN","name":"Zamboanga Peninsula","native_name":"Zamboanga","type":"Highly Urbanized City"},"geometry":{"type":"Polygon","coordinates":[[[122.359874,7.472846],[122.372569,7.372748],[122.280447,7.294501],[122.2435,7.09927],[122.15447,6.928127],[122.095714,6.897406],[121.961192,6.958197],[121.898936,7.057196],[121.904276,7.154397],[122.122655,7.15207],[122.17583,7.244416],[122.191746,7.363789],[122.260682,7.471017],[122.359874,7.472846]]]}},{"type":"Feature","properties":{"country_code":"PH","region_code":"PH-LAS","name":"Lanao del Sur","native_name":"Lanao del Sur","type":"Province"},"geometry":{"type":"Polygon","coordinates":[[[124.167313,7.431846],[124.065196,7.602729],[123.910899,7.69892],[123.861819,7.703472],[123.869266,7.739735],[123.993393,7.701856],[124.005951,7.767278],[124.05835,7.844793],[124.058816,7.904014],[124.119535,7.918948],[124.162582,8.016824],[124.254463,8.034187],[124.297767,8.111185],[124.29911,8.215566],[124.358125,8.225131],[124.396521,8.169424],[124.666117,7.973054],[124.667151,7.937655],[124.604467,7.910215],[124.808641,7.611112],[124.591755,7.624755],[124.506644,7.690229],[124.382878,7.620517],[124.167313,7.431846]]]}},{"type":"Feature","properties":{"country_code":"PH","region_code":"PH-MAG","name":"Maguindanao","native_name":"Maguindanao","type":"Province"},"geometry":{"type":"Polygon","coordinates":[[[124.219249,7.32095],[124.246755,7.40412],[124.167313,7.431846],[124.464579,7.669558],[124.448766,7.539488],[124.492691,7.43319],[124.325673,7.175015],[124.377556,7.171914],[124.43533,7.235269],[124.49021,7.227931],[124.447216,7.098068],[124.559457,7.033835],[124.582401,6.982313],[124.681517,6.950946],[124.720894,6.995956],[124.66684,7.078741],[124.722444,7.119411],[124.692885,7.163956],[124.722341,7.200956],[124.797892,7.074504],[124.786161,6.980815],[124.833032,6.975285],[124.837166,6.767649],[124.896491,6.728892],[124.876543,6.683675],[124.908583,6.63944],[124.80771,6.656752],[124.693712,6.778088],[124.711075,6.845887],[124.638935,6.843614],[124.642811,6.860305],[124.566743,6.829764],[124.558217,6.754162],[124.472434,6.725895],[124.266762,6.726928],[124.222423,6.76181],[124.037219,6.758551],[124.036632,6.799709],[123.997325,6.786078],[123.974946,6.8039],[123.974864,6.965318],[124.02947,7.115139],[124.183767,7.226386],[124.280995,7.165261],[124.305451,7.222324],[124.251106,7.31471],[124.219249,7.32095]]]}},{"type":"Feature","properties":{"country_code":"PH","region_code":"PH-NCO","name":"Cotabato","native_name":"Cotabato","type":"Independent Component City"},"geometry":{"type":"Polygon","coordinates":[[[124.183767,7.226386],[124.219249,7.32095],[124.251106,7.31471],[124.305451,7.222324],[124.280995,7.165261],[124.183767,7.226386]]]}},{"type":"Feature","properties":{"country_code":"PH","region_code":"PH-SUK","name":"Sultan Kudarat","native_name":"Sultan Kudarat","type":"Province"},"geometry":{"type":"Polygon","coordinates":[[[124.370282,6.13265],[124.22877,6.197008],[124.071951,6.401516],[124.03297,6.542426],[124.055837,6.55272],[124.037219,6.758551],[124.222423,6.76181],[124.266762,6.726928],[124.519511,6.733749],[124.558217,6.754162],[124.566743,6.829764],[124.642811,6.860305],[124.638935,6.843614],[124.711075,6.845887],[124.693712,6.778088],[124.80771,6.656752],[124.868017,6.636288],[124.908583,6.63944],[124.876543,6.683675],[124.896491,6.728892],[125.149705,6.782222],[125.192183,6.678456],[125.176732,6.563321],[124.925843,6.561822],[124.855666,6.531488],[124.751693,6.636701],[124.67299,6.590502],[124.633974,6.63944],[124.606379,6.510456],[124.636351,6.443328],[124.641726,6.292329],[124.249295,6.292484],[124.382878,6.162208],[124.370282,6.13265]]]}},{"type":"Feature","properties":{"country_code":"PH","region_code":"PH-SAR","name":"Sarangani","native_name":"Sarangani","type":"Province"},"geometry":{"type":"MultiPolygon","coordinates":[[[[125.112234,5.953355],[125.069102,5.861721],[124.938731,5.863959],[124.605805,5.992336],[124.585948,6.022691],[124.370282,6.13265],[124.396366,6.212954],[124.789417,6.011675],[125.048213,6.004853],[125.05307,5.958138],[125.112234,5.953355]]],[[[125.306476,5.583576],[125.288259,5.706041],[125.237804,5.727973],[125.181163,5.798326],[125.278005,5.979234],[125.234248,6.158332],[125.271868,6.266078],[125.075394,6.342456],[125.140808,6.434871],[125.26298,6.324317],[125.446224,6.313672],[125.51113,6.216933],[125.504722,6.136525],[125.529734,6.078234],[125.47816,5.914833],[125.478884,5.835458],[125.376565,5.633662],[125.306476,5.583576]]]]}},{"type":"Feature","properties":{"country_code":"PH","region_code":"PH-SCO","name":"General Santos","native_name":"General Santos","type":"Highly Urbanized City"},"geometry":{"type":"Polygon","coordinates":[[[125.240082,6.094224],[125.157888,6.108791],[125.112234,5.953355],[125.05307,5.958138],[125.036049,6.196365],[125.119096,6.190828],[125.102487,6.251729],[125.137424,6.32071],[125.271868,6.266078],[125.234248,6.158332],[125.240082,6.094224]]]}},{"type":"Feature","properties":{"country_code":"PH","region_code":"PH-DAS","name":"Davao del Sur","native_name":"Davao del Sur","type":"Province"},"geometry":{"type":"MultiPolygon","coordinates":[[[[125.509939,7.01557],[125.480642,6.913235],[125.403575,6.811835],[125.380626,6.657213],[125.405528,6.588853],[125.434581,6.588202],[125.43214,6.61579],[125.534516,6.512844],[125.553233,6.524848],[125.589854,6.499172],[125.710623,6.111029],[125.667328,5.950141],[125.436371,5.617662],[125.387543,5.573798],[125.322765,5.575507],[125.306476,5.583576],[125.376565,5.633662],[125.478884,5.835458],[125.47816,5.914833],[125.529734,6.09291],[125.504722,6.136525],[125.51113,6.216933],[125.464621,6.298376],[125.26298,6.324317],[125.141333,6.430667],[125.193578,6.662539],[125.149705,6.782222],[125.166448,6.844647],[125.268509,6.954821],[125.278896,7.009082],[125.509939,7.01557]]],[[[125.418712,5.425482],[125.418712,5.368476],[125.334239,5.387681],[125.376801,5.43122],[125.418712,5.425482]]]]}},{"type":"Feature","properties":{"country_code":"PH","region_code":"PH-DAV","name":"Davao","native_name":"Davao","type":"Highly Urbanized City"},"geometry":{"type":"Polygon","coordinates":[[[125.676768,7.264635],[125.656912,7.237047],[125.658051,7.129136],[125.603526,7.054633],[125.509939,7.01557],[125.302771,7.01735],[125.297603,7.122253],[125.222517,7.183334],[125.249854,7.238628],[125.236211,7.36198],[125.276726,7.533907],[125.26597,7.578429],[125.288921,7.595816],[125.501622,7.59163],[125.500898,7.241936],[125.622048,7.239351],[125.676768,7.264635]]]}},{"type":"Feature","properties":{"country_code":"PH","region_code":"PH-COM","name":"Davao de Oro","native_name":"Compostela Valley","type":"Province"},"geometry":{"type":"Polygon","coordinates":[[[125.954275,7.047406],[125.902599,7.101142],[125.850597,7.253892],[125.826666,7.432208],[125.88382,7.485254],[125.852505,7.528042],[125.916893,7.541995],[125.93436,7.626899],[125.904801,7.68749],[125.943868,7.756426],[125.919891,7.826163],[125.777884,7.656846],[125.778917,7.698083],[125.702746,7.793685],[125.675441,7.996716],[126.183027,7.994965],[126.176722,7.84872],[126.244315,7.557524],[126.21858,7.454636],[126.293615,7.298883],[126.241774,7.240245],[125.954275,7.047406]]]}},{"type":"Feature","properties":{"country_code":"PH","region_code":"PH-DAO","name":"Davao Oriental","native_name":"Davao Oriental","type":"Province"},"geometry":{"type":"Polygon","coordinates":[[[126.383474,7.899563],[126.406098,7.833238],[126.487478,7.746731],[126.582856,7.719428],[126.569184,7.62637],[126.608653,7.465318],[126.566417,7.426011],[126.589692,7.389838],[126.569184,7.301093],[126.617686,7.276842],[126.47641,7.06623],[126.451508,6.983547],[126.349457,7.000067],[126.323985,6.978095],[126.301768,6.893256],[126.343272,6.849189],[126.33961,6.786526],[126.308849,6.798041],[126.242686,6.919257],[126.191905,6.925116],[126.192556,6.883368],[126.17213,6.903876],[126.257172,6.744818],[126.200206,6.283189],[126.095063,6.514106],[126.079112,6.842515],[126.022146,6.866767],[125.983409,6.920885],[125.986501,7.006293],[125.954275,7.047406],[126.241774,7.240245],[126.293615,7.298883],[126.21858,7.454636],[126.244315,7.557524],[126.176722,7.84872],[126.183027,7.994965],[126.291186,7.995843],[126.313975,7.940187],[126.383474,7.899563]]]}},{"type":"Feature","properties":{"country_code":"PH","region_code":"PH-SLE","name":"Southern Leyte","native_name":"Southern Leyte","type":"Province"},"geometry":{"type":"MultiPolygon","coordinates":[[[[125.229259,10.121161],[125.304942,9.932807],[125.273936,9.919135],[125.198741,10.035834],[125.145763,10.070705],[125.137462,10.165513],[125.229259,10.121161]]],[[[125.167784,10.622137],[125.194102,10.602973],[125.198741,10.433051],[125.266612,10.368394],[125.273285,10.277981],[125.229259,10.25434],[125.14088,10.278795],[125.151052,10.185452],[125.117035,10.197496],[125.068858,10.267239],[125.041759,10.364203],[124.990977,10.381334],[125.031749,10.02025],[124.882823,10.134955],[124.780447,10.151923],[124.766012,10.185444],[124.903725,10.275704],[124.883881,10.434867],[124.910443,10.492435],[125.061028,10.531916],[125.167784,10.622137]]]]}},{"type":"Feature","properties":{"country_code":"PH","region_code":"PH-LEY","name":"Leyte","native_name":"Leyte","type":"Province"},"geometry":{"type":"MultiPolygon","coordinates":[[[[124.379731,10.691311],[124.378429,10.628323],[124.300629,10.590074],[124.284353,10.603827],[124.327647,10.704006],[124.379731,10.691311]]],[[[124.465831,10.713609],[124.520681,10.665758],[124.5088,10.641547],[124.40919,10.648261],[124.408458,10.683824],[124.465831,10.713609]]],[[[124.48765,11.065892],[124.562755,10.931464],[124.514496,10.873684],[124.446951,10.903144],[124.43686,10.935207],[124.396007,10.934068],[124.417979,11.000963],[124.388438,11.065863],[124.417979,11.128567],[124.404307,11.30268],[124.354747,11.328681],[124.370291,11.374945],[124.334727,11.392035],[124.348481,11.399115],[124.311371,11.466783],[124.300629,11.542873],[124.329112,11.557115],[124.480154,11.385199],[124.503266,11.443834],[124.594249,11.319525],[124.629893,11.304429],[124.744395,11.328559],[124.845714,11.43301],[124.938162,11.419989],[124.984141,11.381334],[124.975597,11.334418],[124.919825,11.324261],[124.932691,11.236539],[124.985324,11.192094],[125.038748,11.197943],[125.053071,10.968207],[125.012869,10.844672],[125.013845,10.754584],[125.120291,10.70307],[125.167784,10.622137],[125.061028,10.531916],[124.910443,10.492435],[124.883881,10.434867],[124.903725,10.275704],[124.766012,10.185444],[124.792247,10.32567],[124.738943,10.395453],[124.736827,10.44774],[124.800548,10.724514],[124.773611,10.830959],[124.622325,11.002021],[124.670121,11.064484],[124.604206,11.156765],[124.558763,11.111741],[124.497956,11.109352],[124.48765,11.065892]]]]}},{"type":"Feature","properties":{"country_code":"PH","region_code":"PH-EAS","name":"Eastern Samar","native_name":"Eastern Samar","type":"Province"},"geometry":{"type":"MultiPolygon","coordinates":[[[[125.822032,10.734687],[125.826915,10.70893],[125.769379,10.700385],[125.684093,10.752753],[125.687266,10.805162],[125.731456,10.808051],[125.760509,10.740953],[125.822032,10.734687]]],[[[125.273005,12.284005],[125.356456,12.317532],[125.34962,12.289537],[125.390636,12.30386],[125.384451,12.28498],[125.500499,12.248603],[125.538259,12.183498],[125.47934,12.166653],[125.507335,12.146186],[125.459483,12.125678],[125.457367,12.107082],[125.500499,12.10456],[125.525157,12.056952],[125.445811,11.947333],[125.459483,11.830268],[125.493663,11.790229],[125.457205,11.785712],[125.450206,11.750434],[125.481619,11.75731],[125.500499,11.701117],[125.466319,11.611762],[125.530935,11.491604],[125.521007,11.460354],[125.548839,11.460354],[125.558604,11.424791],[125.637706,11.368476],[125.63502,11.326483],[125.566173,11.268134],[125.555024,11.211859],[125.599132,11.189114],[125.63087,11.200263],[125.628917,11.236314],[125.693614,11.192572],[125.779633,11.052395],[125.760509,11.022773],[125.719574,11.049465],[125.706065,11.116767],[125.651541,11.1494],[125.600108,11.118313],[125.563813,11.156806],[125.538341,11.145657],[125.527843,11.090399],[125.469737,11.128567],[125.424653,11.090399],[125.416515,11.116604],[125.397472,11.104682],[125.317068,11.149563],[125.241384,11.094387],[125.349176,11.414497],[125.280033,11.559863],[125.243136,11.96697],[125.203655,12.015443],[125.122627,11.997873],[125.106607,12.129648],[125.188256,12.366429],[125.231664,12.364052],[125.273005,12.284005]]]]}},{"type":"Feature","properties":{"country_code":"PH","region_code":"PH-BIL","name":"Biliran","native_name":"Biliran","type":"Province"},"geometry":{"type":"Polygon","coordinates":[[[124.523204,11.686265],[124.625011,11.532701],[124.609141,11.486558],[124.472667,11.473944],[124.349132,11.68008],[124.523204,11.686265]]]}},{"type":"Feature","properties":{"country_code":"PH","region_code":"PH-WSA","name":"Samar","native_name":"Samar","type":"Province"},"geometry":{"type":"MultiPolygon","coordinates":[[[[124.789399,11.684882],[124.856212,11.604926],[124.831554,11.536322],[124.740571,11.650621],[124.732677,11.721625],[124.789399,11.684882]]],[[[125.241384,11.094387],[125.172374,11.265204],[125.000987,11.289781],[125.007009,11.426174],[124.911469,11.501899],[124.887462,11.465522],[124.828298,11.508734],[124.900076,11.548774],[124.89031,11.570217],[124.977794,11.59276],[125.000173,11.624823],[124.996755,11.683417],[125.034434,11.727851],[125.055431,11.714179],[125.043712,11.757758],[125.003591,11.77558],[124.928233,11.741441],[124.892426,11.761461],[124.833507,11.845364],[124.794119,11.85814],[124.823985,11.905829],[124.761078,11.901313],[124.762055,11.929023],[124.739513,11.926459],[124.729259,11.977973],[124.679861,12.029731],[124.569347,12.050849],[124.493175,12.097805],[124.407237,12.193793],[124.370549,12.290049],[124.427992,12.291705],[124.48711,12.330514],[124.679243,12.230468],[124.754587,12.258218],[124.845641,12.226903],[124.900108,12.257495],[125.030022,12.255221],[125.161797,12.315683],[125.141023,12.191763],[125.106607,12.129648],[125.122627,11.997873],[125.203655,12.015443],[125.243136,11.96697],[125.280033,11.559863],[125.349176,11.414497],[125.241384,11.094387]]],[[[124.165375,12.075426],[124.229259,12.063625],[124.150238,12.04385],[124.165375,12.075426]]]]}},{"type":"Feature","properties":{"country_code":"PH","region_code":"PH-AUR","name":"Aurora","native_name":"Aurora","type":"Province"},"geometry":{"type":"Polygon","coordinates":[[[122.24464,16.510565],[122.204275,16.43476],[122.217621,16.394761],[122.231944,16.415269],[122.197113,16.291693],[122.231944,16.319037],[122.203868,16.236518],[122.076996,16.132717],[122.059255,16.077786],[121.99171,16.03852],[122.132579,16.225491],[122.135265,16.260728],[122.087413,16.255316],[122.050548,16.180854],[121.752289,16.07689],[121.567393,15.915717],[121.554861,15.828925],[121.574555,15.774359],[121.642263,15.736884],[121.594493,15.67475],[121.629161,15.661119],[121.495616,15.532457],[121.472911,15.43769],[121.42628,15.373765],[121.389903,15.377875],[121.391124,15.266262],[121.446178,15.207934],[121.409468,15.202018],[121.38456,15.160987],[121.394585,15.102799],[121.356758,15.028747],[121.330093,15.032364],[121.2933,15.090707],[121.368437,15.470684],[121.267255,15.77759],[121.808307,16.2187],[122.037544,16.507623],[122.24464,16.510565]]]}},{"type":"Feature","properties":{"country_code":"PH","region_code":"PH-QUE","name":"Quezon","native_name":"Quezon","type":"Province"},"geometry":{"type":"MultiPolygon","coordinates":[[[[121.446178,15.207934],[121.481456,15.182522],[121.508149,15.062812],[121.615001,14.87287],[121.594493,14.859198],[121.724946,14.73078],[121.613943,14.689887],[121.608165,14.630194],[121.662446,14.417385],[121.734711,14.328681],[121.731619,14.280422],[121.758962,14.246568],[121.731619,14.188218],[121.78004,14.126166],[121.93629,13.995185],[122.231944,13.90644],[122.183442,13.988959],[122.293305,13.97012],[122.313731,14.016303],[122.208669,14.087633],[122.162934,14.167792],[122.183442,14.146674],[122.195567,14.183783],[122.244395,14.196031],[122.25172,14.250312],[122.271495,14.136664],[122.293305,14.140448],[122.309465,14.080123],[122.47979,14.150816],[122.815894,13.99372],[122.615079,13.963954],[122.558003,13.933281],[122.536876,13.961127],[122.51588,13.934394],[122.413097,13.948065],[122.509613,13.820014],[122.512462,13.735785],[122.485525,13.721625],[122.497569,13.652045],[122.635997,13.537095],[122.632335,13.520697],[122.567149,13.56387],[122.663259,13.420478],[122.692231,13.236802],[122.653168,13.200995],[122.588145,13.174018],[122.505056,13.239203],[122.519298,13.310614],[122.50115,13.368069],[122.395193,13.522895],[122.319021,13.592231],[122.194021,13.622789],[122.118419,13.752102],[122.059906,13.804633],[122.053722,13.785142],[121.989431,13.810045],[121.724864,13.969143],[121.689952,13.925971],[121.636892,13.909613],[121.581948,13.996386],[121.498413,13.957229],[121.549327,13.87816],[121.454581,13.819219],[121.319758,13.898428],[121.264464,13.961525],[121.416496,14.050977],[121.503726,14.074542],[121.600464,14.249828],[121.52233,14.471727],[121.374018,14.703444],[121.345803,14.792844],[121.330093,15.032364],[121.356758,15.028747],[121.394585,15.102799],[121.38456,15.160987],[121.409468,15.202018],[121.446178,15.207934]]],[[[121.964041,14.226142],[122.172699,14.053534],[122.177013,14.007066],[121.96518,14.142971],[121.926606,14.221259],[121.964041,14.226142]]],[[[122.197113,14.803941],[122.257009,14.767035],[122.242198,14.736314],[122.121267,14.806871],[122.105724,14.84394],[122.203868,14.838772],[122.197113,14.803941]]],[[[122.005382,15.010688],[122.057872,14.983303],[122.053071,14.962226],[122.005382,14.99018],[121.992686,14.969184],[122.012869,14.932929],[121.96811,14.902574],[121.978038,14.838772],[122.0088,14.824612],[122.023692,14.722602],[122.004161,14.673651],[121.940196,14.640082],[121.908702,14.670966],[121.933849,14.76496],[121.883637,14.836412],[121.877452,14.894436],[121.81837,14.946031],[121.826427,15.012152],[121.844249,15.045396],[121.893728,15.024563],[121.927989,15.052232],[122.005138,15.038642],[122.005382,15.010688]]],[[[122.411794,14.725816],[122.397797,14.685858],[122.319347,14.683498],[122.341563,14.712592],[122.411794,14.725816]]]]}},{"type":"Feature","properties":{"country_code":"PH","region_code":"PH-CAN","name":"Camarines Norte","native_name":"Camarines Norte","type":"Province"},"geometry":{"type":"Polygon","coordinates":[[[122.309986,14.09628],[122.345714,14.131334],[122.331309,14.200263],[122.355479,14.195054],[122.347992,14.222357],[122.376801,14.228502],[122.366222,14.261461],[122.41627,14.324774],[122.483165,14.346666],[122.519298,14.324774],[122.505056,14.345893],[122.527843,14.3487],[122.644298,14.284735],[122.690684,14.291246],[122.671397,14.339423],[122.704275,14.345893],[122.72169,14.315741],[122.752696,14.332221],[122.802582,14.287177],[122.873302,14.265204],[122.903087,14.211249],[123.042247,14.098049],[123.033214,14.023139],[123.081554,13.988959],[123.087738,13.893459],[123.048839,13.821967],[122.923691,13.964936],[122.815894,13.99372],[122.47979,14.150816],[122.435659,14.147871],[122.329929,14.077952],[122.309986,14.09628]]]}},{"type":"Feature","properties":{"country_code":"PH","region_code":"PH-CAS","name":"Camarines Sur","native_name":"Camarines Sur","type":"Province"},"geometry":{"type":"MultiPolygon","coordinates":[[[[123.048839,13.821967],[123.049815,13.775824],[123.108246,13.722113],[123.266612,13.749416],[123.314952,13.820543],[123.280284,13.90644],[123.325531,13.940009],[123.33546,13.982164],[123.29005,13.934556],[123.21811,13.992743],[123.254242,14.013739],[123.23878,14.023139],[123.259044,14.031195],[123.252289,14.068101],[123.314301,14.051093],[123.300792,14.071519],[123.33546,14.071519],[123.331798,14.099514],[123.362153,14.043606],[123.346446,14.016303],[123.390147,14.03734],[123.375824,14.010077],[123.396251,14.010077],[123.417328,13.90644],[123.444672,13.961656],[123.492524,13.920722],[123.681407,13.88467],[123.711681,13.934394],[123.804047,13.837633],[123.931407,13.790351],[123.972667,13.729315],[123.965505,13.714667],[123.937511,13.742621],[123.859386,13.742621],[123.797374,13.687974],[123.570486,13.722968],[123.526622,13.606024],[123.536306,13.5633],[123.560802,13.571234],[123.593581,13.529467],[123.545048,13.505378],[123.592384,13.445433],[123.578741,13.377633],[123.446967,13.378305],[123.292459,13.244725],[123.190929,13.359036],[123.168793,13.449205],[122.972016,13.527533],[122.859141,13.606106],[122.814708,13.653795],[122.862559,13.69477],[122.752696,13.783596],[122.766856,13.799547],[122.653168,13.826077],[122.653005,13.862372],[122.558003,13.933281],[122.615079,13.963954],[122.815894,13.99372],[122.923691,13.964936],[123.048839,13.821967]],[[123.234248,13.568648],[123.368306,13.619905],[123.293391,13.663277],[123.139619,13.619905],[123.234248,13.568648]]],[[[123.642263,13.982082],[123.668224,13.939439],[123.603201,13.916612],[123.602631,13.959784],[123.65268,13.953111],[123.642263,13.982082]]]]}},{"type":"Feature","properties":{"country_code":"PH","region_code":"PH-ALB","name":"Albay","native_name":"Albay","type":"Province"},"geometry":{"type":"MultiPolygon","coordinates":[[[[123.593581,13.529467],[123.667247,13.485582],[123.725352,13.409898],[123.743419,13.340318],[123.855642,13.228664],[123.767589,13.224311],[123.749522,13.154731],[123.770193,13.110785],[123.745779,13.064154],[123.797699,13.055162],[123.882986,13.146064],[123.935381,13.118511],[123.918049,13.072019],[123.788651,13.030781],[123.656876,13.044682],[123.552283,13.017655],[123.49616,12.9744],[123.441254,13.036851],[123.38502,13.044094],[123.310069,13.012356],[123.278982,13.120185],[123.305186,13.198635],[123.292459,13.244725],[123.446967,13.378305],[123.578741,13.377633],[123.592384,13.445433],[123.545048,13.505378],[123.593581,13.529467]]],[[[124.196788,13.173326],[124.097911,13.19245],[124.065603,13.210761],[124.138845,13.234198],[124.209646,13.195787],[124.196788,13.173326]]],[[[124.086274,13.260443],[124.025401,13.221991],[123.939301,13.244452],[123.912446,13.288642],[124.086274,13.260443]]],[[[123.89031,13.274075],[123.901866,13.238349],[123.873546,13.229641],[123.845958,13.27025],[123.848888,13.354153],[123.92213,13.329983],[123.89031,13.274075]]],[[[123.801524,13.366034],[123.775157,13.391588],[123.771658,13.40351],[123.845551,13.367825],[123.801524,13.366034]]]]}},{"type":"Feature","properties":{"country_code":"PH","region_code":"PH-SOR","name":"Sorsogon","native_name":"Sorsogon","type":"Province"},"geometry":{"type":"Polygon","coordinates":[[[123.935381,13.118511],[124.081554,13.009508],[124.12672,13.078681],[124.188243,13.039537],[124.116222,12.916449],[124.142833,12.814399],[124.129405,12.677191],[124.08839,12.628811],[124.095225,12.557074],[124.054942,12.537258],[123.983165,12.54678],[123.93336,12.622219],[123.878591,12.645209],[123.84254,12.716213],[123.842052,12.801215],[123.79363,12.831448],[123.838715,12.839301],[123.863048,12.872382],[123.906749,12.84162],[123.958832,12.880032],[124.002452,12.879706],[124.029307,12.91177],[124.025157,12.955308],[123.893403,12.974799],[123.839366,12.88817],[123.783946,12.864936],[123.763194,12.878607],[123.725352,12.84512],[123.711681,12.872382],[123.732677,12.889879],[123.690115,12.888739],[123.698009,12.864936],[123.677257,12.884182],[123.698253,12.930894],[123.648936,12.886298],[123.615733,12.889472],[123.49616,12.9744],[123.552283,13.017655],[123.656876,13.044682],[123.788651,13.030781],[123.908024,13.054139],[123.935381,13.118511]]]}},{"type":"Feature","properties":{"country_code":"PH","region_code":"PH-QUE","name":"Lucena","native_name":"Lucena","type":"Highly Urbanized City"},"geometry":{"type":"Polygon","coordinates":[[[121.636892,13.909613],[121.549327,13.87816],[121.498413,13.957229],[121.581948,13.996386],[121.636892,13.909613]]]}},{"type":"Feature","properties":{"country_code":"PH","region_code":"PH-BTG","name":"Batangas","native_name":"Batangas","type":"Province"},"geometry":{"type":"MultiPolygon","coordinates":[[[[121.454581,13.819219],[121.433442,13.796373],[121.43629,13.700995],[121.464122,13.69477],[121.430024,13.656928],[121.374766,13.667467],[121.278819,13.595038],[121.158702,13.639472],[121.080414,13.619086],[121.03891,13.632758],[121.053477,13.722113],[121.003754,13.780911],[120.887462,13.693508],[120.880707,13.716864],[120.929047,13.783596],[120.90919,13.804633],[120.912364,13.881781],[120.87672,13.912258],[120.704845,13.927436],[120.722911,13.855414],[120.662283,13.85928],[120.663422,13.775377],[120.628103,13.810858],[120.601329,13.969143],[120.634776,13.991604],[120.619477,14.104234],[120.580333,14.133002],[120.597423,14.156928],[120.573497,14.174547],[120.601329,14.181383],[120.59668,14.218797],[120.663984,14.212208],[120.705429,14.147354],[120.868933,14.076092],[120.983448,14.104927],[121.032954,14.143995],[121.180955,14.138517],[121.20545,14.111645],[121.223743,14.005915],[121.263741,13.984521],[121.273042,13.948296],[121.395516,13.842204],[121.454581,13.819219]]],[[[121.088634,13.530341],[121.072113,13.535834],[121.043468,13.567572],[121.085785,13.570624],[121.088634,13.530341]]],[[[120.826427,13.688259],[120.935069,13.63817],[120.875499,13.634833],[120.826427,13.688259]]]]}},{"type":"Feature","properties":{"country_code":"PH","region_code":"PH-CAV","name":"Cavite","native_name":"Cavite","type":"Province"},"geometry":{"type":"Polygon","coordinates":[[[120.59668,14.218797],[120.627452,14.269599],[120.713145,14.298529],[120.87794,14.458889],[120.960804,14.49523],[121.012903,14.401137],[121.014764,14.32817],[121.074708,14.315871],[121.023859,14.126528],[120.898285,14.078779],[120.717624,14.139551],[120.663984,14.212208],[120.59668,14.218797]]]}},{"type":"Feature","properties":{"country_code":"PH","region_code":"PH-MNL","name":"Las Pinas","native_name":"Las Pinas","type":"Highly Urbanized City"},"geometry":{"type":"Polygon","coordinates":[[[120.960804,14.49523],[120.973393,14.505999],[121.032972,14.438567],[121.014196,14.39706],[120.960804,14.49523]]]}},{"type":"Feature","properties":{"country_code":"PH","region_code":"PH-MNL","name":"Parañaque","native_name":"Paranaque","type":"Highly Urbanized City"},"geometry":{"type":"Polygon","coordinates":[[[120.973393,14.505999],[120.984386,14.534003],[121.057145,14.502021],[121.05585,14.449359],[121.025202,14.442884],[120.973393,14.505999]]]}},{"type":"Feature","properties":{"country_code":"PH","region_code":"PH-MNL","name":"Pasay","native_name":"Pasay","type":"Highly Urbanized City"},"geometry":{"type":"Polygon","coordinates":[[[120.984386,14.534003],[120.980154,14.55744],[121.006209,14.557705],[121.044627,14.507201],[120.984386,14.534003]]]}},{"type":"Feature","properties":{"country_code":"PH","region_code":"PH-MNL","name":"Metro Manila","native_name":"Manila","type":"Highly Urbanized City"},"geometry":{"type":"Polygon","coordinates":[[[120.980154,14.55744],[120.958832,14.591783],[120.947584,14.627864],[121.001029,14.627418],[121.037288,14.588785],[120.980154,14.55744]]]}},{"type":"Feature","properties":{"country_code":"PH","region_code":"PH-MNL","name":"Navotas","native_name":"Navotas","type":"Highly Urbanized City"},"geometry":{"type":"Polygon","coordinates":[[[120.947584,14.627864],[120.916214,14.694389],[120.921604,14.701879],[120.976856,14.628281],[120.947584,14.627864]]]}},{"type":"Feature","properties":{"country_code":"PH","region_code":"PH-BUL","name":"Bulacan","native_name":"Bulacan","type":"Province"},"geometry":{"type":"Polygon","coordinates":[[[120.95485,14.679156],[120.840587,14.761217],[120.663829,14.778957],[120.726512,14.894027],[120.829865,14.93666],[120.905106,15.015156],[120.940866,15.110189],[120.919782,15.166516],[120.937662,15.220673],[121.117703,15.260051],[121.252269,15.182536],[121.302601,15.181451],[121.293713,15.074067],[121.330093,15.032364],[121.342082,14.889272],[121.308079,14.890461],[121.20576,14.826382],[121.154268,14.758427],[121.04037,14.763831],[120.98962,14.715679],[120.931884,14.721025],[120.95485,14.679156]]]}},{"type":"Feature","properties":{"country_code":"PH","region_code":"PH-PAM","name":"Pampanga","native_name":"Pampanga","type":"Province"},"geometry":{"type":"Polygon","coordinates":[[[120.663829,14.778957],[120.632091,14.795478],[120.621267,14.87287],[120.621267,14.831855],[120.593923,14.818264],[120.601329,14.900824],[120.585704,14.902818],[120.573497,14.838772],[120.552745,14.849921],[120.545421,14.827094],[120.48322,14.872322],[120.425652,15.044302],[120.362504,15.114427],[120.369015,15.155819],[120.465443,15.221087],[120.577994,15.257622],[120.747907,15.273745],[120.790385,15.215661],[120.83927,15.196024],[120.845368,15.166516],[120.937662,15.220673],[120.919782,15.166516],[120.940866,15.110189],[120.905106,15.015156],[120.829865,14.93666],[120.726512,14.894027],[120.663829,14.778957]],[[120.59258,15.103226],[120.636958,15.116278],[120.636958,15.178929],[120.569086,15.176319],[120.511655,15.144993],[120.59258,15.103226]]]}},{"type":"Feature","properties":{"country_code":"PH","region_code":"PH-BAN","name":"Bataan","native_name":"Bataan","type":"Province"},"geometry":{"type":"Polygon","coordinates":[[[120.545421,14.827094],[120.539317,14.702826],[120.582205,14.648261],[120.597911,14.505601],[120.564626,14.44123],[120.491466,14.442084],[120.467052,14.421047],[120.382009,14.480292],[120.37794,14.602037],[120.285411,14.653754],[120.242361,14.729641],[120.272634,14.747056],[120.243907,14.767035],[120.271739,14.803941],[120.422448,14.864003],[120.460069,14.941517],[120.48322,14.872322],[120.545421,14.827094]]]}},{"type":"Feature","properties":{"country_code":"PH","region_code":"PH-ZMB","name":"Olongapo","native_name":"Olongapo","type":"Highly Urbanized City"},"geometry":{"type":"Polygon","coordinates":[[[120.28248,14.806081],[120.292247,14.82567],[120.209321,14.880032],[120.279324,14.933545],[120.454901,14.914129],[120.422448,14.864003],[120.28248,14.806081]]]}},{"type":"Feature","properties":{"country_code":"PH","region_code":"PH-ZMB","name":"Zambales","native_name":"Zambales","type":"Province"},"geometry":{"type":"Polygon","coordinates":[[[120.209321,14.880032],[120.175548,14.757392],[120.079926,14.803941],[120.100434,14.82567],[120.079926,14.818264],[120.056651,14.893256],[120.052989,15.062445],[120.005138,15.269436],[119.888194,15.429023],[119.901866,15.482978],[119.940929,15.475775],[119.963878,15.51435],[119.904307,15.597073],[119.919688,15.690334],[119.867198,15.743069],[119.889415,15.748033],[119.888798,15.801418],[119.946198,15.801723],[120.008313,15.852521],[120.15032,15.811283],[120.232589,15.65212],[120.246955,15.614034],[120.143809,15.40645],[120.163653,15.343198],[120.331291,15.251162],[120.38059,15.168997],[120.362504,15.114427],[120.425652,15.044302],[120.460069,14.941517],[120.454901,14.914129],[120.279324,14.933545],[120.209321,14.880032]]]}},{"type":"Feature","properties":{"country_code":"PH","region_code":"PH-PAN","name":"Pangasinan","native_name":"Pangasinan","type":"Province"},"geometry":{"type":"MultiPolygon","coordinates":[[[[119.888798,15.801418],[119.898611,15.853176],[119.867198,15.935004],[119.828298,15.955715],[119.770844,15.914984],[119.75587,15.944566],[119.778331,16.137844],[119.755707,16.203437],[119.781912,16.322252],[119.812511,16.367499],[119.870291,16.385403],[119.925792,16.364976],[119.901866,16.2508],[120.087738,16.157213],[120.119151,16.055732],[120.208507,16.03266],[120.25766,16.052191],[120.296284,15.982704],[120.402284,16.042239],[120.365245,16.10871],[120.40211,16.165473],[120.401362,16.209502],[120.480636,16.203611],[120.526008,16.232084],[120.670495,16.186919],[120.756588,16.200665],[120.847022,16.174775],[120.925984,15.97763],[120.823974,15.790303],[120.767647,15.844305],[120.627294,15.818725],[120.601249,15.869833],[120.536653,15.742657],[120.490661,15.715682],[120.395163,15.752889],[120.331601,15.665349],[120.246955,15.614034],[120.138435,15.820947],[120.008313,15.852521],[119.946198,15.801723],[119.888798,15.801418]]],[[[119.98406,16.3487],[119.992931,16.23017],[119.922374,16.303778],[119.98406,16.3487]]]]}},{"type":"Feature","properties":{"country_code":"PH","region_code":"PH-PAN","name":"Dagupan","native_name":"Dagupan","type":"Independent Component City"},"geometry":{"type":"Polygon","coordinates":[[[120.25766,16.052191],[120.306651,16.044664],[120.299083,16.017401],[120.333832,16.058987],[120.363292,16.055487],[120.361013,16.073188],[120.326427,16.065823],[120.365245,16.10871],[120.402284,16.042239],[120.296284,15.982704],[120.25766,16.052191]]]}},{"type":"Feature","properties":{"country_code":"PH","region_code":"PH-LUN","name":"La Union","native_name":"La Union","type":"Province"},"geometry":{"type":"Polygon","coordinates":[[[120.401362,16.209502],[120.336274,16.292182],[120.306651,16.544989],[120.276134,16.611884],[120.306651,16.613918],[120.326427,16.830959],[120.397908,16.919186],[120.515569,16.917366],[120.548125,16.708231],[120.595048,16.652627],[120.514329,16.566483],[120.471954,16.46375],[120.526008,16.232084],[120.480636,16.203611],[120.401362,16.209502]]]}},{"type":"Feature","properties":{"country_code":"PH","region_code":"PH-ILS","name":"Ilocos Sur","native_name":"Ilocos Sur","type":"Province"},"geometry":{"type":"Polygon","coordinates":[[[120.397908,16.919186],[120.434093,16.982123],[120.40211,17.206692],[120.408214,17.322699],[120.443696,17.388495],[120.40211,17.518866],[120.333832,17.556383],[120.353201,17.678127],[120.412446,17.712836],[120.391287,17.78144],[120.427908,17.838121],[120.426139,17.894036],[120.500893,17.897254],[120.539857,17.866507],[120.509988,17.73251],[120.53903,17.703726],[120.4672,17.499242],[120.585849,17.479812],[120.535516,17.338322],[120.674836,17.261531],[120.686102,17.198485],[120.73044,17.155697],[120.813019,17.211818],[120.87379,17.182052],[120.837513,17.17058],[120.791315,17.105623],[120.773538,16.920983],[120.662227,16.895765],[120.637836,16.860108],[120.595048,16.652627],[120.548125,16.708231],[120.549986,16.774739],[120.514019,16.847654],[120.523941,16.912043],[120.397908,16.919186]]]}},{"type":"Feature","properties":{"country_code":"PH","region_code":"PH-ILN","name":"Ilocos Norte","native_name":"Ilocos Norte","type":"Province"},"geometry":{"type":"Polygon","coordinates":[[[120.426139,17.894036],[120.477224,18.004828],[120.470063,18.09101],[120.579112,18.325141],[120.57016,18.501776],[120.611095,18.53856],[120.690684,18.53441],[120.770844,18.561469],[120.778982,18.621812],[120.812999,18.644517],[120.850841,18.638861],[120.90919,18.567206],[120.99511,18.60606],[120.945827,18.376295],[120.953682,18.291494],[120.90924,18.240696],[120.982104,18.170209],[120.941383,18.097914],[120.938489,17.967069],[120.827798,17.943453],[120.698814,17.84656],[120.618199,17.819016],[120.53903,17.703726],[120.509988,17.73251],[120.539857,17.866507],[120.500893,17.897254],[120.426139,17.894036]]]}},{"type":"Feature","properties":{"country_code":"PH","region_code":"PH-CAG","name":"Cagayan","native_name":"Cagayan","type":"Province"},"geometry":{"type":"MultiPolygon","coordinates":[[[[120.99511,18.60606],[121.106781,18.642727],[121.170665,18.625474],[121.592052,18.384711],[121.649669,18.313951],[121.64503,18.369452],[121.895518,18.279202],[121.97462,18.286038],[122.039561,18.320217],[122.119314,18.403022],[122.152843,18.518785],[122.235362,18.515367],[122.25172,18.443061],[122.317149,18.377427],[122.324962,18.336615],[122.288585,18.218207],[122.16977,18.100491],[122.183442,17.984361],[122.135753,17.737291],[122.184631,17.541314],[121.652864,17.518156],[121.566358,17.563424],[121.428795,17.717627],[121.400683,17.788424],[121.319034,17.82346],[121.461558,18.098327],[121.478611,18.270358],[121.27852,18.411331],[121.125455,18.466832],[121.072848,18.536233],[120.957093,18.446781],[120.99511,18.60606]]],[[[121.388438,18.902981],[121.477794,18.881903],[121.406749,18.850816],[121.318614,18.843207],[121.279145,18.862006],[121.28004,18.880561],[121.388438,18.902981]]],[[[121.946625,19.012193],[121.989106,18.949123],[121.865733,18.821926],[121.834158,18.834296],[121.874848,18.900824],[121.853852,18.923489],[121.892589,18.996487],[121.946625,19.012193]]],[[[121.210948,19.176703],[121.252208,19.081285],[121.244965,19.018459],[121.190278,19.087348],[121.210948,19.176703]]],[[[121.516612,19.393541],[121.546723,19.282864],[121.498302,19.259263],[121.398936,19.303371],[121.350841,19.375922],[121.395763,19.403266],[121.470958,19.382148],[121.516612,19.393541]]],[[[121.977306,19.577379],[121.997895,19.560289],[121.978038,19.498847],[121.947113,19.496772],[121.898204,19.53677],[121.900238,19.559231],[121.977306,19.577379]]]]}},{"type":"Feature","properties":{"country_code":"PH","region_code":"PH-ISA","name":"Isabela","native_name":"Isabela","type":"Province"},"geometry":{"type":"MultiPolygon","coordinates":[[[[122.184631,17.541314],[122.25115,17.360175],[122.313731,17.340074],[122.365408,17.353746],[122.435395,17.292426],[122.443614,17.265611],[122.409434,17.275214],[122.41684,17.145819],[122.45102,17.114163],[122.500987,17.139797],[122.529145,17.109605],[122.472911,16.989691],[122.464692,16.895087],[122.34547,16.642524],[122.24464,16.510565],[122.037544,16.507623],[121.75198,16.395744],[121.569872,16.610614],[121.602832,16.643403],[121.608053,16.713886],[121.479025,16.830653],[121.52481,16.845432],[121.571009,16.910958],[121.571939,17.271039],[121.603875,17.397388],[121.670124,17.489734],[121.652864,17.518156],[122.184631,17.541314]]],[[[121.487989,16.62947],[121.39965,16.651232],[121.390072,16.694343],[121.476326,16.722618],[121.503634,16.67995],[121.487989,16.62947]]]]}},{"type":"Feature","properties":{"country_code":"PH","region_code":"PH-TAW","name":"Tawi-Tawi","native_name":"Tawi-Tawi","type":"Province"},"geometry":{"type":"MultiPolygon","coordinates":[[[[120.251964,5.266506],[120.216563,5.114976],[120.184581,5.136461],[120.182384,5.204413],[120.145518,5.183295],[120.120942,5.218004],[120.100434,5.156643],[120.025401,5.160549],[119.954112,5.075507],[119.922374,5.087714],[119.891612,5.059801],[119.819347,5.059801],[119.821788,5.130561],[119.942719,5.190131],[119.964854,5.222602],[120.086925,5.258979],[120.097423,5.290025],[120.187836,5.34512],[120.214366,5.340237],[120.220225,5.269599],[120.251964,5.266506]]],[[[119.468761,4.893704],[119.503591,4.764228],[119.456554,4.655707],[119.462738,4.775784],[119.435395,4.902777],[119.468761,4.893704]]],[[[119.830903,4.82095],[119.85377,4.808254],[119.857677,4.79857],[119.819347,4.80386],[119.830903,4.82095]]],[[[119.836925,4.86286],[119.798595,4.879788],[119.793142,4.921861],[119.842621,4.904853],[119.836925,4.86286]]],[[[119.812511,5.069892],[119.745779,5.044013],[119.79835,5.121039],[119.812511,5.069892]]]]}},{"type":"Feature","properties":{"country_code":"PH","region_code":"PH-BAS","name":"Basilan","native_name":"Basilan","type":"Province"},"geometry":{"type":"MultiPolygon","coordinates":[[[[122.049224,6.739797],[122.335216,6.603339],[122.235362,6.571194],[122.18865,6.451077],[121.96225,6.404853],[121.950043,6.444525],[121.880056,6.503241],[121.875011,6.574856],[121.814464,6.592922],[121.810802,6.645168],[121.839203,6.668931],[121.920183,6.675653],[121.965248,6.579204],[122.099023,6.586712],[122.049224,6.739797]]],[[[121.61671,6.672268],[121.628917,6.588568],[121.616384,6.561428],[121.58253,6.631659],[121.61671,6.672268]]]]}},{"type":"Feature","properties":{"country_code":"PH","region_code":"PH-CAM","name":"Camiguin","native_name":"Camiguin","type":"Province"},"geometry":{"type":"Polygon","coordinates":[[[124.708507,9.25019],[124.80836,9.156806],[124.80128,9.096259],[124.770193,9.077379],[124.67213,9.125393],[124.636485,9.182359],[124.646739,9.218899],[124.708507,9.25019]]]}},{"type":"Feature","properties":{"country_code":"PH","region_code":"PH-SIG","name":"Siquijor","native_name":"Siquijor","type":"Province"},"geometry":{"type":"Polygon","coordinates":[[[123.683767,9.199693],[123.722423,9.149115],[123.703298,9.128363],[123.632335,9.098334],[123.561209,9.114244],[123.471202,9.185452],[123.500011,9.220282],[123.564952,9.226142],[123.6421,9.293647],[123.703868,9.233303],[123.683767,9.199693]]]}},{"type":"Feature","properties":{"country_code":"PH","region_code":"PH-BOH","name":"Bohol","native_name":"Bohol","type":"Province"},"geometry":{"type":"MultiPolygon","coordinates":[[[[124.584646,9.877672],[124.549815,9.861558],[124.624034,9.801825],[124.596202,9.737291],[124.520356,9.740383],[124.499848,9.768297],[124.429454,9.715033],[124.410492,9.658433],[124.2942,9.606757],[124.065196,9.595404],[123.937511,9.617499],[123.871755,9.645006],[123.863048,9.734198],[123.801036,9.757758],[123.82838,9.842841],[123.886078,9.914862],[124.050792,9.979315],[124.116222,10.08983],[124.167166,10.137437],[124.222667,10.151923],[124.331309,10.161526],[124.355968,10.110297],[124.396821,10.151923],[124.419119,10.106757],[124.577647,10.033922],[124.584239,9.980943],[124.568696,9.987454],[124.556163,9.925686],[124.584646,9.877672]]],[[[123.841319,9.642401],[123.868337,9.62051],[123.804535,9.560289],[123.749848,9.554145],[123.726329,9.586982],[123.841319,9.642401]]],[[[124.606944,10.140326],[124.597667,10.094184],[124.529552,10.068549],[124.521821,10.112047],[124.606944,10.140326]]]]}},{"type":"Feature","properties":{"country_code":"PH","region_code":"PH-GUI","name":"Guimaras","native_name":"Guimaras","type":"Province"},"geometry":{"type":"Polygon","coordinates":[[[122.670177,10.76203],[122.737966,10.694159],[122.737071,10.640041],[122.68686,10.506008],[122.634451,10.444241],[122.594981,10.433051],[122.594493,10.459703],[122.536632,10.41942],[122.519298,10.474066],[122.482432,10.503363],[122.553477,10.54914],[122.527354,10.570136],[122.536632,10.607489],[122.574555,10.665839],[122.62322,10.684475],[122.670177,10.76203]]]}},{"type":"Feature","properties":{"country_code":"PH","region_code":"PH-BCD","name":"Bacolod","native_name":"Bacolod","type":"Highly Urbanized City"},"geometry":{"type":"Polygon","coordinates":[[[122.919899,10.618316],[122.975841,10.742418],[123.067764,10.680928],[123.024867,10.592609],[122.919899,10.618316]]]}},{"type":"Feature","properties":{"country_code":"PH","region_code":"PH-NEC","name":"Negros Occidental","native_name":"Negros Occidental","type":"Province"},"geometry":{"type":"Polygon","coordinates":[[[122.597097,9.437649],[122.496593,9.561713],[122.461436,9.65526],[122.443614,9.672756],[122.423106,9.658433],[122.430431,9.71369],[122.402599,9.699408],[122.395193,9.842841],[122.47462,9.974351],[122.560313,9.987454],[122.642833,9.966946],[122.707774,9.986396],[122.872813,10.100409],[122.855317,10.228013],[122.869395,10.350531],[122.814708,10.515041],[122.919899,10.618316],[123.024867,10.592609],[123.067764,10.680928],[122.975841,10.742418],[122.958181,10.864447],[123.002615,10.912828],[123.087738,10.92593],[123.213552,10.996405],[123.259776,10.994818],[123.341807,10.946357],[123.390147,10.960028],[123.405447,10.919827],[123.445649,10.942288],[123.521821,10.919908],[123.574474,10.830959],[123.570811,10.779242],[123.516856,10.680976],[123.473643,10.52676],[123.365728,10.392513],[123.21897,10.445099],[123.143936,10.421845],[123.175769,10.27188],[123.012574,9.964405],[122.597097,9.437649]]]}},{"type":"Feature","properties":{"country_code":"PH","region_code":"PH-NER","name":"Negros Oriental","native_name":"Negros Oriental","type":"Province"},"geometry":{"type":"Polygon","coordinates":[[[123.365728,10.392513],[123.290375,10.093573],[123.162364,9.890204],[123.170421,9.69599],[123.160411,9.647406],[123.136241,9.644843],[123.135427,9.618354],[123.177419,9.589911],[123.170421,9.562893],[123.161143,9.583808],[123.135509,9.55268],[123.180919,9.537421],[123.197602,9.487128],[123.321137,9.343166],[123.317638,9.256903],[123.230154,9.107611],[123.160981,9.06566],[123.033214,9.035305],[122.957693,9.081244],[122.892589,9.221015],[122.880544,9.305854],[122.8449,9.347073],[122.724783,9.37108],[122.597097,9.437649],[123.012574,9.964405],[123.175769,10.27188],[123.143936,10.421845],[123.21897,10.445099],[123.365728,10.392513]]]}},{"type":"Feature","properties":{"country_code":"PH","region_code":"PH-CEB","name":"Cebu","native_name":"Cebu","type":"Highly Urbanized City"},"geometry":{"type":"Polygon","coordinates":[[[123.934435,10.309299],[123.868663,10.248196],[123.837164,10.353511],[123.9071,10.435973],[123.935157,10.401066],[123.914407,10.346204],[123.934435,10.309299]]]}},{"type":"Feature","properties":{"country_code":"PH","region_code":"PH-MDE","name":"Mandaue","native_name":"Mandaue","type":"Highly Urbanized City"},"geometry":{"type":"Polygon","coordinates":[[[123.979666,10.377183],[123.972911,10.326606],[123.934435,10.309299],[123.914407,10.346204],[123.935157,10.401066],[123.979666,10.377183]]]}},{"type":"Feature","properties":{"country_code":"PH","region_code":"PH-CEB","name":"Cebu","native_name":"Cebu","type":"Province"},"geometry":{"type":"MultiPolygon","coordinates":[[[[123.868663,10.248196],[123.79363,10.226467],[123.652599,10.063625],[123.62908,9.887519],[123.601817,9.867621],[123.479503,9.54857],[123.36964,9.425727],[123.327647,9.408149],[123.314301,9.507636],[123.365245,9.785346],[123.40919,9.897691],[123.387055,9.973782],[123.410655,9.974351],[123.422537,10.037502],[123.507986,10.122219],[123.605479,10.333157],[123.723155,10.494208],[123.719086,10.54914],[123.849294,10.752631],[123.934581,10.970445],[123.917735,11.028957],[123.945079,11.097846],[123.972911,11.077338],[123.958751,11.17593],[124.045665,11.277167],[124.074718,11.26911],[124.068126,11.233344],[124.04127,11.130113],[123.999522,11.077338],[124.0171,11.05622],[124.054942,11.063666],[124.061778,10.98428],[124.068533,10.878119],[124.020763,10.747748],[124.054942,10.590074],[124.033865,10.576483],[124.04005,10.484361],[124.018728,10.380805],[123.992849,10.357367],[123.9071,10.435973],[123.872654,10.408833],[123.837164,10.353511],[123.868663,10.248196]]],[[[123.745779,11.292467],[123.814952,11.148017],[123.733653,11.154283],[123.704845,11.241197],[123.745779,11.292467]]]]}},{"type":"Feature","properties":{"country_code":"PH","region_code":"PH-PLW","name":"Puerto Princesa","native_name":"Puerto Princesa","type":"Highly Urbanized City"},"geometry":{"type":"Polygon","coordinates":[[[118.382335,9.657782],[118.530528,9.774237],[118.667979,9.974351],[118.656505,9.996161],[118.722504,10.035834],[118.771658,10.130805],[118.76295,10.069241],[118.81186,10.059068],[118.838634,10.099921],[118.815766,10.18891],[118.949718,10.22016],[118.949718,10.282213],[118.993419,10.300279],[119.089908,10.203723],[119.083358,10.164422],[119.1963,10.056342],[118.774181,9.934149],[118.750499,9.887519],[118.784679,9.788235],[118.777843,9.734198],[118.735606,9.743476],[118.729666,9.780422],[118.700938,9.775539],[118.716319,9.692572],[118.742931,9.696845],[118.756358,9.66767],[118.729991,9.665269],[118.698904,9.583726],[118.638782,9.521117],[118.382335,9.657782]]]}},{"type":"Feature","properties":{"country_code":"PH","region_code":"PH-LEY","name":"Tacloban","native_name":"Tacloban","type":"Highly Urbanized City"},"geometry":{"type":"Polygon","coordinates":[[[124.975597,11.334418],[124.973969,11.277086],[125.023448,11.227932],[125.041759,11.248033],[125.038748,11.197943],[124.985324,11.192094],[124.932691,11.236539],[124.919825,11.324261],[124.975597,11.334418]]]}},{"type":"Feature","properties":{"country_code":"PH","region_code":"PH-LEY","name":"Ormoc","native_name":"Ormoc","type":"Independent Component City"},"geometry":{"type":"Polygon","coordinates":[[[124.622325,11.002021],[124.549571,10.983303],[124.48765,11.065892],[124.497956,11.109352],[124.558763,11.111741],[124.604206,11.156765],[124.670121,11.064484],[124.622325,11.002021]]]}},{"type":"Feature","properties":{"country_code":"PH","region_code":"PH-AKL","name":"Aklan","native_name":"Aklan","type":"Province"},"geometry":{"type":"Polygon","coordinates":[[[121.853852,11.769436],[121.889008,11.819281],[121.896821,11.893785],[121.963715,11.933905],[122.094412,11.834662],[122.38795,11.727444],[122.440766,11.657457],[122.592202,11.554295],[122.514207,11.46235],[122.384396,11.460696],[122.332203,11.344011],[122.17986,11.321221],[122.172006,11.420647],[122.124257,11.482607],[122.150198,11.54095],[122.137589,11.652364],[122.163737,11.710758],[122.145651,11.75489],[121.980596,11.831268],[121.853852,11.769436]]]}},{"type":"Feature","properties":{"country_code":"PH","region_code":"PH-ANT","name":"Antique","native_name":"Antique","type":"Province"},"geometry":{"type":"MultiPolygon","coordinates":[[[[122.033214,10.460924],[121.982107,10.430243],[121.949718,10.433173],[121.929698,10.46662],[121.984874,10.624905],[121.978038,10.710191],[121.937022,10.775702],[121.978038,10.905463],[122.045095,11.017401],[122.041759,11.300442],[122.107188,11.657945],[122.084483,11.724677],[121.853852,11.769436],[121.980596,11.831268],[122.1256,11.771582],[122.161877,11.729052],[122.137589,11.652364],[122.150198,11.54095],[122.124257,11.482607],[122.182444,11.382768],[122.198154,11.204329],[122.330859,11.052659],[122.178517,10.769782],[122.034753,10.637129],[122.006021,10.492125],[122.033214,10.460924]]],[[[121.406423,12.062445],[121.413829,12.014553],[121.384288,12.000922],[121.358653,12.114691],[121.406423,12.062445]]],[[[121.474132,11.866848],[121.526052,11.846584],[121.495372,11.827826],[121.412608,11.840277],[121.474132,11.866848]]]]}},{"type":"Feature","properties":{"country_code":"PH","region_code":"PH-ILI","name":"Iloilo","native_name":"Iloilo","type":"Province"},"geometry":{"type":"Polygon","coordinates":[[[122.472105,10.687134],[122.226573,10.642239],[122.101817,10.569322],[122.033214,10.460924],[122.009638,10.473315],[122.034753,10.637129],[122.178517,10.769782],[122.318353,10.999794],[122.318973,11.077929],[122.240322,11.156787],[122.315253,11.216215],[122.505009,11.183865],[122.586657,11.23611],[122.669546,11.20898],[122.782408,11.215957],[122.790779,11.188206],[122.877596,11.19818],[122.886794,11.270165],[122.956144,11.297915],[122.951183,11.350574],[123.031901,11.393982],[123.085542,11.528392],[123.163585,11.59809],[123.164399,11.537991],[123.122081,11.508734],[123.174815,11.467475],[123.160411,11.380439],[123.122081,11.330634],[123.115896,11.230658],[123.136241,11.196519],[123.108246,11.151801],[123.04127,11.163398],[123.028331,11.109849],[122.972423,11.049018],[122.950694,11.035793],[122.938243,11.063666],[122.924571,11.028957],[122.862559,11.028957],[122.812022,10.998481],[122.78004,10.956936],[122.798025,10.875434],[122.744802,10.79564],[122.694102,10.802965],[122.614757,10.761461],[122.532804,10.799528],[122.489907,10.77177],[122.472105,10.687134]]]}},{"type":"Feature","properties":{"country_code":"PH","region_code":"PH-ILI","name":"Iloilo","native_name":"Iloilo","type":"Highly Urbanized City"},"geometry":{"type":"Polygon","coordinates":[[[122.614757,10.761461],[122.589854,10.698717],[122.472105,10.687134],[122.489907,10.77177],[122.532804,10.799528],[122.614757,10.761461]]]}},{"type":"Feature","properties":{"country_code":"PH","region_code":"PH-CAP","name":"Capiz","native_name":"Capiz","type":"Province"},"geometry":{"type":"Polygon","coordinates":[[[122.592202,11.554295],[122.622325,11.508734],[122.65447,11.526068],[122.660411,11.568752],[122.704275,11.542873],[122.724783,11.611762],[122.830333,11.605292],[122.874848,11.547919],[122.944509,11.522406],[122.875824,11.465644],[122.900727,11.437934],[123.0442,11.515855],[123.08961,11.52969],[123.031901,11.393982],[122.951183,11.350574],[122.956144,11.297915],[122.886794,11.270165],[122.877596,11.19818],[122.790779,11.188206],[122.782408,11.215957],[122.669546,11.20898],[122.586657,11.23611],[122.521545,11.186243],[122.315253,11.216215],[122.240322,11.156787],[122.221098,11.172393],[122.17986,11.321221],[122.332203,11.344011],[122.384396,11.460696],[122.514207,11.46235],[122.592202,11.554295]]]}},{"type":"Feature","properties":{"country_code":"PH","region_code":"PH-ROM","name":"Romblon","native_name":"Romblon","type":"Province"},"geometry":{"type":"MultiPolygon","coordinates":[[[[122.687511,12.402818],[122.670177,12.317532],[122.611827,12.276516],[122.511974,12.377631],[122.431895,12.409735],[122.423025,12.462877],[122.48113,12.493354],[122.632091,12.484524],[122.687511,12.402818]]],[[[122.279633,12.605455],[122.31129,12.536689],[122.279633,12.474514],[122.245616,12.570746],[122.279633,12.605455]]],[[[122.115245,12.666327],[122.156261,12.632148],[122.128917,12.625393],[122.098888,12.386379],[122.036469,12.214057],[122.059906,12.172838],[122.046886,12.187161],[122.022797,12.162828],[122.012218,12.10456],[121.99171,12.159166],[121.958995,12.177802],[121.963715,12.228095],[121.987153,12.2001],[122.002126,12.244371],[121.920746,12.302883],[121.924083,12.339342],[121.993175,12.441799],[121.99586,12.592719],[122.104991,12.641791],[122.115245,12.666327]]],[[[121.723969,12.913967],[121.699067,12.905341],[121.68865,12.94717],[121.718272,12.947333],[121.723969,12.913967]]]]}},{"type":"Feature","properties":{"country_code":"PH","region_code":"PH-NSA","name":"Northern Samar","native_name":"Northern Samar","type":"Province"},"geometry":{"type":"MultiPolygon","coordinates":[[[[124.370549,12.290049],[124.276215,12.533271],[124.305024,12.582994],[124.363048,12.543606],[124.407481,12.557074],[124.67921,12.515937],[124.877208,12.533393],[124.895518,12.554267],[124.87672,12.591254],[124.928233,12.557074],[124.973399,12.576321],[125.049571,12.529364],[125.109141,12.579291],[125.16627,12.578111],[125.272146,12.49901],[125.34962,12.3994],[125.312836,12.366685],[125.329112,12.323676],[125.297706,12.290671],[125.273005,12.284005],[125.208823,12.376454],[125.148568,12.304934],[125.06971,12.287519],[125.040771,12.258425],[124.900108,12.257495],[124.845641,12.226903],[124.754587,12.258218],[124.679243,12.230468],[124.48711,12.330514],[124.427992,12.291705],[124.370549,12.290049]]],[[[124.16863,12.398139],[124.137462,12.437567],[124.133556,12.470771],[124.176606,12.432685],[124.16863,12.398139]]]]}},{"type":"Feature","properties":{"country_code":"PH","region_code":"PH-MAS","name":"Masbate","native_name":"Masbate","type":"Province"},"geometry":{"type":"MultiPolygon","coordinates":[[[[124.058279,11.87519],[124.07252,11.744086],[124.054861,11.725572],[124.007986,11.796698],[123.855642,11.913398],[123.742931,11.926947],[123.711681,11.954413],[123.745779,11.981106],[123.732677,12.008368],[123.719086,11.995307],[123.659434,12.042955],[123.653005,12.069281],[123.670665,12.071031],[123.614757,12.079332],[123.546397,12.188056],[123.485362,12.218085],[123.424164,12.200832],[123.364757,12.106024],[123.159679,11.917792],[123.156993,11.974311],[123.190115,12.011664],[123.215994,12.13349],[123.277192,12.164293],[123.259776,12.193996],[123.294607,12.217231],[123.293956,12.235541],[123.21811,12.228095],[123.273448,12.423651],[123.242442,12.464586],[123.234711,12.59276],[123.356456,12.549262],[123.33839,12.546942],[123.355968,12.495592],[123.326427,12.438056],[123.372813,12.471381],[123.386485,12.512519],[123.434093,12.518622],[123.495616,12.468573],[123.552419,12.45661],[123.609223,12.385728],[123.588145,12.35102],[123.636974,12.370266],[123.688243,12.337795],[123.79363,12.187161],[123.794932,12.246894],[123.848806,12.200832],[123.889659,12.207668],[124.050304,11.971137],[124.054942,11.954413],[123.999522,12.008368],[124.058279,11.87519]]],[[[123.732677,12.591254],[123.790538,12.337958],[123.583181,12.623928],[123.609223,12.687445],[123.732677,12.591254]]],[[[123.261974,12.897854],[123.286632,12.815009],[123.375824,12.69359],[123.251964,12.832709],[123.185313,12.858466],[123.060557,12.988471],[122.973888,13.018704],[122.944509,13.111314],[122.988943,13.128974],[122.992198,13.153551],[123.039806,13.128079],[123.160167,12.937567],[123.261974,12.897854]]]]}},{"type":"Feature","properties":{"country_code":"PH","region_code":"PH-MDR","name":"Oriental Mindoro","native_name":"Mindoro Oriental","type":"Province"},"geometry":{"type":"Polygon","coordinates":[[[120.893386,13.504687],[120.977387,13.530341],[120.957042,13.502997],[121.026866,13.421576],[121.108653,13.415961],[121.121593,13.372016],[121.197113,13.440904],[121.376231,13.245103],[121.430512,13.22427],[121.43629,13.146064],[121.527029,13.140774],[121.552989,13.111314],[121.489513,13.03677],[121.477794,12.85871],[121.485606,12.768459],[121.526134,12.704495],[121.545665,12.611233],[121.437836,12.521633],[121.412446,12.414984],[121.443614,12.358466],[121.384288,12.368598],[121.395763,12.289537],[121.354747,12.324123],[121.27296,12.269029],[121.247813,12.219916],[121.247514,13.031195],[121.195011,13.077497],[120.779222,13.255109],[120.891774,13.402903],[120.893386,13.504687]]]}},{"type":"Feature","properties":{"country_code":"PH","region_code":"PH-MDC","name":"Occidental Mindoro","native_name":"Mindoro Occidental","type":"Province"},"geometry":{"type":"MultiPolygon","coordinates":[[[[121.247813,12.219916],[121.113617,12.251288],[121.101085,12.330512],[121.115977,12.305243],[121.142589,12.310045],[121.094412,12.345404],[121.08725,12.323676],[121.050629,12.349433],[120.916352,12.512397],[120.92213,12.617092],[120.854503,12.715318],[120.797862,12.729438],[120.740977,13.033271],[120.642345,13.183254],[120.514822,13.230536],[120.526215,13.249172],[120.479991,13.3015],[120.452485,13.420233],[120.408214,13.420478],[120.355968,13.38052],[120.327647,13.396877],[120.306651,13.444322],[120.337657,13.505316],[120.403168,13.52733],[120.56544,13.513129],[120.754568,13.466742],[120.893386,13.504687],[120.891774,13.402903],[120.779222,13.255109],[121.232011,13.055793],[121.247514,13.031195],[121.247813,12.219916]]],[[[120.260916,13.711575],[120.285411,13.691392],[120.264334,13.673733],[120.203461,13.735785],[120.108246,13.776842],[120.085704,13.860785],[120.237641,13.804633],[120.271739,13.752509],[120.260916,13.711575]]],[[[121.088145,12.267076],[121.118907,12.158108],[121.051606,12.220933],[121.039561,12.251532],[121.059906,12.278388],[121.088145,12.267076]]]]}},{"type":"Feature","properties":{"country_code":"PH","region_code":"PH-MAD","name":"Marinduque","native_name":"Marinduque","type":"Province"},"geometry":{"type":"Polygon","coordinates":[[[122.101573,13.416693],[122.128917,13.386298],[122.120291,13.356635],[122.0088,13.204779],[121.875011,13.276435],[121.813731,13.35224],[121.817231,13.46483],[121.858653,13.565497],[121.90919,13.522895],[121.929698,13.544623],[121.968028,13.523749],[121.997895,13.550767],[122.043793,13.485338],[122.115245,13.464993],[122.101573,13.416693]]]}},{"type":"Feature","properties":{"country_code":"PH","region_code":"PH-CAT","name":"Catanduanes","native_name":"Catanduanes","type":"Province"},"geometry":{"type":"Polygon","coordinates":[[[124.417979,13.872952],[124.389985,13.845649],[124.417979,13.797797],[124.389985,13.790351],[124.408702,13.667304],[124.355317,13.659613],[124.334727,13.557603],[124.293468,13.604071],[124.251638,13.599189],[124.187755,13.522895],[124.047374,13.606024],[124.026052,13.669623],[124.107432,13.745103],[124.129405,13.818305],[124.116222,13.988959],[124.136892,14.078355],[124.149669,14.062242],[124.215668,14.086493],[124.265636,14.022691],[124.308116,13.90644],[124.329763,13.933092],[124.417979,13.872952]]]}},{"type":"Feature","properties":{"country_code":"PH","region_code":"PH-BTN","name":"Batanes","native_name":"Batanes","type":"Province"},"geometry":{"type":"MultiPolygon","coordinates":[[[[121.841645,20.346015],[121.89324,20.313666],[121.869314,20.27619],[121.850841,20.273424],[121.841645,20.346015]]],[[[122.009776,20.488471],[122.0324,20.464057],[121.963715,20.406643],[121.971202,20.368476],[121.92213,20.354153],[121.965994,20.460639],[122.009776,20.488471]]],[[[121.877208,20.770331],[121.829845,20.698961],[121.786388,20.70307],[121.855805,20.838324],[121.879242,20.814032],[121.877208,20.770331]]],[[[121.936697,21.065619],[121.929698,21.064521],[121.934825,21.073228],[121.936697,21.065619]]],[[[121.947439,21.116156],[121.954275,21.118394],[121.949067,21.106879],[121.947439,21.116156]]]]}},{"type":"Feature","properties":{"country_code":"PH","region_code":"PH-LAP","name":"Lapu-Lapu","native_name":"Lapu-Lapu","type":"Highly Urbanized City"},"geometry":{"type":"Polygon","coordinates":[[[123.947809,10.306539],[124.04384,10.324284],[123.975992,10.255392],[123.933196,10.254348],[123.947809,10.306539]]]}},{"type":"Feature","properties":{"country_code":"PH","region_code":"PH-AGS","name":"Agusan del Sur","native_name":"Agusan del Sur","type":"Province"},"geometry":{"type":"Polygon","coordinates":[[[125.767032,9.212771],[125.802533,9.11102],[125.802068,8.966688],[125.849249,8.950979],[125.873795,8.879097],[125.951517,8.801117],[125.952343,8.755125],[126.032649,8.667637],[125.991256,8.568883],[126.068977,8.390703],[126.222818,8.348793],[126.205041,8.214796],[126.291186,7.995843],[125.374291,7.997755],[125.360131,8.124156],[125.323855,8.213349],[125.304079,8.441516],[125.320699,8.589837],[125.431755,8.596892],[125.489252,8.676081],[125.534694,8.699728],[125.662277,8.687326],[125.703366,8.71275],[125.662149,8.876591],[125.767032,9.212771]]]}},{"type":"Feature","properties":{"country_code":"PH","region_code":"PH-BUK","name":"Bukidnon","native_name":"Bukidnon","type":"Province"},"geometry":{"type":"Polygon","coordinates":[[[124.902537,8.592654],[125.320699,8.589837],[125.304079,8.441516],[125.323855,8.213349],[125.44054,7.80526],[125.434804,7.708057],[125.400336,7.666612],[125.303701,7.678395],[125.281067,7.582845],[125.201692,7.56667],[125.138424,7.49969],[125.075549,7.471379],[125.060046,7.424767],[124.993642,7.389885],[124.924913,7.427764],[124.89928,7.409678],[124.855873,7.534734],[124.604467,7.910215],[124.667151,7.937655],[124.671181,7.960031],[124.559767,8.118885],[124.619815,8.413595],[124.82125,8.412252],[124.833135,8.53426],[124.902537,8.592654]]]}},{"type":"Feature","properties":{"country_code":"PH","region_code":"PH-NCO","name":"Cotabato","native_name":"Cotabato","type":"Province"},"geometry":{"type":"Polygon","coordinates":[[[124.523077,7.690797],[124.591755,7.624755],[124.808641,7.611112],[124.862177,7.523727],[124.889669,7.415672],[124.932664,7.426007],[124.993642,7.389885],[125.060046,7.424767],[125.075549,7.471379],[125.138424,7.49969],[125.201692,7.56667],[125.265977,7.578556],[125.276726,7.533907],[125.236211,7.36198],[125.249854,7.238628],[125.222517,7.183334],[125.297603,7.122253],[125.315018,7.028202],[125.269233,7.002777],[125.268509,6.954821],[125.166448,6.844647],[125.149705,6.782222],[124.896491,6.728892],[124.845124,6.758554],[124.833032,6.975285],[124.786161,6.980815],[124.797892,7.074504],[124.722341,7.200956],[124.692885,7.163956],[124.722444,7.119411],[124.66684,7.078741],[124.720894,6.995956],[124.681517,6.950946],[124.582401,6.982313],[124.559457,7.033835],[124.447216,7.098068],[124.49021,7.227931],[124.43533,7.235269],[124.377556,7.171914],[124.325673,7.175015],[124.492691,7.43319],[124.448766,7.539488],[124.464579,7.669558],[124.523077,7.690797]]]}},{"type":"Feature","properties":{"country_code":"PH","region_code":"PH-SCO","name":"South Cotabato","native_name":"South Cotabato","type":"Province"},"geometry":{"type":"Polygon","coordinates":[[[124.633974,6.63944],[124.67299,6.590502],[124.751693,6.636701],[124.855666,6.531488],[124.925843,6.561822],[125.176501,6.56333],[125.158697,6.464567],[125.075394,6.342456],[125.137424,6.32071],[125.102487,6.251729],[125.119096,6.190828],[125.036049,6.196365],[125.048213,6.004853],[124.789417,6.011675],[124.396366,6.212954],[124.382878,6.162208],[124.249295,6.292484],[124.641726,6.292329],[124.636351,6.443328],[124.606379,6.510456],[124.633974,6.63944]]]}},{"type":"Feature","properties":{"country_code":"PH","region_code":"PH-MNL","name":"Muntinlupa","native_name":"Muntinlupa","type":"Highly Urbanized City"},"geometry":{"type":"Polygon","coordinates":[[[121.014842,14.359142],[121.05585,14.464899],[121.134708,14.454146],[121.143438,14.388166],[121.014842,14.359142]]]}},{"type":"Feature","properties":{"country_code":"PH","region_code":"PH-MNL","name":"Caloocan","native_name":"Caloocan","type":"Highly Urbanized City"},"geometry":{"type":"MultiPolygon","coordinates":[[[[121.05828,14.766693],[121.112829,14.743534],[121.016569,14.697994],[121.009031,14.739478],[121.05828,14.766693]]],[[[121.001029,14.627418],[120.971676,14.650728],[121.035562,14.679217],[121.001029,14.627418]]]]}},{"type":"Feature","properties":{"country_code":"PH","region_code":"PH-MNL","name":"Malabon","native_name":"Malabon","type":"Highly Urbanized City"},"geometry":{"type":"Polygon","coordinates":[[[120.933964,14.693431],[120.972971,14.667131],[121.008367,14.660656],[120.968655,14.636483],[120.933964,14.693431]]]}},{"type":"Feature","properties":{"country_code":"PH","region_code":"PH-MNL","name":"Valenzuela City","native_name":"Valenzuela","type":"Highly Urbanized City"},"geometry":{"type":"Polygon","coordinates":[[[120.967167,14.707126],[121.009031,14.739478],[121.035562,14.679217],[120.972971,14.667131],[120.931884,14.721025],[120.967167,14.707126]]]}},{"type":"Feature","properties":{"country_code":"PH","region_code":"PH-MNL","name":"Quezon City","native_name":"Quezon City","type":"Highly Urbanized City"},"geometry":{"type":"Polygon","coordinates":[[[121.026065,14.708138],[121.154268,14.758427],[121.12621,14.663462],[121.095131,14.644469],[121.095994,14.584468],[120.999302,14.618137],[121.035562,14.679217],[121.026065,14.708138]]]}},{"type":"Feature","properties":{"country_code":"PH","region_code":"PH-NUE","name":"Nueva Ecija","native_name":"Nueva Ecija","type":"Province"},"geometry":{"type":"Polygon","coordinates":[[[120.862008,15.165069],[120.779636,15.225634],[120.78222,15.288524],[120.744186,15.340614],[120.755245,15.426087],[120.73261,15.551816],[120.763099,15.611244],[120.69592,15.622354],[120.662227,15.657908],[120.627294,15.818725],[120.767647,15.844305],[120.823974,15.790303],[120.919059,15.936547],[120.886503,16.100671],[120.94438,16.132917],[121.01373,16.135811],[121.13796,16.101291],[121.184779,16.049822],[121.207413,15.898203],[121.361099,15.507943],[121.36575,15.435441],[121.302601,15.181451],[121.252269,15.182536],[121.117703,15.260051],[120.916062,15.215196],[120.862008,15.165069]]]}},{"type":"Feature","properties":{"country_code":"PH","region_code":"PH-LAG","name":"Laguna","native_name":"Laguna","type":"Province"},"geometry":{"type":"Polygon","coordinates":[[[121.466209,14.562884],[121.590336,14.313287],[121.59447,14.219494],[121.503726,14.074542],[121.416496,14.050977],[121.264464,13.961525],[121.263741,13.984521],[121.223743,14.005915],[121.20545,14.111645],[121.180955,14.138517],[121.032954,14.143995],[121.074708,14.315871],[121.014764,14.32817],[121.014842,14.359142],[121.143438,14.388166],[121.139407,14.527408],[121.172273,14.502423],[121.242347,14.301815],[121.26281,14.349564],[121.234285,14.467851],[121.26095,14.51436],[121.334434,14.443021],[121.309216,14.290549],[121.388384,14.345094],[121.366783,14.501286],[121.385904,14.53224],[121.466209,14.562884]]]}},{"type":"Feature","properties":{"country_code":"PH","region_code":"PH-RIZ","name":"Rizal","native_name":"Rizal","type":"Province"},"geometry":{"type":"Polygon","coordinates":[[[121.342082,14.889272],[121.354588,14.747162],[121.460525,14.571514],[121.366783,14.501286],[121.388384,14.345094],[121.309216,14.290549],[121.3303,14.455242],[121.277383,14.509037],[121.246791,14.502474],[121.237696,14.393954],[121.26281,14.349564],[121.242347,14.301815],[121.172273,14.502423],[121.125347,14.524899],[121.11844,14.609073],[121.15211,14.645764],[121.12621,14.663462],[121.137433,14.73857],[121.20576,14.826382],[121.308079,14.890461],[121.342082,14.889272]]]}},{"type":"Feature","properties":{"country_code":"PH","region_code":"PH-MNL","name":"Taguig City","native_name":"Taguig","type":"Highly Urbanized City"},"geometry":{"type":"Polygon","coordinates":[[[121.125347,14.524899],[121.134708,14.454146],[121.05585,14.464899],[121.032108,14.527489],[121.065346,14.557274],[121.069663,14.531374],[121.125347,14.524899]]]}},{"type":"Feature","properties":{"country_code":"PH","region_code":"PH-MNL","name":"Marikina","native_name":"Marikina","type":"Highly Urbanized City"},"geometry":{"type":"Polygon","coordinates":[[[121.095131,14.644469],[121.149951,14.655692],[121.147361,14.625044],[121.092109,14.608641],[121.095131,14.644469]]]}},{"type":"Feature","properties":{"country_code":"PH","region_code":"PH-MNL","name":"Pasig","native_name":"Pasig","type":"Highly Urbanized City"},"geometry":{"type":"Polygon","coordinates":[[[121.096857,14.615116],[121.125778,14.594828],[121.125347,14.524899],[121.064483,14.564612],[121.095994,14.584468],[121.096857,14.615116]]]}},{"type":"Feature","properties":{"country_code":"PH","region_code":"PH-QUI","name":"Quirino","native_name":"Quirino","type":"Province"},"geometry":{"type":"Polygon","coordinates":[[[122.037544,16.507623],[121.872386,16.281901],[121.447709,15.9243],[121.321618,16.106201],[121.287615,16.259628],[121.421664,16.346341],[121.430656,16.402617],[121.357895,16.433468],[121.39965,16.651232],[121.569872,16.610614],[121.75198,16.395744],[122.037544,16.507623]]]}},{"type":"Feature","properties":{"country_code":"PH","region_code":"PH-ISA","name":"Santiago","native_name":"Santiago","type":"Independent Component City"},"geometry":{"type":"Polygon","coordinates":[[[121.569872,16.610614],[121.487989,16.62947],[121.503634,16.67995],[121.476326,16.722618],[121.390072,16.694343],[121.341152,16.78094],[121.426418,16.831634],[121.479025,16.830653],[121.608053,16.713886],[121.602832,16.643403],[121.569872,16.610614]]]}},{"type":"Feature","properties":{"country_code":"PH","region_code":"PH-NUV","name":"Nueva Vizcaya","native_name":"Nueva Vizcaya","type":"Province"},"geometry":{"type":"Polygon","coordinates":[[[121.447709,15.9243],[121.267255,15.77759],[121.207413,15.898203],[121.167519,16.080931],[121.01373,16.135811],[120.94438,16.132917],[120.886503,16.100671],[120.863765,16.163406],[120.756588,16.200665],[120.776949,16.290634],[120.85653,16.325412],[120.891464,16.390008],[120.902626,16.597385],[121.280174,16.664875],[121.335364,16.7643],[121.379806,16.712934],[121.39965,16.651232],[121.357895,16.433468],[121.430656,16.402617],[121.426625,16.364738],[121.411329,16.33399],[121.287615,16.259628],[121.321618,16.106201],[121.447709,15.9243]]]}},{"type":"Feature","properties":{"country_code":"PH","region_code":"PH-BEN","name":"Benguet","native_name":"Benguet","type":"Province"},"geometry":{"type":"Polygon","coordinates":[[[120.526008,16.232084],[120.488491,16.344119],[120.48291,16.516201],[120.618819,16.693917],[120.637836,16.860108],[120.662227,16.895765],[120.773538,16.920983],[120.879371,16.798717],[120.902626,16.597385],[120.891464,16.390008],[120.85653,16.325412],[120.776949,16.290634],[120.756588,16.200665],[120.670495,16.186919],[120.526008,16.232084]],[[120.652621,16.353641],[120.644789,16.431955],[120.563865,16.434565],[120.584748,16.358862],[120.652621,16.353641]]]}},{"type":"Feature","properties":{"country_code":"PH","region_code":"PH-IFU","name":"Ifugao","native_name":"Ifugao","type":"Province"},"geometry":{"type":"Polygon","coordinates":[[[121.563464,17.086554],[121.571009,16.910958],[121.52481,16.845432],[121.426418,16.831634],[121.341152,16.78094],[121.320688,16.708489],[121.280174,16.664875],[120.902626,16.597385],[120.879371,16.798717],[120.850949,16.846259],[120.936215,16.855974],[121.009493,16.983046],[121.09879,17.014207],[121.22519,17.009866],[121.434996,17.086038],[121.563464,17.086554]]]}},{"type":"Feature","properties":{"country_code":"PH","region_code":"PH-MOU","name":"Mountain","native_name":"Mountain Province","type":"Province"},"geometry":{"type":"Polygon","coordinates":[[[121.570595,17.250058],[121.563464,17.086554],[121.375362,17.073325],[121.22519,17.009866],[121.053108,17.00475],[120.974456,16.950955],[120.919369,16.844709],[120.850949,16.846259],[120.773538,16.920983],[120.791315,17.105623],[120.837513,17.17058],[120.896838,17.187582],[120.914821,17.249335],[121.194494,17.1681],[121.269218,17.191871],[121.424248,17.298324],[121.570595,17.250058]]]}},{"type":"Feature","properties":{"country_code":"PH","region_code":"PH-TAR","name":"Tarlac","native_name":"Tarlac","type":"Province"},"geometry":{"type":"Polygon","coordinates":[[[120.763616,15.259379],[120.556187,15.254211],[120.38059,15.168997],[120.30814,15.273745],[120.163653,15.343198],[120.143809,15.40645],[120.246955,15.614034],[120.331601,15.665349],[120.395163,15.752889],[120.490661,15.715682],[120.536653,15.742657],[120.601249,15.869833],[120.662227,15.657908],[120.69592,15.622354],[120.763099,15.611244],[120.73261,15.551816],[120.755245,15.426087],[120.744186,15.340614],[120.78222,15.288524],[120.763616,15.259379]]]}},{"type":"Feature","properties":{"country_code":"PH","region_code":"PH-APA","name":"Apayao","native_name":"Apayao","type":"Province"},"geometry":{"type":"Polygon","coordinates":[[[120.938489,17.967069],[120.941383,18.097914],[120.982104,18.170209],[120.90924,18.240696],[120.953682,18.291494],[120.957093,18.446781],[121.059205,18.531686],[121.086801,18.53029],[121.125455,18.466832],[121.27852,18.411331],[121.478611,18.270358],[121.461558,18.098327],[121.318414,17.84258],[121.341462,17.807079],[121.400683,17.788424],[121.428795,17.717627],[121.126798,17.68352],[121.102924,17.816225],[121.025616,17.838808],[120.981071,17.945675],[120.938489,17.967069]]]}},{"type":"Feature","properties":{"country_code":"PH","region_code":"PH-KAL","name":"Kalinga","native_name":"Kalinga","type":"Province"},"geometry":{"type":"Polygon","coordinates":[[[121.428795,17.717627],[121.566358,17.563424],[121.670124,17.489734],[121.61297,17.420177],[121.570595,17.250058],[121.424248,17.298324],[121.269218,17.191871],[121.194494,17.1681],[120.914821,17.249335],[120.983034,17.365969],[121.008149,17.489837],[121.1176,17.57562],[121.104681,17.667501],[121.428795,17.717627]]]}},{"type":"Feature","properties":{"country_code":"PH","region_code":"PH-ABR","name":"Abra","native_name":"Abra","type":"Province"},"geometry":{"type":"Polygon","coordinates":[[[120.827798,17.943453],[120.964224,17.959524],[121.025616,17.838808],[121.102924,17.816225],[121.128038,17.697886],[121.099513,17.661248],[121.1176,17.57562],[121.008149,17.489837],[120.983034,17.365969],[120.896838,17.187582],[120.813019,17.211818],[120.73044,17.155697],[120.686102,17.198485],[120.674836,17.261531],[120.535516,17.338322],[120.585849,17.479812],[120.4672,17.499242],[120.482806,17.587971],[120.618199,17.819016],[120.698814,17.84656],[120.827798,17.943453]]]}},{"type":"Feature","properties":{"country_code":"PH","region_code":"PH-CAS","name":"Naga","native_name":"Naga","type":"Independent Component City"},"geometry":{"type":"Polygon","coordinates":[[[123.293391,13.663277],[123.368306,13.619905],[123.234248,13.568648],[123.139619,13.619905],[123.293391,13.663277]]]}},{"type":"Feature","properties":{"country_code":"PH","region_code":"PH-PAM","name":"Angeles","native_name":"Angeles","type":"Highly Urbanized City"},"geometry":{"type":"Polygon","coordinates":[[[120.636958,15.178929],[120.636958,15.116278],[120.59258,15.103226],[120.511655,15.144993],[120.569086,15.176319],[120.636958,15.178929]]]}},{"type":"Feature","properties":{"country_code":"PH","region_code":"PH-BEN","name":"Baguio","native_name":"Baguio","type":"Highly Urbanized City"},"geometry":{"type":"Polygon","coordinates":[[[120.563865,16.434565],[120.644789,16.431955],[120.652621,16.353641],[120.584748,16.358862],[120.563865,16.434565]]]}},{"type":"Feature","properties":{"country_code":"PH","region_code":"PH-MNL","name":"Makati","native_name":"Makati","type":"Highly Urbanized City"},"geometry":{"type":"Polygon","coordinates":[[[121.074411,14.530511],[121.065346,14.557274],[121.032108,14.527489],[121.006209,14.557705],[121.064483,14.564612],[121.074411,14.530511]]]}},{"type":"Feature","properties":{"country_code":"PH","region_code":"PH-MNL","name":"Pateros","native_name":"Pateros","type":"Independent Municipality"},"geometry":{"type":"Polygon","coordinates":[[[121.084771,14.535691],[121.080454,14.547777],[121.090814,14.547345],[121.084771,14.535691]]]}},{"type":"Feature","properties":{"country_code":"PH","region_code":"PH-MNL","name":"Mandaluyong","native_name":"Mandaluyong City","type":"Province"},"geometry":{"type":"Polygon","coordinates":[[[121.064483,14.564612],[121.037288,14.588785],[121.071389,14.593965],[121.064483,14.564612]]]}},{"type":"Feature","properties":{"country_code":"PH","region_code":"PH-MNL","name":"San Juan","native_name":"San Juan","type":"Highly Urbanized City"},"geometry":{"type":"Polygon","coordinates":[[[121.034698,14.606914],[121.069663,14.599576],[121.071389,14.593965],[121.044627,14.5849],[121.034698,14.606914]]]}}]}