{"type":"FeatureCollection","features":[{"type":"Feature","properties":{"country_code":"SA","region_code":"SA-04","name":"Eastern","native_name":"Ash Sharqiyah","type":"Region"},"geometry":{"type":"MultiPolygon","coordinates":[[[[50.807872,24.746649],[50.881008,24.636404],[50.978883,24.567726],[51.095465,24.560182],[51.215258,24.62585],[51.268809,24.624498],[51.306407,24.610826],[51.302419,24.517157],[51.38795,24.597073],[51.395274,24.631334],[51.498302,24.583564],[51.336192,24.447943],[51.278819,24.307766],[51.344981,24.297797],[51.412852,24.323472],[51.569347,24.256171],[51.593522,24.078325],[52.558476,22.938575],[55.105297,22.620946],[55.186843,22.703577],[55.637565,21.97897],[54.97838,19.995421],[51.978615,18.995638],[49.128815,18.612095],[49.035849,18.57972],[48.161949,18.148919],[47.589012,17.463276],[47.428569,17.093104],[48.299099,23.654965],[48.289642,23.999853],[48.223238,24.158655],[48.141176,24.270069],[47.888529,24.502148],[47.534598,24.734563],[47.496254,24.789107],[47.465041,26.17463],[47.430005,26.261705],[47.062068,26.408828],[46.830248,26.623078],[46.587885,26.610598],[46.230388,26.818493],[45.934282,26.85278],[45.692384,27.053388],[45.528519,27.085737],[45.245332,27.231904],[45.198151,27.2788],[45.127716,27.436181],[44.951138,27.579531],[44.941164,27.654178],[44.974392,27.73978],[45.212724,28.016456],[45.564847,28.602311],[45.702306,28.758348],[45.801008,28.838163],[45.940948,28.906298],[46.427322,29.076143],[46.532436,29.095745],[47.434086,28.994588],[47.549945,28.770596],[47.581674,28.631483],[47.668129,28.533505],[48.432781,28.54048],[48.498546,28.492906],[48.507823,28.415717],[48.468761,28.387112],[48.535492,28.40762],[48.522227,28.318834],[48.618419,28.217271],[48.600841,28.147773],[48.65211,28.046088],[48.792003,28.007025],[48.743663,27.96133],[48.88266,27.826728],[48.874522,27.769924],[48.839203,27.728583],[48.857595,27.803534],[48.852875,27.817939],[48.805024,27.756496],[48.812511,27.828599],[48.778819,27.71955],[48.81129,27.742825],[48.815278,27.687567],[48.839203,27.708075],[48.858084,27.662828],[48.880138,27.687567],[48.85963,27.640448],[48.873302,27.612494],[48.831798,27.612494],[48.870779,27.605618],[48.900645,27.632961],[48.891124,27.588121],[48.914317,27.571519],[48.915294,27.608629],[48.968516,27.620347],[49.05421,27.568264],[49.05893,27.538153],[49.072032,27.557847],[49.239757,27.545111],[49.312755,27.448635],[49.284923,27.475328],[49.263927,27.452867],[49.119802,27.441148],[49.207042,27.395168],[49.240245,27.427191],[49.263845,27.413886],[49.229666,27.379706],[49.223399,27.331285],[49.278819,27.358791],[49.312755,27.344957],[49.322602,27.205715],[49.345225,27.182807],[49.37086,27.218736],[49.412364,27.204006],[49.374848,27.149075],[49.407074,27.132717],[49.435069,27.166815],[49.431895,27.142768],[49.524425,27.132717],[49.489106,27.17475],[49.572113,27.194159],[49.570079,27.104071],[49.699474,26.958238],[49.871837,26.862494],[49.972992,26.842353],[50.069102,26.728583],[50.158458,26.664862],[50.161876,26.639228],[50.09254,26.689114],[50.023692,26.69953],[50.006358,26.747626],[49.988455,26.724433],[50.03061,26.494615],[50.19158,26.403551],[50.216563,26.32392],[50.21225,26.191311],[50.182384,26.160102],[50.174083,26.180732],[50.154552,26.166246],[50.141368,26.035956],[50.0324,26.201077],[49.975841,26.139594],[50.010427,26.07689],[49.990001,26.060452],[49.990001,26.001776],[50.021007,26.004462],[50.024099,26.035956],[50.101329,25.989488],[50.127696,25.940375],[50.107758,25.91474],[50.118337,25.867865],[50.247244,25.679429],[50.257498,25.631903],[50.226736,25.687161],[50.144705,25.733344],[50.148692,25.699856],[50.182384,25.672838],[50.196056,25.687161],[50.347992,25.482123],[50.374278,25.461168],[50.36199,25.502997],[50.381358,25.512885],[50.410167,25.464097],[50.471528,25.437201],[50.520356,25.314765],[50.562185,25.054836],[50.606293,25.042711],[50.661632,24.979967],[50.681407,24.913886],[50.72641,24.881659],[50.76059,24.736396],[50.807872,24.746649]]],[[[49.501231,27.360541],[49.585134,27.344306],[49.688813,27.317694],[49.60727,27.322455],[49.56544,27.297797],[49.531261,27.346177],[49.487559,27.334133],[49.456228,27.290351],[49.453624,27.316392],[49.501231,27.360541]]]]}},{"type":"Feature","properties":{"country_code":"SA","region_code":"SA-08","name":"Northern Borders","native_name":"Al Hudud ash Shamaliyah","type":"Region"},"geometry":{"type":"Polygon","coordinates":[[[39.157744,32.121348],[40.424126,31.920533],[42.075395,31.079861],[42.858707,30.494677],[44.691825,29.201836],[46.357459,29.063137],[46.427322,29.076143],[45.801008,28.838163],[45.62474,28.681531],[45.212724,28.016456],[44.974392,27.73978],[44.938684,27.619529],[44.99005,27.532635],[44.901632,27.458195],[44.839568,27.481501],[44.759005,27.576508],[44.525014,27.745516],[44.182399,27.79913],[44.093774,27.840342],[44.035276,27.903543],[43.951199,28.100843],[43.782372,28.370801],[43.715503,28.415398],[43.474019,28.315636],[43.275271,28.386226],[43.115126,28.382635],[43.030066,28.432089],[42.99813,28.579651],[42.968158,28.598746],[42.76724,28.533039],[42.668228,28.529913],[42.555108,28.586783],[42.388452,28.744292],[42.000982,28.830876],[41.693921,28.795814],[41.342417,28.875964],[40.739612,28.760079],[40.543603,28.816252],[40.71057,28.978981],[40.741782,29.333559],[40.787051,29.41743],[40.919601,29.51099],[41.754744,29.964218],[41.882746,30.061835],[41.897629,30.121986],[41.681311,30.281511],[41.53145,30.500568],[41.46427,30.529946],[41.177156,30.560435],[40.918826,30.723784],[40.175357,30.736315],[40.047509,30.765228],[39.86783,30.868245],[39.191903,30.958059],[38.257748,30.885867],[38.147264,30.930128],[38.016316,31.117894],[37.883817,31.214581],[37.866092,31.371936],[37.986522,31.753358],[38.96344,31.994327],[39.157744,32.121348]]]}},{"type":"Feature","properties":{"country_code":"SA","region_code":"SA-12","name":"Al-Jowf","native_name":"Al Jawf","type":"Region"},"geometry":{"type":"Polygon","coordinates":[[[36.016437,29.189951],[36.069457,29.200028],[36.477081,29.494609],[36.728745,29.853528],[37.470198,29.994553],[37.647552,30.330863],[37.981381,30.498811],[37.480017,31.007256],[36.959532,31.490999],[37.986522,31.753358],[37.866092,31.371936],[37.873068,31.243959],[37.899785,31.19714],[38.016316,31.117894],[38.12959,30.94868],[38.190568,30.902714],[38.305704,30.882999],[39.191903,30.958059],[39.86783,30.868245],[40.047509,30.765228],[40.175357,30.736315],[40.880017,30.732827],[40.951072,30.71102],[41.177156,30.560435],[41.46427,30.529946],[41.53145,30.500568],[41.681311,30.281511],[41.90476,30.102452],[41.754744,29.964218],[40.919601,29.51099],[40.787051,29.41743],[40.741782,29.333559],[40.71057,28.978981],[40.543603,28.816252],[40.458905,28.827155],[40.080427,28.690445],[39.709546,28.504023],[39.534672,28.46126],[39.156349,28.302717],[39.000131,28.167919],[38.903755,28.207943],[38.661858,28.139523],[38.596487,28.22789],[38.456082,28.258224],[38.363891,28.229362],[38.128195,28.24608],[37.910172,28.314034],[37.826095,28.382635],[37.78341,28.457695],[37.772403,28.807053],[37.756538,28.84935],[37.716386,28.867386],[37.545388,28.754292],[37.4656,28.602001],[37.425861,28.57407],[37.225873,28.577403],[36.991107,28.637348],[36.854526,28.644608],[36.488657,28.56097],[36.409954,28.583114],[36.120101,28.905135],[36.051216,28.941903],[35.855207,28.984278],[35.373738,28.929294],[35.219949,28.861184],[34.825369,28.894232],[34.909353,29.230658],[34.942068,29.250474],[34.949385,29.351686],[36.016437,29.189951]]]}},{"type":"Feature","properties":{"country_code":"SA","region_code":"SA-10","name":"Najran","native_name":"Najran","type":"Region"},"geometry":{"type":"Polygon","coordinates":[[[47.428569,17.093104],[47.161338,16.947442],[46.983003,16.949096],[46.747203,17.254762],[46.710099,17.275381],[46.322629,17.224066],[45.430384,17.312019],[45.165387,17.428395],[44.646453,17.431805],[44.561962,17.404468],[44.404142,17.418731],[44.211544,17.390619],[44.149015,17.40483],[44.08535,17.343439],[44.003908,17.36783],[43.915128,17.301839],[43.886706,17.353671],[43.750642,17.345661],[43.638446,17.43851],[43.666152,17.570349],[43.640675,17.708713],[43.676383,17.99792],[43.63928,18.194161],[43.694057,18.290641],[43.999775,18.576127],[44.082457,18.713948],[44.288698,18.788621],[44.366884,18.853139],[44.399337,18.99698],[44.359133,19.192627],[44.3905,19.255311],[44.50517,19.331766],[44.516797,19.512634],[44.919925,19.295386],[45.272617,19.256913],[47.614954,19.496149],[47.745127,19.531263],[47.428569,17.093104]]]}},{"type":"Feature","properties":{"country_code":"SA","region_code":"SA-14","name":"'Asir","native_name":"`Asir","type":"Region"},"geometry":{"type":"Polygon","coordinates":[[[43.638446,17.43851],[43.487144,17.517485],[43.412885,17.519965],[43.341985,17.48245],[43.241888,17.622956],[43.126133,17.680084],[43.065155,17.78323],[42.962577,17.86723],[42.925163,17.992726],[42.877879,17.998411],[42.772356,17.925599],[42.682336,17.682539],[42.629109,17.660757],[42.488704,17.776641],[42.420284,17.885498],[42.188102,17.912886],[42.100769,18.031432],[41.943259,18.050061],[41.915922,18.115148],[41.933027,18.296403],[41.883521,18.322448],[41.770712,18.313999],[41.809676,18.495176],[41.723221,18.742396],[41.623589,18.783944],[41.451041,18.79074],[41.402931,18.837507],[41.383707,18.920422],[41.402155,19.181569],[41.474812,19.151028],[41.610566,19.227741],[41.794586,19.224331],[41.855254,19.281666],[41.889257,19.383365],[41.83231,19.546533],[41.865383,19.740733],[41.804715,19.813287],[41.698726,19.797061],[41.799754,20.003663],[41.843472,20.178329],[42.027337,20.325116],[42.030644,20.37302],[41.993385,20.415111],[41.984394,20.471361],[42.032039,20.624865],[42.152756,20.398652],[42.209238,20.351445],[42.259674,20.346769],[42.381165,20.408083],[42.634535,20.62409],[42.832714,20.725273],[42.923923,20.79917],[43.221579,20.864954],[43.369581,20.839891],[43.667547,20.976239],[43.813688,20.853508],[44.055947,20.560657],[44.055172,20.476993],[43.968717,20.334341],[43.936781,20.106938],[44.106383,19.866953],[44.516797,19.512634],[44.513077,19.354426],[44.365799,19.219034],[44.399492,18.962228],[44.366884,18.853139],[44.288698,18.788621],[44.082457,18.713948],[43.999775,18.576127],[43.855752,18.453499],[43.648013,18.222092],[43.638195,18.169072],[43.676383,17.99792],[43.640675,17.708713],[43.666152,17.570349],[43.638446,17.43851]]]}},{"type":"Feature","properties":{"country_code":"SA","region_code":"SA-09","name":"Jazan","native_name":"Jizan","type":"Region"},"geometry":{"type":"MultiPolygon","coordinates":[[[[43.185679,16.684847],[43.162926,16.661516],[43.084946,16.672575],[43.036267,16.536304],[42.906766,16.479357],[42.898187,16.418896],[42.78948,16.370958],[42.794932,16.452826],[42.728689,16.547187],[42.737315,16.671129],[42.703868,16.709052],[42.712413,16.730618],[42.635753,16.815172],[42.575857,16.832343],[42.541759,16.877997],[42.5442,17.00434],[42.512706,17.037014],[42.44752,17.049018],[42.410818,17.155748],[42.3567,17.18244],[42.384044,17.120998],[42.36378,17.10871],[42.362966,17.024807],[42.307872,17.444322],[42.14088,17.571194],[42.093516,17.652086],[42.053233,17.653225],[41.869477,17.820502],[41.787608,17.833564],[41.719249,17.909247],[41.677257,17.960598],[41.673676,18.009263],[41.593516,18.095893],[41.641469,18.196848],[41.722136,18.241678],[41.770712,18.313999],[41.92264,18.312061],[41.926671,18.064686],[42.100769,18.031432],[42.188102,17.912886],[42.420284,17.885498],[42.488704,17.776641],[42.629109,17.660757],[42.682336,17.682539],[42.772356,17.925599],[42.877879,17.998411],[42.925163,17.992726],[42.962577,17.86723],[43.065155,17.78323],[43.126133,17.680084],[43.241888,17.622956],[43.341985,17.48245],[43.165044,17.32592],[43.252171,17.27197],[43.156156,17.2097],[43.118432,17.086245],[43.135899,17.009609],[43.112644,16.910028],[43.145821,16.834477],[43.211502,16.796857],[43.168507,16.737222],[43.185679,16.684847]]],[[[42.186438,16.705528],[42.178559,16.583482],[42.07317,16.635801],[42.117633,16.659855],[42.085753,16.693525],[41.955457,16.670115],[41.843368,16.74672],[41.824941,16.798237],[41.778168,16.81269],[41.757085,16.896372],[41.828084,16.858608],[41.905143,16.747581],[42.011048,16.73908],[42.03499,16.715773],[42.064606,16.728382],[42.021739,16.755805],[42.062185,16.814195],[42.104076,16.792283],[42.116547,16.744167],[42.186438,16.705528]]],[[[41.918893,16.791155],[41.834972,16.891669],[41.88795,16.907782],[41.928477,16.954901],[41.920909,16.978949],[41.846202,16.997463],[41.86085,17.013617],[41.938162,16.972886],[41.943802,16.883459],[41.985181,16.853596],[41.932302,16.838365],[41.995442,16.797002],[42.001845,16.760987],[41.918893,16.791155]]]]}},{"type":"Feature","properties":{"country_code":"SA","region_code":"SA-07","name":"Tabuk","native_name":"Tabuk","type":"Region"},"geometry":{"type":"MultiPolygon","coordinates":[[[[37.382823,24.53957],[37.228526,24.737698],[37.227061,24.799547],[37.178722,24.799384],[37.148611,24.85102],[37.218923,24.846625],[37.256602,24.871243],[37.279959,24.964097],[37.242198,25.175279],[37.105317,25.32217],[37.059825,25.419623],[37.077403,25.431057],[36.93629,25.646145],[36.881602,25.672838],[36.817393,25.757961],[36.795665,25.759467],[36.792247,25.720608],[36.702322,25.779975],[36.66212,25.879096],[36.705821,25.943752],[36.696056,26.022284],[36.640636,26.060207],[36.536632,26.082424],[36.512706,26.110989],[36.30893,26.498236],[36.229828,26.625556],[36.097667,26.753974],[36.031993,26.906806],[35.911876,26.999579],[35.803071,27.142076],[35.812836,27.191067],[35.784028,27.2355],[35.559581,27.455634],[35.510509,27.544176],[35.500255,27.61933],[35.394379,27.777004],[35.351329,27.801418],[35.322765,27.876288],[35.245616,27.962348],[35.163585,28.009345],[35.226899,28.033149],[35.216319,28.054389],[35.161794,28.058173],[35.051931,28.119574],[35.019705,28.113471],[35.030772,28.099107],[34.997895,28.114203],[34.927745,28.078599],[34.846446,28.071194],[34.842621,28.09984],[34.866222,28.112779],[34.836762,28.116278],[34.804861,28.071194],[34.819102,28.112779],[34.770763,28.092922],[34.709239,28.140082],[34.647146,28.099107],[34.668305,28.071194],[34.613048,28.030219],[34.606212,28.096015],[34.574392,28.094062],[34.627126,28.176663],[34.657725,28.170559],[34.649587,28.200873],[34.674571,28.270453],[34.688731,28.263617],[34.674571,28.277248],[34.803775,28.527133],[34.77847,28.6645],[34.842781,28.884564],[34.9965,28.890847],[35.219949,28.861184],[35.373738,28.929294],[35.855207,28.984278],[36.051216,28.941903],[36.120101,28.905135],[36.409954,28.583114],[36.488657,28.56097],[36.854526,28.644608],[36.991107,28.637348],[37.225873,28.577403],[37.425861,28.57407],[37.4656,28.602001],[37.545388,28.754292],[37.694475,28.859892],[37.73809,28.863045],[37.772403,28.807053],[37.78341,28.457695],[37.826095,28.382635],[37.910172,28.314034],[38.128195,28.24608],[38.363891,28.229362],[38.456082,28.258224],[38.596487,28.22789],[38.624754,28.168023],[38.685732,28.136784],[38.929025,28.206806],[39.058009,28.129394],[39.471989,28.02444],[39.787474,27.795539],[39.930669,27.341536],[40.16559,27.187256],[40.141871,27.105168],[39.95506,26.936315],[39.86721,26.720075],[39.816154,26.656797],[39.764943,26.714494],[39.719622,26.729609],[39.303937,26.671861],[39.153869,26.677287],[38.995274,26.771803],[38.83332,26.829086],[38.759423,26.926057],[38.728727,26.91629],[38.729967,26.843581],[38.704801,26.833505],[38.525742,26.884509],[38.374588,26.795832],[38.323067,26.794127],[38.309579,26.888437],[38.21496,26.955693],[38.195684,27.032588],[37.991976,27.064447],[37.940455,27.095323],[37.865007,27.205291],[37.808835,27.35492],[37.749562,27.394375],[37.499293,27.292805],[37.218431,27.380784],[36.785486,27.216194],[36.800369,27.172166],[36.917675,27.180848],[36.985061,27.119921],[37.002579,27.03326],[36.98134,26.799708],[37.015446,26.712478],[37.07596,26.66075],[37.253933,26.592718],[37.260496,26.523782],[37.16691,26.335473],[37.272278,26.077814],[37.367673,26.112308],[37.562286,26.008852],[37.607762,25.903174],[37.787441,25.746956],[37.877616,25.501725],[37.987273,25.485602],[38.021276,25.448886],[37.9881,25.201744],[37.986653,24.839544],[37.919474,24.786549],[37.756848,24.789185],[37.614273,24.681155],[37.431338,24.656971],[37.382823,24.53957]]],[[[36.999278,25.469428],[37.031261,25.398749],[36.966563,25.448961],[36.946544,25.441881],[36.951834,25.467515],[36.999278,25.469428]]],[[[36.904307,25.39411],[36.961436,25.414496],[36.89975,25.361029],[36.798676,25.447414],[36.776541,25.496405],[36.823741,25.459866],[36.915701,25.426703],[36.904307,25.39411]]],[[[36.849376,25.533026],[36.826996,25.547187],[36.841319,25.570014],[36.866547,25.557522],[36.849376,25.533026]]],[[[36.879161,25.443345],[36.719249,25.55565],[36.681407,25.553453],[36.725597,25.565172],[36.879161,25.443345]]],[[[36.923188,25.519436],[36.898204,25.595445],[36.914399,25.606635],[36.923188,25.519436]]],[[[36.683116,25.572333],[36.667654,25.54975],[36.567719,25.598456],[36.539399,25.589179],[36.491466,25.645087],[36.54363,25.702867],[36.531016,25.644599],[36.63795,25.574612],[36.683116,25.572333]]],[[[36.544281,25.73135],[36.542491,25.801947],[36.558442,25.836371],[36.590831,25.860541],[36.555431,25.796332],[36.59783,25.758368],[36.58839,25.71426],[36.611095,25.709459],[36.583018,25.698676],[36.544281,25.73135]]]]}},{"type":"Feature","properties":{"country_code":"SA","region_code":"SA-03","name":"Al Madinah","native_name":"Al Madinah","type":"Region"},"geometry":{"type":"Polygon","coordinates":[[[38.643837,23.419474],[38.600175,23.568249],[38.559906,23.562486],[38.59547,23.52147],[38.540064,23.543245],[38.539223,23.591869],[38.494849,23.644635],[38.437022,23.802069],[38.079135,24.070388],[38.045729,24.06739],[37.935321,24.139007],[37.983072,24.165664],[37.93953,24.161441],[37.94795,24.207047],[37.912577,24.191538],[37.918133,24.149593],[37.865634,24.149888],[37.676091,24.291236],[37.625987,24.28144],[37.628394,24.24804],[37.52272,24.267732],[37.429403,24.367307],[37.427854,24.421132],[37.454954,24.406871],[37.463208,24.422546],[37.382823,24.53957],[37.431338,24.656971],[37.614273,24.681155],[37.756848,24.789185],[37.919474,24.786549],[37.986653,24.839544],[37.9881,25.201744],[38.021276,25.448886],[37.987273,25.485602],[37.877616,25.501725],[37.787441,25.746956],[37.607762,25.903174],[37.562286,26.008852],[37.367673,26.112308],[37.272278,26.077814],[37.16691,26.335473],[37.264062,26.56843],[37.236105,26.610159],[37.07596,26.66075],[37.015446,26.712478],[36.98134,26.799708],[37.002579,27.03326],[36.985061,27.119921],[36.917675,27.180848],[36.783316,27.18245],[36.80285,27.231439],[37.218431,27.380784],[37.499293,27.292805],[37.749562,27.394375],[37.808835,27.35492],[37.865007,27.205291],[37.940455,27.095323],[37.991976,27.064447],[38.195684,27.032588],[38.21496,26.955693],[38.309579,26.888437],[38.323067,26.794127],[38.374588,26.795832],[38.525742,26.884509],[38.704801,26.833505],[38.729967,26.843581],[38.740664,26.927607],[38.782574,26.908306],[38.83332,26.829086],[38.995274,26.771803],[39.153869,26.677287],[39.303937,26.671861],[39.742153,26.726896],[39.816154,26.656797],[39.838323,26.594889],[39.831502,26.511044],[39.778792,26.408802],[39.790729,26.363533],[39.830882,26.340253],[39.925398,26.346428],[39.956456,26.309996],[39.903384,25.922294],[39.956456,25.687864],[39.947464,25.422144],[39.993663,25.337368],[40.090349,25.31277],[40.362064,25.395608],[40.614658,25.413565],[40.78209,25.559138],[40.871335,25.591539],[41.044348,25.598102],[41.323504,25.55844],[41.610101,25.486016],[41.656352,25.406382],[41.649996,25.102137],[41.714384,25.046663],[41.873444,24.998991],[41.979278,24.703066],[42.096273,24.611521],[42.084491,24.532844],[42.001292,24.405203],[42.01695,24.326397],[41.986409,23.949314],[41.855461,23.967323],[41.749938,23.94133],[41.731593,23.902676],[41.764511,23.730412],[41.71764,23.641916],[41.361383,23.463323],[41.275548,23.378315],[41.299319,23.340074],[41.446545,23.254447],[41.44267,23.204527],[41.226662,23.094095],[40.802295,22.757164],[40.64122,22.576168],[40.439475,22.621694],[40.240262,22.499195],[40.100426,22.500901],[40.064253,22.548779],[40.082908,22.652571],[40.067405,22.715539],[40.014643,22.763805],[39.885039,22.821088],[39.954285,23.047172],[39.942606,23.114765],[39.912686,23.146443],[39.77626,23.142774],[39.486717,23.068101],[39.415352,23.180833],[39.239548,23.161067],[39.182601,23.180859],[38.926389,23.441903],[38.643837,23.419474]]]}},{"type":"Feature","properties":{"country_code":"SA","region_code":"SA-02","name":"Makkah","native_name":"Makkah","type":"Region"},"geometry":{"type":"Polygon","coordinates":[[[41.597138,18.121127],[41.561046,18.189846],[41.493337,18.223944],[41.506358,18.272203],[41.472179,18.279202],[41.432953,18.47427],[41.355724,18.569037],[41.275401,18.592027],[41.210216,18.697943],[41.249034,18.834174],[41.171235,18.871649],[41.136485,18.93651],[41.176524,19.067369],[41.068614,19.125393],[41.036143,19.264553],[40.955903,19.343329],[40.944672,19.505683],[40.83546,19.546617],[40.760427,19.60871],[40.794444,19.601264],[40.798025,19.692328],[40.744884,19.777004],[40.654063,19.794338],[40.656586,19.759508],[40.527029,19.910346],[40.534516,19.961819],[40.393565,20.064276],[40.313487,20.090725],[40.23878,20.178046],[40.164806,20.200385],[40.083832,20.279242],[39.991954,20.266669],[39.903087,20.308254],[39.940684,20.259182],[39.760102,20.350816],[39.567393,20.567694],[39.594737,20.588772],[39.543468,20.619208],[39.492931,20.706244],[39.506033,20.746405],[39.458263,20.744859],[39.423188,20.771715],[39.42335,20.814114],[39.45753,20.794257],[39.448741,20.827297],[39.359711,20.862616],[39.339122,20.887437],[39.340831,20.910305],[39.35963,20.896715],[39.352794,20.919867],[39.29713,20.923977],[39.237804,21.062893],[39.174327,21.108873],[39.170177,21.191474],[39.08074,21.315009],[39.171072,21.40412],[39.158946,21.507799],[39.142751,21.54092],[39.119802,21.516913],[39.092296,21.576565],[39.077403,21.691555],[39.10906,21.747789],[39.066742,21.725246],[38.949598,21.921916],[38.931254,22.006073],[38.959144,22.034443],[39.005693,22.002005],[39.044444,22.130805],[39.046641,22.151068],[39.026134,22.116889],[39.019298,22.131578],[39.040375,22.235785],[39.142751,22.403225],[39.114919,22.418606],[39.0948,22.370183],[39.070256,22.365828],[39.081517,22.546792],[38.985688,22.72427],[39.013031,22.766791],[38.945486,22.831204],[38.970876,22.746894],[38.902599,22.843166],[38.851175,22.943275],[38.912852,22.861965],[38.95102,22.851955],[38.964692,22.870429],[38.893891,22.965155],[38.799571,22.998684],[38.779063,23.041164],[38.804373,23.07925],[38.79835,23.149604],[38.777619,23.139292],[38.711436,23.235745],[38.643837,23.419474],[38.926389,23.441903],[39.182601,23.180859],[39.239548,23.161067],[39.415352,23.180833],[39.486717,23.068101],[39.77626,23.142774],[39.912686,23.146443],[39.942606,23.114765],[39.954285,23.047172],[39.885039,22.821088],[40.014643,22.763805],[40.067405,22.715539],[40.080427,22.512735],[40.214786,22.493253],[40.408934,22.616346],[40.616829,22.57485],[40.664939,22.58627],[40.802295,22.757164],[41.226662,23.094095],[41.423446,23.185407],[41.446545,23.254447],[41.299319,23.340074],[41.275548,23.378315],[41.28609,23.402732],[41.361383,23.463323],[41.71764,23.641916],[41.764511,23.730412],[41.731593,23.902676],[41.749938,23.94133],[41.855461,23.967323],[41.986409,23.949314],[41.986564,23.771728],[42.10697,23.662639],[42.224276,23.284393],[42.37729,22.97157],[42.497696,22.922994],[42.939943,22.892324],[43.006192,22.838115],[42.986813,22.630118],[43.036474,22.549115],[43.125203,22.52015],[43.310928,22.554128],[43.485232,22.501831],[43.458361,22.309569],[43.507712,21.955973],[43.425804,21.79929],[43.436191,21.611575],[43.388856,21.382054],[43.667547,20.976239],[43.369581,20.839891],[43.221579,20.864954],[42.923923,20.79917],[42.832714,20.725273],[42.634535,20.62409],[42.381165,20.408083],[42.259674,20.346769],[42.169344,20.378756],[42.032039,20.624865],[41.975867,20.670651],[41.931632,20.680857],[41.773347,20.611171],[41.507059,20.572956],[41.465924,20.606469],[41.407116,20.728787],[41.306761,20.760361],[41.234104,20.694654],[41.256635,20.495881],[41.138864,20.264991],[40.914485,20.193651],[40.801985,20.084097],[40.821519,20.030741],[40.91619,20.00033],[40.950762,19.954286],[40.979959,19.560098],[41.083777,19.497647],[41.21581,19.370032],[41.288416,19.36781],[41.348619,19.398506],[41.456467,19.703681],[41.505353,19.768664],[41.785595,19.816336],[41.858562,19.762153],[41.83231,19.546533],[41.889257,19.383365],[41.845798,19.262287],[41.794586,19.224331],[41.610566,19.227741],[41.474812,19.151028],[41.402155,19.181569],[41.390528,19.153405],[41.383707,18.920422],[41.414609,18.817818],[41.470937,18.785572],[41.623589,18.783944],[41.706323,18.758752],[41.809676,18.495176],[41.752418,18.27475],[41.641469,18.196848],[41.597138,18.121127]]]}},{"type":"Feature","properties":{"country_code":"SA","region_code":"SA-01","name":"Riyadh","native_name":"Ar Riyad","type":"Region"},"geometry":{"type":"Polygon","coordinates":[[[44.672447,25.569189],[44.723503,25.593916],[44.737456,25.662077],[44.716165,25.792405],[44.667951,25.890358],[44.677718,25.996656],[44.380682,26.364773],[44.388795,26.625352],[44.410189,26.670724],[44.524549,26.716302],[44.679733,26.886189],[44.801069,26.940113],[44.841274,26.98626],[44.815332,27.098501],[44.737146,27.169479],[44.627592,27.22237],[44.611158,27.270532],[44.624491,27.363265],[44.667641,27.434941],[44.738541,27.499898],[44.798899,27.520414],[44.901632,27.458195],[45.000179,27.527777],[45.145079,27.415278],[45.198151,27.2788],[45.245332,27.231904],[45.528519,27.085737],[45.692384,27.053388],[45.912578,26.861746],[46.230388,26.818493],[46.587885,26.610598],[46.830248,26.623078],[47.062068,26.408828],[47.402978,26.282608],[47.452484,26.225428],[47.496254,24.789107],[47.534598,24.734563],[47.888529,24.502148],[48.141176,24.270069],[48.265302,24.071012],[48.304576,23.878207],[48.299099,23.654965],[47.745127,19.531263],[47.614954,19.496149],[45.272617,19.256913],[44.919925,19.295386],[44.516797,19.512634],[44.106383,19.866953],[43.936781,20.106938],[43.968717,20.334341],[44.055172,20.476993],[44.055947,20.560657],[43.813688,20.853508],[43.667547,20.976239],[43.394747,21.361746],[43.389166,21.423034],[43.436191,21.611575],[43.425804,21.79929],[43.507712,21.955973],[43.458361,22.309569],[43.485232,22.501831],[43.310928,22.554128],[43.125203,22.52015],[43.058798,22.536015],[42.993324,22.603969],[43.010533,22.817574],[42.964747,22.880206],[42.870748,22.908964],[42.461367,22.928704],[42.353053,23.000715],[42.224276,23.284393],[42.10697,23.662639],[41.979278,23.791933],[42.01695,24.326397],[42.001292,24.405203],[42.071107,24.503828],[42.115187,24.649684],[42.181591,24.741126],[42.268821,24.785929],[42.511803,24.701826],[43.050272,24.686866],[43.097762,24.716166],[43.134039,24.778359],[43.087634,24.910211],[43.106289,24.961888],[43.297595,25.165854],[43.719998,25.28055],[43.890531,25.404212],[44.019308,25.567303],[44.130258,25.586836],[44.343165,25.561179],[44.672447,25.569189]]]}},{"type":"Feature","properties":{"country_code":"SA","region_code":"SA-05","name":"Al-Qassim","native_name":"Al Quassim","type":"Region"},"geometry":{"type":"Polygon","coordinates":[[[44.627592,27.22237],[44.798279,27.119017],[44.837398,27.055584],[44.841274,26.98626],[44.801069,26.940113],[44.634878,26.849524],[44.507496,26.702505],[44.39174,26.64827],[44.376186,26.385005],[44.676012,26.000894],[44.667951,25.890358],[44.73606,25.697217],[44.712134,25.578542],[44.343165,25.561179],[44.083852,25.586526],[44.019308,25.567303],[43.890531,25.404212],[43.719998,25.28055],[43.297595,25.165854],[43.106289,24.961888],[43.087634,24.910211],[43.134039,24.778359],[43.097762,24.716166],[43.050272,24.686866],[42.511803,24.701826],[42.268821,24.785929],[42.181591,24.741126],[42.096273,24.611521],[41.992145,24.685444],[41.873444,24.998991],[41.714384,25.046663],[41.649996,25.102137],[41.64488,25.454338],[41.610101,25.486016],[41.409804,25.536504],[41.781099,25.689027],[41.949771,25.725949],[41.892823,25.870592],[41.896079,25.915783],[41.958452,25.972834],[42.141593,25.942655],[42.156631,25.991411],[42.137821,26.121894],[42.195079,26.2423],[42.351968,26.271007],[42.417804,26.389294],[42.535109,26.510501],[42.918342,26.771234],[43.181375,26.880685],[43.294185,27.045791],[43.417536,27.13129],[43.869395,27.326343],[43.960656,27.306163],[44.196507,27.118009],[44.265133,27.087288],[44.478298,27.073464],[44.627592,27.22237]]]}},{"type":"Feature","properties":{"country_code":"SA","region_code":"SA-06","name":"Ha'il","native_name":"Ha'il","type":"Region"},"geometry":{"type":"Polygon","coordinates":[[[44.457835,27.069278],[44.240432,27.093928],[43.938021,27.31779],[43.796945,27.304613],[43.342915,27.087882],[43.258786,27.005329],[43.181375,26.880685],[42.918342,26.771234],[42.535109,26.510501],[42.417804,26.389294],[42.351968,26.271007],[42.195079,26.2423],[42.137821,26.121894],[42.156631,25.991411],[42.141593,25.942655],[41.958452,25.972834],[41.896079,25.915783],[41.899954,25.848707],[41.955197,25.742227],[41.932097,25.712255],[41.781099,25.689027],[41.409804,25.536504],[41.044348,25.598102],[40.843068,25.585751],[40.78209,25.559138],[40.614658,25.413565],[40.362064,25.395608],[40.113759,25.316388],[40.044719,25.314993],[39.97754,25.352458],[39.947464,25.422144],[39.956456,25.687864],[39.903384,25.922294],[39.956456,26.309996],[39.925398,26.346428],[39.809488,26.348134],[39.778792,26.408802],[39.84039,26.54732],[39.816154,26.656797],[39.86721,26.720075],[39.924778,26.881615],[40.000019,26.99042],[40.141871,27.105168],[40.16559,27.187256],[39.930669,27.341536],[39.811348,27.752828],[39.728459,27.847474],[39.43442,28.042733],[39.058009,28.129394],[39.000131,28.167919],[39.156349,28.302717],[39.534672,28.46126],[39.709546,28.504023],[40.080427,28.690445],[40.458905,28.827155],[40.739612,28.760079],[41.342417,28.875964],[41.693921,28.795814],[42.000982,28.830876],[42.388452,28.744292],[42.555108,28.586783],[42.668228,28.529913],[42.76724,28.533039],[42.968158,28.598746],[42.99813,28.579651],[43.030066,28.432089],[43.08722,28.389456],[43.275271,28.386226],[43.474019,28.315636],[43.681189,28.412917],[43.764802,28.390567],[43.951199,28.100843],[44.035276,27.903543],[44.093774,27.840342],[44.182399,27.79913],[44.525014,27.745516],[44.785256,27.54943],[44.798899,27.520414],[44.693531,27.464112],[44.624491,27.363265],[44.609763,27.291384],[44.627592,27.22237],[44.508581,27.093256],[44.457835,27.069278]]]}},{"type":"Feature","properties":{"country_code":"SA","region_code":"SA-11","name":"Al-Baha","native_name":"Al Bahah","type":"Region"},"geometry":{"type":"Polygon","coordinates":[[[42.032039,20.624865],[41.984394,20.471361],[41.993385,20.415111],[42.030644,20.37302],[42.027337,20.325116],[41.843472,20.178329],[41.799754,20.003663],[41.698726,19.797061],[41.495121,19.760913],[41.348619,19.398506],[41.265781,19.36471],[41.191936,19.380652],[41.107651,19.476641],[40.969107,19.579632],[40.950762,19.954286],[40.91619,20.00033],[40.821519,20.030741],[40.801985,20.084097],[40.914485,20.193651],[41.138864,20.264991],[41.249813,20.469449],[41.229143,20.677627],[41.28516,20.751964],[41.35544,20.75894],[41.407116,20.728787],[41.465924,20.606469],[41.507059,20.572956],[41.773347,20.611171],[41.931632,20.680857],[42.032039,20.624865]]]}}]}