{"type":"FeatureCollection","features":[{"type":"Feature","properties":{"country_code":"TW","region_code":"TW-TAO","name":"Taoyuan","native_name":"Taoyuan","type":"County"},"geometry":{"type":"Polygon","coordinates":[[[120.97169,24.951768],[121.059337,25.050238],[121.210948,25.111151],[121.287414,25.123679],[121.389108,25.065912],[121.406729,25.011755],[121.330248,24.972636],[121.326941,24.931295],[121.350144,24.855331],[121.417065,24.839905],[121.449052,24.797324],[121.439957,24.729137],[121.483314,24.681078],[121.451223,24.664619],[121.45453,24.608395],[121.412259,24.59545],[121.286995,24.656893],[121.302188,24.763579],[121.167933,24.837709],[121.145453,24.885122],[121.068404,24.910599],[121.035641,24.951268],[120.97169,24.951768]]]}},{"type":"Feature","properties":{"country_code":"TW","region_code":"TW-HSQ","name":"Hsinchu","native_name":"Hsinchu","type":"County"},"geometry":{"type":"Polygon","coordinates":[[[120.914643,24.85342],[120.97169,24.951768],[121.035641,24.951268],[121.068404,24.910599],[121.145453,24.885122],[121.167933,24.837709],[121.302188,24.763579],[121.286995,24.656893],[121.412259,24.59545],[121.400477,24.541422],[121.316451,24.436002],[121.262552,24.433315],[121.206225,24.51747],[121.069644,24.502691],[121.075535,24.614467],[120.991819,24.661337],[120.960245,24.715029],[121.045925,24.788668],[120.914643,24.85342]]]}},{"type":"Feature","properties":{"country_code":"TW","region_code":"TW-HSZ","name":"Hsinchu","native_name":"Hsinchu City","type":"Provincial City"},"geometry":{"type":"Polygon","coordinates":[[[120.872709,24.747757],[120.914643,24.85342],[121.045925,24.788668],[120.959522,24.714228],[120.872709,24.747757]]]}},{"type":"Feature","properties":{"country_code":"TW","region_code":"TW-MIA","name":"Miaoli","native_name":"Miaoli","type":"County"},"geometry":{"type":"Polygon","coordinates":[[[120.62133,24.455984],[120.702159,24.607001],[120.778087,24.665717],[120.826671,24.666083],[120.872709,24.747757],[120.960245,24.715029],[120.991819,24.661337],[121.075535,24.614467],[121.069644,24.502691],[121.206225,24.51747],[121.262552,24.433315],[121.043082,24.303297],[120.943037,24.340892],[120.918749,24.303995],[120.852603,24.292006],[120.698297,24.37027],[120.62133,24.455984]]]}},{"type":"Feature","properties":{"country_code":"TW","region_code":"TW-TXG","name":"Taichung City","native_name":"Taichung City","type":"Special Municipality"},"geometry":{"type":"Polygon","coordinates":[[[120.475388,24.207095],[120.558116,24.385891],[120.62133,24.455984],[120.698297,24.37027],[120.852603,24.292006],[120.918749,24.303995],[120.943037,24.340892],[121.043082,24.303297],[121.265498,24.435201],[121.330352,24.432566],[121.333297,24.400449],[121.4567,24.37275],[121.343477,24.235472],[121.167519,24.222811],[121.0236,24.161213],[120.99585,24.128683],[120.948463,24.148681],[120.915131,24.115479],[120.85374,24.119613],[120.767647,24.013082],[120.630188,24.03998],[120.605486,24.096591],[120.543888,24.121112],[120.512779,24.188369],[120.475388,24.207095]]]}},{"type":"Feature","properties":{"country_code":"TW","region_code":"TW-CHA","name":"Changhua","native_name":"Changhua","type":"County"},"geometry":{"type":"Polygon","coordinates":[[[120.243934,23.838454],[120.340099,24.021796],[120.475388,24.207095],[120.512779,24.188369],[120.543888,24.121112],[120.605486,24.096591],[120.630188,24.03998],[120.667188,24.024942],[120.62657,23.854203],[120.684138,23.805963],[120.64352,23.772477],[120.385138,23.830897],[120.243934,23.838454]]]}},{"type":"Feature","properties":{"country_code":"TW","region_code":"TW-YUN","name":"Yunlin","native_name":"Yunlin","type":"County"},"geometry":{"type":"Polygon","coordinates":[[[120.124262,23.520021],[120.184418,23.76439],[120.243934,23.838454],[120.647448,23.774932],[120.636285,23.64357],[120.740672,23.616311],[120.737365,23.587139],[120.653855,23.57205],[120.46782,23.638816],[120.330568,23.59086],[120.223081,23.508178],[120.124262,23.520021]]]}},{"type":"Feature","properties":{"country_code":"TW","region_code":"TW-CYQ","name":"Chiayi","native_name":"Chiayi","type":"County"},"geometry":{"type":"MultiPolygon","coordinates":[[[[120.116527,23.317897],[120.148936,23.322252],[120.120942,23.329739],[120.130149,23.36096],[120.164577,23.361711],[120.130544,23.450995],[120.157544,23.491476],[120.125029,23.489611],[120.124262,23.520021],[120.223081,23.508178],[120.252433,23.546625],[120.419865,23.630548],[120.494072,23.640056],[120.533139,23.603469],[120.626777,23.597475],[120.653855,23.57205],[120.737365,23.587139],[120.738811,23.616492],[120.763823,23.614011],[120.824801,23.591067],[120.811985,23.554687],[120.832449,23.481513],[120.962157,23.475389],[120.891774,23.442445],[120.753488,23.322556],[120.658403,23.297338],[120.653442,23.22866],[120.536653,23.2376],[120.533553,23.329377],[120.481463,23.397177],[120.438881,23.41392],[120.319199,23.390149],[120.197656,23.300025],[120.116527,23.317897]],[[120.454591,23.445339],[120.508955,23.464563],[120.489938,23.502183],[120.453144,23.517273],[120.373562,23.494949],[120.37687,23.475312],[120.454591,23.445339]]],[[[120.007656,23.432594],[120.115251,23.547912],[120.12477,23.550454],[120.007656,23.432594]]]]}},{"type":"Feature","properties":{"country_code":"TW","region_code":"TW-TNN","name":"Tainan","native_name":"Tainan City","type":"Special Municipality"},"geometry":{"type":"Polygon","coordinates":[[[120.167491,22.931871],[120.1421,22.980292],[120.166189,23.031724],[120.114106,23.007636],[120.107921,23.04857],[120.066254,23.034898],[120.052419,23.055813],[120.100434,23.096991],[120.059418,23.110663],[120.089203,23.117743],[120.059418,23.151028],[120.086925,23.182034],[120.116527,23.317897],[120.197656,23.300025],[120.319199,23.390149],[120.438881,23.41392],[120.481463,23.397177],[120.533553,23.329377],[120.536653,23.2376],[120.653442,23.22866],[120.567039,23.093113],[120.401674,22.91948],[120.284266,22.896536],[120.206544,22.912865],[120.190938,22.944801],[120.167491,22.931871]]]}},{"type":"Feature","properties":{"country_code":"TW","region_code":"TW-KHH","name":"Kaohsiung","native_name":"Kaohsiung City","type":"Special Municipality"},"geometry":{"type":"Polygon","coordinates":[[[120.411864,22.482887],[120.331228,22.519721],[120.285167,22.580064],[120.333669,22.525946],[120.313487,22.577053],[120.245779,22.642524],[120.252126,22.689643],[120.199962,22.792467],[120.167491,22.931871],[120.190938,22.944801],[120.206544,22.912865],[120.284266,22.896536],[120.401674,22.91948],[120.64476,23.205561],[120.658403,23.297338],[120.753488,23.322556],[120.891774,23.442445],[120.962157,23.475389],[121.000914,23.463943],[121.026546,23.4164],[120.992439,23.365344],[121.049594,23.299353],[120.920919,23.240494],[120.926087,23.199566],[120.887846,23.168354],[120.881025,23.02428],[120.823354,22.944285],[120.868003,22.859949],[120.784493,22.837211],[120.733437,22.887647],[120.680727,22.860775],[120.630911,22.883927],[120.540581,22.83349],[120.472781,22.837211],[120.43144,22.635053],[120.442809,22.554851],[120.411864,22.482887]]]}},{"type":"Feature","properties":{"country_code":"TW","region_code":"TW-PIF","name":"Pingtung","native_name":"Pingtung","type":"County"},"geometry":{"type":"Polygon","coordinates":[[[120.875987,22.237698],[120.879242,22.055813],[120.835704,21.98725],[120.840343,21.904608],[120.767426,21.959296],[120.737315,21.966132],[120.714366,21.937486],[120.681651,22.022528],[120.696951,22.113227],[120.621267,22.295071],[120.569672,22.373847],[120.411864,22.482887],[120.442809,22.554851],[120.43144,22.635053],[120.472781,22.837211],[120.540581,22.83349],[120.630911,22.883927],[120.680727,22.860775],[120.733437,22.887647],[120.784493,22.837211],[120.853326,22.858321],[120.869243,22.818194],[120.910584,22.800831],[120.891774,22.716908],[120.786974,22.671433],[120.752247,22.598879],[120.765477,22.459146],[120.793175,22.421939],[120.753488,22.367576],[120.788628,22.332436],[120.802684,22.270217],[120.875987,22.237698]]]}},{"type":"Feature","properties":{"country_code":"TW","region_code":"TW-TTT","name":"Taitung","native_name":"Taitung","type":"County"},"geometry":{"type":"MultiPolygon","coordinates":[[[[121.479501,23.435197],[121.462169,23.343004],[121.408865,23.254584],[121.400076,23.145494],[121.347423,23.083319],[121.299571,22.959174],[121.190278,22.843166],[121.159353,22.757473],[121.021007,22.647895],[120.886567,22.365953],[120.875987,22.237698],[120.820047,22.253061],[120.753488,22.367576],[120.793175,22.421939],[120.765477,22.459146],[120.752247,22.598879],[120.786974,22.671433],[120.899422,22.734272],[120.910584,22.800831],[120.869243,22.818194],[120.823354,22.944285],[120.881025,23.02428],[120.887846,23.168354],[120.926087,23.199566],[120.920919,23.240494],[121.049594,23.299353],[121.073055,23.245248],[121.190463,23.200186],[121.225397,23.144169],[121.301258,23.106342],[121.325856,23.119364],[121.419287,23.353562],[121.410605,23.401518],[121.479501,23.435197]]],[[[121.56658,22.08218],[121.587657,22.013861],[121.513194,22.035061],[121.492035,22.08218],[121.56658,22.08218]]],[[[121.496104,22.63467],[121.45753,22.67593],[121.502778,22.669501],[121.496104,22.63467]]]]}},{"type":"Feature","properties":{"country_code":"TW","region_code":"TW-HUA","name":"Hualien","native_name":"Hualien","type":"County"},"geometry":{"type":"Polygon","coordinates":[[[121.646508,24.369986],[121.772716,24.309231],[121.662852,24.193101],[121.607432,24.07685],[121.629161,24.01496],[121.521495,23.658677],[121.479501,23.435197],[121.410605,23.401518],[121.419287,23.353562],[121.325856,23.119364],[121.270045,23.110476],[121.190463,23.200186],[121.073055,23.245248],[121.037708,23.334752],[120.988719,23.379193],[121.053934,23.458568],[121.058895,23.50363],[121.13486,23.523603],[121.175167,23.587811],[121.221263,23.608508],[121.244259,23.699303],[121.215992,23.771263],[121.274438,23.901332],[121.277073,24.015847],[121.326786,24.08915],[121.290561,24.17514],[121.349627,24.201185],[121.343477,24.235472],[121.4567,24.37275],[121.579587,24.330712],[121.646508,24.369986]]]}},{"type":"Feature","properties":{"country_code":"TW","region_code":"TW-ILA","name":"Yilan","native_name":"Yilan","type":"County"},"geometry":{"type":"Polygon","coordinates":[[[121.972333,24.987068],[121.905772,24.9501],[121.814626,24.831732],[121.814952,24.644355],[121.881847,24.597805],[121.840831,24.590318],[121.855968,24.550523],[121.830089,24.519232],[121.840017,24.48135],[121.78004,24.432685],[121.763345,24.325804],[121.646508,24.369986],[121.579587,24.330712],[121.434531,24.389028],[121.382855,24.379081],[121.333297,24.400449],[121.316451,24.436002],[121.400477,24.541422],[121.414326,24.600669],[121.463108,24.621624],[121.451223,24.664619],[121.59726,24.736966],[121.598552,24.786446],[121.774666,24.873262],[121.843705,24.925895],[121.845772,24.961448],[121.972333,24.987068]]]}},{"type":"Feature","properties":{"country_code":"TW","region_code":"TW-TPQ","name":"New Taipei","native_name":"New Taipei City","type":"Special Municipality"},"geometry":{"type":"Polygon","coordinates":[[[121.761267,25.142604],[121.905121,25.106594],[121.9192,25.02204],[122.005382,25.001899],[121.845772,24.961448],[121.843705,24.925895],[121.616587,24.800218],[121.591266,24.769341],[121.59726,24.736966],[121.483314,24.681078],[121.439957,24.729137],[121.449052,24.797324],[121.417065,24.839905],[121.350144,24.855331],[121.326941,24.931295],[121.330248,24.972636],[121.393914,24.999766],[121.408641,25.040151],[121.287414,25.123679],[121.38738,25.159329],[121.443207,25.13642],[121.399099,25.192125],[121.461274,25.261908],[121.539724,25.287421],[121.597911,25.27143],[121.649669,25.197089],[121.684418,25.200507],[121.689261,25.169472],[121.633124,25.141153],[121.677462,25.082449],[121.729035,25.059918],[121.773374,25.069219],[121.761267,25.142604]],[[121.602841,24.970621],[121.655241,25.024364],[121.623615,25.044208],[121.629093,25.084516],[121.564498,25.205852],[121.462178,25.120172],[121.498455,25.086583],[121.512098,25.016303],[121.602841,24.970621]]]}},{"type":"Feature","properties":{"country_code":"TW","region_code":"TW-KEE","name":"Keelung","native_name":"Keelung City","type":"Provincial City"},"geometry":{"type":"Polygon","coordinates":[[[121.689261,25.169472],[121.761267,25.142604],[121.773374,25.069219],[121.729035,25.059918],[121.652658,25.106426],[121.633124,25.141153],[121.689261,25.169472]]]}},{"type":"Feature","properties":{"country_code":"TW","region_code":"TW-KIN","name":"Kinmen","native_name":"Kinmen","type":"County"},"geometry":{"type":"Polygon","coordinates":[[[118.394216,24.522691],[118.44959,24.505528],[118.463356,24.431523],[118.448785,24.415513],[118.372856,24.433201],[118.318218,24.390544],[118.283946,24.401272],[118.282074,24.477362],[118.316657,24.493349],[118.381414,24.473511],[118.394216,24.522691]]]}},{"type":"Feature","properties":{"country_code":"TW","region_code":"TW-PEN","name":"Penghu","native_name":"Penghu","type":"County"},"geometry":{"type":"MultiPolygon","coordinates":[[[[119.64796,23.603461],[119.668468,23.548814],[119.640636,23.563544],[119.563975,23.516588],[119.52711,23.539984],[119.587169,23.548814],[119.552419,23.562486],[119.552419,23.590399],[119.64796,23.603461]]],[[[119.442393,23.562486],[119.501313,23.650377],[119.517345,23.6376],[119.49171,23.571031],[119.442393,23.562486]]],[[[119.572602,23.627672],[119.545258,23.664944],[119.566417,23.679185],[119.596202,23.653266],[119.572602,23.627672]]]]}},{"type":"Feature","properties":{"country_code":"TW","region_code":"TW-NAN","name":"Nantou","native_name":"Nantou","type":"County"},"geometry":{"type":"Polygon","coordinates":[[[121.274799,24.243482],[121.343477,24.235472],[121.349627,24.201185],[121.290561,24.17514],[121.326786,24.08915],[121.277073,24.015847],[121.274438,23.901332],[121.215992,23.771263],[121.244259,23.699303],[121.221263,23.608508],[121.175167,23.587811],[121.13486,23.523603],[121.058895,23.50363],[121.053934,23.458568],[121.019311,23.436683],[120.978797,23.471798],[120.832449,23.481513],[120.811985,23.554687],[120.824801,23.591067],[120.636285,23.64357],[120.647448,23.774932],[120.684138,23.805963],[120.62657,23.854203],[120.651065,24.002334],[120.66724,24.020085],[120.767647,24.013082],[120.85374,24.119613],[120.915131,24.115479],[120.948463,24.148681],[120.99585,24.128683],[121.117135,24.203794],[121.274799,24.243482]]]}},{"type":"Feature","properties":{"country_code":"TW","region_code":"TW-TPE","name":"Taipei","native_name":"Taipei City","type":"Special Municipality"},"geometry":{"type":"Polygon","coordinates":[[[121.564498,25.205852],[121.629093,25.084516],[121.623615,25.044208],[121.655241,25.024364],[121.602841,24.970621],[121.512098,25.016303],[121.498455,25.086583],[121.462178,25.120172],[121.564498,25.205852]]]}},{"type":"Feature","properties":{"country_code":"TW","region_code":"TW-CYI","name":"Chiayi","native_name":"Chiayi City","type":"Provincial City"},"geometry":{"type":"Polygon","coordinates":[[[120.453144,23.517273],[120.508955,23.464563],[120.454591,23.445339],[120.37687,23.475312],[120.387825,23.509211],[120.453144,23.517273]]]}}]}