{"type":"FeatureCollection","features":[{"type":"Feature","properties":{"country_code":"VN","region_code":"VN-28","name":"Kon Tum","native_name":"Kon Tum","type":"Province"},"geometry":{"type":"Polygon","coordinates":[[[107.386912,14.421912],[107.455745,14.433875],[107.505252,14.541026],[107.532433,14.677942],[107.490885,14.80424],[107.558168,14.886715],[107.461947,14.956814],[107.445565,15.025389],[107.578012,15.047248],[107.62726,15.196515],[107.656818,15.205688],[107.657594,15.282427],[107.579872,15.361234],[107.57636,15.403054],[107.602559,15.410119],[107.689272,15.371233],[107.721518,15.304803],[107.776657,15.296043],[107.850503,15.227727],[107.948584,15.226254],[108.006152,15.194448],[108.070231,15.135097],[108.069456,15.052156],[108.138495,14.956478],[108.190017,14.987199],[108.202936,15.063913],[108.296574,15.048126],[108.392537,14.964255],[108.442198,14.877516],[108.560227,14.811008],[108.618156,14.640605],[108.493874,14.609238],[108.416411,14.624534],[108.410985,14.516143],[108.336364,14.430696],[108.153223,14.33003],[107.72002,14.185594],[107.658266,14.138078],[107.571657,14.011186],[107.445988,13.921636],[107.424481,13.994056],[107.354563,14.002402],[107.31994,14.119837],[107.358594,14.238615],[107.351773,14.341968],[107.386912,14.421912]]]}},{"type":"Feature","properties":{"country_code":"VN","region_code":"VN-72","name":"Đắk Nông","native_name":"Đắk Nông","type":"Region"},"geometry":{"type":"Polygon","coordinates":[[[107.39301,12.252845],[107.514295,12.343847],[107.55667,12.472676],[107.565093,12.606415],[107.540081,12.716693],[107.84221,12.720738],[107.910167,12.537869],[108.00587,12.486843],[107.977794,12.433539],[107.935313,12.424994],[107.941173,12.353827],[107.97877,12.307074],[108.046397,12.290798],[108.128673,12.200792],[108.113949,12.143445],[107.998607,12.125746],[107.984861,12.081072],[108.087904,11.940176],[108.079533,11.850491],[107.997935,11.769644],[107.970754,11.795094],[107.914891,11.793182],[107.893342,11.857623],[107.771696,11.849975],[107.718314,11.909635],[107.56344,11.786904],[107.443499,11.744426],[107.390427,11.751764],[107.400194,11.797523],[107.35968,11.918213],[107.258084,12.020119],[107.227824,12.310592],[107.320198,12.329223],[107.39301,12.252845]]]}},{"type":"Feature","properties":{"country_code":"VN","region_code":"VN-33","name":"Đắk Lắk","native_name":"Đắk Lắk","type":"Region"},"geometry":{"type":"Polygon","coordinates":[[[107.540081,12.716693],[107.535947,12.799633],[107.487371,12.870559],[107.460396,13.021609],[107.561597,13.262014],[107.680901,13.332882],[107.945949,13.347713],[108.069301,13.388537],[108.364476,13.294899],[108.409538,13.251388],[108.472118,13.073853],[108.514648,13.032745],[108.660841,12.996235],[108.739182,12.880351],[108.817679,12.828365],[109.037304,12.752659],[108.898242,12.669873],[108.847961,12.47544],[108.766519,12.497015],[108.676602,12.478774],[108.68146,12.302996],[108.603532,12.271396],[108.499455,12.298552],[108.409125,12.235352],[108.322567,12.232716],[108.262467,12.197499],[108.242468,12.157036],[108.148262,12.171221],[108.117566,12.151868],[108.128673,12.200792],[108.076589,12.264228],[107.97877,12.307074],[107.941173,12.353827],[107.935313,12.424994],[107.977794,12.433539],[108.00587,12.486843],[107.910167,12.537869],[107.84221,12.720738],[107.540081,12.716693]]]}},{"type":"Feature","properties":{"country_code":"VN","region_code":"VN-30","name":"Gia Lai","native_name":"Gia Lai","type":"Region"},"geometry":{"type":"Polygon","coordinates":[[[107.561597,13.262014],[107.606951,13.369754],[107.604315,13.498531],[107.514295,13.69255],[107.44324,13.783475],[107.445988,13.921636],[107.571657,14.011186],[107.658266,14.138078],[107.72002,14.185594],[108.153223,14.33003],[108.336364,14.430696],[108.410985,14.516143],[108.416411,14.624534],[108.493874,14.609238],[108.618156,14.640605],[108.666887,14.595957],[108.687144,14.45718],[108.635519,14.152496],[108.659135,14.077513],[108.714998,14.008473],[108.715773,13.906955],[108.807602,13.74681],[108.821709,13.430498],[108.876693,13.225472],[108.865014,13.19444],[108.687816,13.071295],[108.660841,12.996235],[108.514648,13.032745],[108.472118,13.073853],[108.387421,13.278931],[108.107489,13.384196],[108.030853,13.383705],[107.928431,13.345336],[107.680901,13.332882],[107.561597,13.262014]]]}},{"type":"Feature","properties":{"country_code":"VN","region_code":"VN-58","name":"Bình Phước","native_name":"Bình Phước","type":"Province"},"geometry":{"type":"Polygon","coordinates":[[[106.879295,12.062727],[106.977687,12.097247],[107.152508,12.27703],[107.227824,12.310592],[107.258084,12.020119],[107.345417,11.940874],[107.400194,11.797523],[107.390427,11.751764],[107.327589,11.717812],[107.284439,11.654896],[107.30852,11.566219],[107.119178,11.48793],[107.057114,11.367963],[106.964769,11.283627],[106.791291,11.335303],[106.71822,11.306907],[106.725352,11.337319],[106.696206,11.360831],[106.677551,11.325304],[106.638277,11.319645],[106.619053,11.43137],[106.524692,11.481832],[106.464334,11.553326],[106.489345,11.561155],[106.471362,11.653578],[106.398859,11.746313],[106.438753,11.863721],[106.394002,11.969813],[106.442061,11.974877],[106.473738,11.952088],[106.504537,11.973379],[106.680496,11.965059],[106.771963,12.065828],[106.879295,12.062727]]]}},{"type":"Feature","properties":{"country_code":"VN","region_code":"VN-37","name":"Tây Ninh","native_name":"Tây Ninh","type":"Province"},"geometry":{"type":"Polygon","coordinates":[[[106.412812,11.66177],[106.460303,11.669521],[106.489965,11.573506],[106.378861,11.437183],[106.343308,11.344398],[106.352299,11.257866],[106.421391,11.156399],[106.4186,11.06501],[106.363668,10.982147],[106.302793,11.024573],[106.284913,10.985635],[106.178357,10.963905],[106.148745,11.070721],[106.113502,11.086921],[106.08663,11.056329],[105.988755,11.176967],[105.899871,11.218593],[105.886746,11.267944],[105.844423,11.28988],[105.873827,11.428244],[105.857807,11.535628],[105.80334,11.56622],[105.793418,11.607303],[105.840857,11.658153],[105.934081,11.642856],[106.01542,11.770497],[106.223624,11.72497],[106.274112,11.676808],[106.354314,11.69014],[106.412812,11.66177]]]}},{"type":"Feature","properties":{"country_code":"VN","region_code":"VN-41","name":"Long An","native_name":"Long An","type":"Province"},"geometry":{"type":"Polygon","coordinates":[[[105.726135,11.018372],[105.769699,10.996462],[105.878684,10.828074],[105.908656,10.838383],[105.931342,10.896364],[106.0179,10.819806],[106.177322,10.766863],[106.122494,10.955508],[106.284913,10.985635],[106.296282,11.022635],[106.316023,11.019922],[106.51167,10.885615],[106.526759,10.825644],[106.504538,10.723222],[106.645305,10.639041],[106.697446,10.65457],[106.737289,10.631832],[106.733409,10.522447],[106.688813,10.503648],[106.655772,10.521877],[106.668712,10.494534],[106.594249,10.439276],[106.579926,10.487738],[106.586762,10.438707],[106.615408,10.436591],[106.58474,10.414429],[106.466194,10.413887],[106.443095,10.423214],[106.440614,10.471764],[106.355917,10.506775],[106.288324,10.583024],[106.1458,10.589948],[106.078414,10.54393],[105.922972,10.567056],[105.527285,10.932873],[105.523603,10.951294],[105.726135,11.018372]]]}},{"type":"Feature","properties":{"country_code":"VN","region_code":"VN-45","name":"Đồng Tháp","native_name":"Ðong Tháp","type":"Province"},"geometry":{"type":"Polygon","coordinates":[[[105.473851,10.94091],[105.523603,10.951294],[105.866024,10.607932],[105.962659,10.553465],[105.948551,10.480704],[105.842563,10.352521],[105.849023,10.301439],[105.78236,10.330765],[105.711615,10.402337],[105.566611,10.456416],[105.514935,10.529797],[105.387242,10.59925],[105.36931,10.70268],[105.293759,10.707564],[105.21981,10.830269],[105.209145,10.891647],[105.317891,10.838849],[105.410496,10.963001],[105.473851,10.94091]]]}},{"type":"Feature","properties":{"country_code":"VN","region_code":"VN-44","name":"An Giang","native_name":"An Giang","type":"Province"},"geometry":{"type":"Polygon","coordinates":[[[105.077906,10.946904],[105.097543,10.914348],[105.209145,10.891647],[105.21981,10.830269],[105.293759,10.707564],[105.36931,10.70268],[105.387242,10.59925],[105.514935,10.529797],[105.582992,10.44652],[105.534106,10.402802],[105.473438,10.275342],[105.429978,10.273533],[105.377527,10.233122],[105.320269,10.276944],[105.241463,10.19961],[104.887686,10.382467],[104.724425,10.521338],[104.854406,10.531322],[104.931352,10.630696],[105.066744,10.713947],[105.011399,10.883833],[105.077906,10.946904]]]}},{"type":"Feature","properties":{"country_code":"VN","region_code":"VN-47","name":"Kiên Giang","native_name":"Kiên Giang","type":"Province"},"geometry":{"type":"MultiPolygon","coordinates":[[[[104.566826,10.528067],[104.724425,10.521338],[104.887686,10.382467],[105.241463,10.19961],[105.525735,9.940841],[105.503979,9.834258],[105.367605,9.701889],[105.392255,9.586831],[105.296033,9.600319],[105.310192,9.515518],[105.27836,9.4595],[105.294845,9.413508],[105.240533,9.416919],[105.023905,9.528256],[104.877867,9.506138],[104.834136,9.534434],[104.856558,9.738037],[104.892789,9.851095],[104.969981,9.853664],[105.076671,9.943427],[105.113292,9.857082],[105.107107,9.952704],[105.003266,10.092108],[104.901052,10.097317],[104.771983,10.22663],[104.707367,10.222317],[104.65089,10.144477],[104.613048,10.144477],[104.588878,10.260891],[104.551524,10.295885],[104.537364,10.282213],[104.499034,10.370592],[104.524913,10.41942],[104.469574,10.378485],[104.451345,10.419664],[104.494273,10.427737],[104.566826,10.528067]]],[[[104.082042,10.370998],[104.08546,10.248114],[104.033458,10.096015],[104.05128,10.007961],[104.01059,10.030463],[103.957042,10.233791],[103.857432,10.320868],[103.846039,10.371283],[103.933767,10.36636],[104.004731,10.450995],[104.082042,10.370998]]]]}},{"type":"Feature","properties":{"country_code":"VN","region_code":"VN-71","name":"Điện Biên","native_name":"Điện Biên","type":"Province"},"geometry":{"type":"Polygon","coordinates":[[[102.653455,21.656302],[102.625136,21.828643],[102.59103,21.901352],[102.478065,21.957576],[102.482871,22.021396],[102.38944,22.117101],[102.20697,22.245413],[102.154364,22.304686],[102.118655,22.397549],[102.164544,22.425506],[102.218029,22.410675],[102.252549,22.495476],[102.324649,22.565118],[102.523204,22.561957],[102.644949,22.436225],[102.776785,22.360378],[102.828543,22.228339],[102.84547,22.20543],[102.908376,22.202948],[102.934662,22.137397],[103.040294,22.147732],[103.140147,22.085557],[103.264415,22.048041],[103.28419,22.054267],[103.263113,22.075995],[103.323985,22.149482],[103.38323,22.14997],[103.452159,22.048367],[103.461681,21.990302],[103.550403,21.886907],[103.561565,21.610542],[103.4455,21.452463],[103.376254,21.395361],[103.44643,21.289502],[103.418628,21.145919],[103.437749,21.072823],[103.379871,21.052514],[103.28768,21.077964],[103.291504,21.024893],[103.248561,20.97748],[103.225829,20.826413],[103.115287,20.868391],[103.014518,21.040526],[102.951576,21.068999],[102.925634,21.141656],[102.889099,21.166409],[102.887859,21.226923],[102.801301,21.254828],[102.875198,21.305316],[102.883828,21.38836],[102.918038,21.450113],[102.84967,21.425412],[102.974107,21.575325],[102.947804,21.737124],[102.84719,21.704464],[102.806727,21.836084],[102.752157,21.6809],[102.653455,21.656302]]]}},{"type":"Feature","properties":{"country_code":"VN","region_code":"VN-05","name":"Sơn La","native_name":"Son La","type":"Region"},"geometry":{"type":"Polygon","coordinates":[[[104.221059,20.892008],[104.193877,20.929886],[104.056676,20.958825],[104.010581,20.908079],[103.785324,20.845964],[103.754576,20.742921],[103.70724,20.721837],[103.714268,20.671711],[103.676338,20.656518],[103.577946,20.732896],[103.489373,20.752481],[103.440435,20.815733],[103.358321,20.787725],[103.225829,20.826413],[103.248561,20.97748],[103.291504,21.024893],[103.28768,21.077964],[103.379871,21.052514],[103.437749,21.072823],[103.418628,21.145919],[103.44643,21.289502],[103.376254,21.395361],[103.4455,21.452463],[103.561565,21.610542],[103.535624,21.982767],[103.56942,22.033591],[103.634946,22.02416],[103.711014,21.861198],[103.856534,21.715858],[103.925264,21.719786],[104.169797,21.659298],[104.288033,21.708003],[104.326687,21.69989],[104.349528,21.653614],[104.310977,21.495536],[104.357124,21.416393],[104.469727,21.362262],[104.582278,21.413215],[104.673642,21.382623],[104.735602,21.391046],[104.779372,21.334848],[104.828516,21.329603],[104.865775,21.250202],[104.87363,21.137625],[104.908615,21.1014],[104.880141,21.022516],[104.913524,20.963785],[105.0931,20.794312],[104.994398,20.732895],[104.857404,20.727882],[104.842934,20.625718],[104.759787,20.574145],[104.492309,20.702097],[104.452621,20.763592],[104.389059,20.770981],[104.278937,20.891542],[104.221059,20.892008]]]}},{"type":"Feature","properties":{"country_code":"VN","region_code":"VN-21","name":"Thanh Hóa","native_name":"Thanh Hóa","type":"Province"},"geometry":{"type":"Polygon","coordinates":[[[104.495823,20.511927],[104.542642,20.535699],[104.614071,20.642616],[104.759787,20.574145],[104.842934,20.625718],[105.066693,20.575437],[105.137955,20.590836],[105.308797,20.456323],[105.542633,20.367103],[105.819464,20.155643],[106.059966,20.060249],[106.064462,20.022654],[105.955577,19.925482],[105.928884,19.793647],[105.915294,19.807318],[105.867442,19.773179],[105.928884,19.780015],[105.895274,19.72134],[105.866954,19.721096],[105.819021,19.587592],[105.817556,19.610012],[105.803884,19.613023],[105.790863,19.603461],[105.819021,19.57392],[105.812755,19.423163],[105.771251,19.403266],[105.810069,19.321479],[105.791759,19.320705],[105.806243,19.274315],[105.686965,19.309468],[105.534365,19.454162],[105.416129,19.473179],[105.342439,19.548161],[105.276965,19.51421],[105.262237,19.619991],[105.168082,19.714042],[105.138213,19.786803],[105.13997,19.82755],[105.179554,19.878167],[105.169116,19.904548],[104.945688,19.992373],[104.943961,20.067097],[104.964425,20.076088],[104.904893,20.134638],[104.907994,20.175333],[104.819162,20.220989],[104.69085,20.196546],[104.657053,20.212695],[104.653539,20.266464],[104.688628,20.301036],[104.684648,20.333049],[104.589357,20.406818],[104.432364,20.411055],[104.35981,20.439735],[104.444973,20.534613],[104.495823,20.511927]]]}},{"type":"Feature","properties":{"country_code":"VN","region_code":"VN-22","name":"Nghệ An","native_name":"Nghệ An","type":"Province"},"geometry":{"type":"Polygon","coordinates":[[[104.873836,19.982657],[104.962927,19.988418],[105.179554,19.890957],[105.138213,19.786803],[105.168082,19.714042],[105.262237,19.619991],[105.276965,19.51421],[105.342439,19.548161],[105.416129,19.473179],[105.534365,19.454162],[105.686965,19.309468],[105.806243,19.274315],[105.743419,19.23192],[105.737071,19.108466],[105.695567,19.081122],[105.668305,19.089545],[105.614268,18.998603],[105.634776,18.909817],[105.716645,18.85456],[105.702891,18.834133],[105.675059,18.85456],[105.757579,18.77204],[105.750743,18.662787],[105.688981,18.621887],[105.680919,18.577316],[105.412305,18.587522],[105.274329,18.625814],[105.169477,18.618327],[105.112684,18.698343],[104.919725,18.735576],[104.872906,18.777976],[104.71028,18.796089],[104.556078,18.89647],[104.497683,18.967991],[104.413244,18.983106],[104.25992,19.104055],[104.210621,19.100747],[104.198115,19.146946],[104.14773,19.182887],[104.036729,19.230249],[103.972754,19.225288],[103.892655,19.293888],[103.84842,19.299908],[103.952807,19.390962],[104.03828,19.412925],[104.060501,19.471293],[104.089956,19.48367],[104.071559,19.559143],[104.017351,19.600407],[104.000969,19.680738],[104.088716,19.651902],[104.13631,19.687456],[104.228966,19.706008],[104.295267,19.654874],[104.380068,19.685285],[104.505848,19.60281],[104.614265,19.607435],[104.675967,19.724689],[104.805003,19.790886],[104.81663,19.848092],[104.760716,19.86145],[104.761801,19.885506],[104.873836,19.982657]]]}},{"type":"Feature","properties":{"country_code":"VN","region_code":"VN-23","name":"Hà Tĩnh","native_name":"Ha Tinh","type":"Region"},"geometry":{"type":"Polygon","coordinates":[[[105.113615,18.580831],[105.169477,18.618327],[105.274329,18.625814],[105.412305,18.587522],[105.503462,18.597056],[105.661799,18.57021],[105.714664,18.647803],[105.77003,18.671576],[105.764415,18.758979],[105.879242,18.510932],[105.915294,18.47309],[105.949474,18.471015],[105.977306,18.402086],[106.110118,18.275539],[106.093435,18.258734],[106.165782,18.26557],[106.270844,18.204088],[106.346039,18.132717],[106.354015,18.114691],[106.306326,18.100491],[106.340343,18.100491],[106.34669,18.059475],[106.360199,18.100491],[106.434825,18.123521],[106.427745,18.072903],[106.518565,17.957017],[106.350026,17.967379],[106.278454,17.908416],[106.138669,17.92888],[106.062601,17.955649],[106.028495,18.038641],[105.927157,18.070784],[105.603431,17.969184],[105.476021,18.127318],[105.46672,18.180959],[105.410031,18.201888],[105.368328,18.149953],[105.321871,18.170081],[105.29505,18.195609],[105.292518,18.252737],[105.235933,18.249456],[105.156661,18.319839],[105.162862,18.366012],[105.079973,18.454353],[105.113615,18.580831]]]}},{"type":"Feature","properties":{"country_code":"VN","region_code":"VN-24","name":"Quảng Bình","native_name":"Quảng Bình","type":"Province"},"geometry":{"type":"Polygon","coordinates":[[[106.185435,17.257397],[105.819876,17.621561],[105.723086,17.673496],[105.605212,17.85426],[105.603431,17.969184],[105.927157,18.070784],[106.028495,18.038641],[106.062601,17.955649],[106.138669,17.92888],[106.278454,17.908416],[106.350026,17.967379],[106.518565,17.957017],[106.436046,17.881985],[106.489513,17.702582],[106.374522,17.765286],[106.285167,17.772121],[106.42921,17.731147],[106.383067,17.719184],[106.408702,17.682766],[106.39503,17.703192],[106.417491,17.712958],[106.504405,17.682766],[106.634613,17.470404],[106.763927,17.335517],[107.007498,17.162218],[106.90255,17.100455],[106.816922,16.978757],[106.78602,16.966252],[106.588202,16.972168],[106.53355,16.950638],[106.524536,16.989248],[106.496838,16.963927],[106.45653,16.97359],[106.411365,16.995708],[106.394932,17.068003],[106.306358,17.176524],[106.284551,17.284786],[106.259953,17.28923],[106.221816,17.244892],[106.185435,17.257397]]]}},{"type":"Feature","properties":{"country_code":"VN","region_code":"VN-25","name":"Quảng Trị","native_name":"Quảng Trị","type":"Province"},"geometry":{"type":"Polygon","coordinates":[[[106.692898,16.427887],[106.64117,16.510363],[106.640188,16.586637],[106.57244,16.613561],[106.540659,16.659139],[106.53355,16.950638],[106.588202,16.972168],[106.749071,16.961342],[106.816922,16.978757],[106.90255,17.100455],[107.007498,17.162218],[107.111827,17.088284],[107.121267,17.018541],[107.200694,16.926256],[107.141775,16.867743],[107.190196,16.874579],[107.216482,16.907945],[107.411632,16.750027],[107.30914,16.619554],[107.11463,16.564312],[107.119023,16.516046],[107.166978,16.46406],[107.068897,16.357064],[107.06798,16.290809],[106.9673,16.299885],[106.876298,16.418017],[106.855885,16.414658],[106.86405,16.504058],[106.846687,16.530052],[106.822864,16.530982],[106.742404,16.421531],[106.692898,16.427887]]]}},{"type":"Feature","properties":{"country_code":"VN","region_code":"VN-26","name":"Thừa Thiên Huế","native_name":"Thừa Thiên - Huế","type":"Province"},"geometry":{"type":"Polygon","coordinates":[[[107.13599,16.184784],[107.116851,16.254616],[107.06798,16.290809],[107.062644,16.343912],[107.166978,16.46406],[107.108326,16.553357],[107.30914,16.619554],[107.411632,16.750027],[107.635265,16.579779],[107.44337,16.648017],[107.635265,16.559272],[107.608409,16.544989],[107.663097,16.551825],[107.663097,16.497219],[107.697113,16.520087],[107.841156,16.379788],[107.794444,16.379218],[107.824067,16.304836],[107.896495,16.278062],[107.937511,16.312079],[107.929942,16.353217],[108.011974,16.319037],[108.042979,16.346381],[108.094493,16.236518],[108.052013,16.262112],[108.053966,16.235989],[108.204356,16.216702],[107.95308,16.21591],[107.885901,16.112531],[107.802547,16.08429],[107.729941,16.014062],[107.662297,16.091421],[107.597133,16.056204],[107.433292,16.055461],[107.431044,16.073697],[107.326864,16.056075],[107.13599,16.184784]]]}},{"type":"Feature","properties":{"country_code":"VN","region_code":"VN-27","name":"Quảng Nam","native_name":"Quàng Nam","type":"Province"},"geometry":{"type":"Polygon","coordinates":[[[107.175246,15.848543],[107.375544,15.919081],[107.444738,16.00998],[107.433292,16.055461],[107.597133,16.056204],[107.662297,16.091421],[107.729941,16.014062],[107.821667,16.092506],[108.000881,16.089974],[108.033747,15.986337],[108.282319,15.990058],[108.388194,15.898383],[108.375173,15.869452],[108.409923,15.880845],[108.455333,15.747016],[108.618663,15.529242],[108.683442,15.517768],[108.667735,15.482652],[108.629405,15.486518],[108.628917,15.455715],[108.652517,15.438788],[108.697113,15.490424],[108.703949,15.445136],[108.761567,15.396552],[108.358068,15.30581],[108.278797,15.196747],[108.326546,15.086444],[108.296574,15.048126],[108.202936,15.063913],[108.190017,14.987199],[108.138495,14.956478],[108.069456,15.052156],[108.070231,15.135097],[108.006152,15.194448],[107.948584,15.226254],[107.850503,15.227727],[107.776657,15.296043],[107.721518,15.304803],[107.701674,15.356401],[107.64974,15.398931],[107.512641,15.409422],[107.487475,15.481408],[107.447891,15.508124],[107.369342,15.496058],[107.316426,15.58874],[107.239118,15.645119],[107.225682,15.71682],[107.148787,15.773457],[107.175246,15.848543]]]}},{"type":"Feature","properties":{"country_code":"VN","region_code":"VN-03","name":"Hà Giang","native_name":"Hà Giang","type":"Province"},"geometry":{"type":"Polygon","coordinates":[[[105.293655,23.366275],[105.359646,23.291551],[105.430856,23.267806],[105.473851,23.194503],[105.528266,23.155513],[105.535192,23.099004],[105.510077,23.086782],[105.488476,23.008389],[105.432924,23.000767],[105.29593,22.865659],[105.451889,22.774812],[105.567644,22.592239],[105.343575,22.600998],[105.179554,22.645311],[105.048865,22.357034],[104.945667,22.344657],[104.929234,22.268021],[104.848257,22.170223],[104.770174,22.181385],[104.689507,22.264429],[104.650853,22.268641],[104.598556,22.233863],[104.594681,22.33166],[104.470864,22.418735],[104.440168,22.553482],[104.478719,22.582885],[104.361911,22.692536],[104.553545,22.836049],[104.588427,22.806852],[104.715344,22.827083],[104.823606,22.924132],[104.797923,23.085569],[104.861279,23.119598],[104.870064,23.163548],[104.935072,23.154273],[105.06106,23.232459],[105.155627,23.26685],[105.200896,23.254008],[105.293655,23.366275]]]}},{"type":"Feature","properties":{"country_code":"VN","region_code":"VN-04","name":"Cao Bằng","native_name":"Cao Bằng","type":"Province"},"geometry":{"type":"Polygon","coordinates":[[[105.535192,23.099004],[105.551572,23.059679],[105.690324,23.043969],[105.754712,23.005677],[105.853879,22.90465],[105.875997,22.928266],[105.961211,22.9324],[105.999245,22.975369],[106.132105,22.975007],[106.202385,22.946998],[106.255405,22.854653],[106.457977,22.888966],[106.487794,22.925423],[106.58169,22.89527],[106.610371,22.85287],[106.667473,22.86752],[106.730363,22.797628],[106.798731,22.784373],[106.746641,22.744349],[106.680186,22.57945],[106.646338,22.568804],[106.607632,22.609991],[106.577143,22.595314],[106.533028,22.403445],[106.49658,22.384035],[106.39855,22.378066],[106.272098,22.4454],[106.162078,22.408839],[106.107922,22.530563],[106.082342,22.542319],[105.861477,22.475011],[105.815123,22.505267],[105.765255,22.617302],[105.773833,22.713704],[105.693012,22.711095],[105.567644,22.592239],[105.451889,22.774812],[105.29593,22.865659],[105.432924,23.000767],[105.488476,23.008389],[105.510077,23.086782],[105.535192,23.099004]]]}},{"type":"Feature","properties":{"country_code":"VN","region_code":"VN-02","name":"Lào Cai","native_name":"Lào Cai","type":"Province"},"geometry":{"type":"Polygon","coordinates":[[[104.236821,22.742076],[104.422288,22.651253],[104.472518,22.593376],[104.47939,22.576581],[104.440168,22.553482],[104.470864,22.418735],[104.594681,22.33166],[104.593905,22.240116],[104.628477,22.257918],[104.645427,22.17242],[104.554476,22.095654],[104.453036,22.148752],[104.398879,22.134825],[104.380999,22.099685],[104.443889,21.970752],[104.394176,21.898612],[104.232222,21.960184],[104.196979,21.88714],[104.051768,21.928378],[103.983865,21.97424],[103.911467,21.861147],[103.952446,21.792365],[103.937563,21.738803],[103.856534,21.715858],[103.711014,21.861198],[103.634946,22.02416],[103.56942,22.033591],[103.60115,22.150896],[103.634326,22.192134],[103.726206,22.235956],[103.801757,22.363183],[103.74729,22.41982],[103.652774,22.417702],[103.58792,22.451937],[103.577998,22.482452],[103.613397,22.533715],[103.549923,22.648662],[103.547147,22.700683],[103.590038,22.768017],[103.646934,22.799049],[103.959525,22.507103],[103.985363,22.527153],[104.02381,22.719183],[104.086856,22.791556],[104.241161,22.824396],[104.236821,22.742076]]]}},{"type":"Feature","properties":{"country_code":"VN","region_code":"VN-01","name":"Lai Châu","native_name":"Lai Chau","type":"Province"},"geometry":{"type":"Polygon","coordinates":[[[103.503635,22.581413],[103.549923,22.648662],[103.609624,22.555859],[103.610245,22.517127],[103.577998,22.482452],[103.58792,22.451937],[103.652774,22.417702],[103.74729,22.41982],[103.801757,22.363183],[103.726206,22.235956],[103.634326,22.192134],[103.592571,22.134644],[103.535624,21.982767],[103.550403,21.886907],[103.461681,21.990302],[103.452159,22.048367],[103.38323,22.14997],[103.323985,22.149482],[103.263113,22.075995],[103.28419,22.054267],[103.264415,22.048041],[103.140147,22.085557],[103.040294,22.147732],[102.934662,22.137397],[102.908376,22.202948],[102.84547,22.20543],[102.828543,22.228339],[102.776785,22.360378],[102.644949,22.436225],[102.523204,22.561957],[102.324649,22.565118],[102.384324,22.628852],[102.35585,22.669935],[102.394969,22.680529],[102.425613,22.745305],[102.467781,22.768586],[102.515789,22.745176],[102.535787,22.695825],[102.586689,22.716082],[102.831842,22.599707],[102.902587,22.477234],[103.029039,22.430157],[103.04418,22.486484],[103.142004,22.537799],[103.141745,22.607045],[103.244891,22.668695],[103.321579,22.790393],[103.401729,22.737838],[103.404313,22.688797],[103.447515,22.618259],[103.503635,22.581413]]]}},{"type":"Feature","properties":{"country_code":"VN","region_code":"VN-09","name":"Lạng Sơn","native_name":"Lạng Sơn","type":"Province"},"geometry":{"type":"Polygon","coordinates":[[[106.533028,22.403445],[106.541796,22.345097],[106.63378,22.30944],[106.662926,22.223296],[106.639671,22.190895],[106.672176,22.092503],[106.658947,21.962795],[106.728761,22.008322],[106.781523,21.975042],[106.864774,21.968066],[106.920378,21.916958],[106.991898,21.935355],[107.020217,21.912927],[106.987144,21.844818],[107.002905,21.810556],[107.065847,21.795828],[107.172352,21.715058],[107.272656,21.718314],[107.303197,21.688703],[107.333576,21.612509],[107.233073,21.544318],[107.248886,21.456494],[107.214779,21.40673],[107.100729,21.364045],[107.024093,21.376163],[107.006833,21.441766],[106.92198,21.445022],[106.827929,21.597157],[106.747727,21.549253],[106.658741,21.607364],[106.580399,21.599095],[106.522108,21.544913],[106.477977,21.448304],[106.398705,21.411071],[106.291941,21.477475],[106.165489,21.517137],[106.167505,21.570777],[106.256698,21.684878],[106.141925,21.805336],[106.117688,21.898121],[106.123476,22.054313],[106.190449,22.111777],[106.260005,22.262104],[106.192981,22.406695],[106.25799,22.446175],[106.39855,22.378066],[106.533028,22.403445]]]}},{"type":"Feature","properties":{"country_code":"VN","region_code":"VN-13","name":"Quảng Ninh","native_name":"Quảng Ninh","type":"Province"},"geometry":{"type":"MultiPolygon","coordinates":[[[[107.333576,21.612509],[107.348155,21.599355],[107.426032,21.652065],[107.457037,21.631497],[107.461016,21.596357],[107.509851,21.581785],[107.533053,21.608656],[107.613204,21.605607],[107.777896,21.655992],[107.832363,21.639352],[107.991222,21.485663],[107.929698,21.442613],[107.909679,21.526516],[107.881928,21.534084],[107.868419,21.513617],[107.862804,21.530219],[107.835948,21.488349],[107.826671,21.526679],[107.820567,21.493109],[107.766856,21.520209],[107.752208,21.506781],[107.788585,21.494452],[107.786388,21.458401],[107.748546,21.4112],[107.669037,21.4112],[107.663422,21.378079],[107.63502,21.383246],[107.642345,21.342271],[107.608165,21.335517],[107.590587,21.293891],[107.522309,21.348538],[107.526622,21.298774],[107.415294,21.328681],[107.443126,21.287665],[107.367442,21.273383],[107.360606,21.239244],[107.35434,21.191474],[107.388438,21.184638],[107.35434,21.082221],[107.374278,21.027574],[107.211192,20.992255],[107.23113,20.979193],[107.197032,20.937649],[107.066091,20.958726],[107.149181,21.040595],[107.083751,21.005845],[107.080333,21.03384],[107.063243,21.009345],[107.052989,21.03384],[107.046153,20.999701],[107.044607,21.025092],[107.025645,21.03384],[107.039317,20.999701],[106.997813,21.020168],[107.025645,20.972357],[107.000987,20.951077],[106.85377,20.992255],[106.943126,20.910305],[106.901703,20.907864],[106.874278,20.937649],[106.88795,20.910305],[106.867931,20.882717],[106.833263,20.937649],[106.772472,20.957424],[106.820649,20.97602],[106.798106,21.024807],[106.730805,21.029853],[106.717784,21.005845],[106.44449,21.064373],[106.446351,21.107601],[106.505623,21.138788],[106.545828,21.19372],[106.824364,21.162171],[106.963528,21.198293],[107.007453,21.327432],[107.214779,21.40673],[107.248886,21.456494],[107.233073,21.544318],[107.333576,21.612509]]],[[[107.080333,20.800442],[107.094005,20.787421],[107.075043,20.796047],[107.066091,20.814114],[107.073497,20.780585],[107.031912,20.787421],[107.073497,20.732164],[107.046153,20.70425],[107.046153,20.725979],[107.01824,20.725979],[107.031912,20.746405],[106.985118,20.745266],[106.912852,20.8369],[106.957367,20.876776],[107.005138,20.842027],[107.035981,20.857367],[107.042979,20.831366],[107.107677,20.800442],[107.080333,20.800442]]],[[[106.824555,20.915188],[106.881602,20.821519],[106.873546,20.789537],[106.847504,20.797309],[106.819591,20.876776],[106.819591,20.842027],[106.770681,20.858588],[106.785411,20.930813],[106.824555,20.915188]]],[[[107.525401,20.910305],[107.553233,20.972357],[107.545177,20.919135],[107.463878,20.814114],[107.470714,20.883002],[107.525401,20.910305]]],[[[107.745128,21.020168],[107.792817,20.986029],[107.77296,20.992255],[107.770763,20.957221],[107.738292,20.937649],[107.7588,20.982611],[107.745128,21.020168]]],[[[107.532725,21.020168],[107.55836,21.034735],[107.511729,20.923977],[107.39503,20.897284],[107.474294,20.946723],[107.532725,21.040595],[107.532725,21.020168]]],[[[107.621267,21.116034],[107.5796,20.98314],[107.559418,20.986029],[107.594249,21.089057],[107.621267,21.116034]]],[[[107.532725,21.19892],[107.606212,21.217434],[107.470714,21.095893],[107.388682,21.047512],[107.372895,21.059556],[107.418305,21.196682],[107.450206,21.205146],[107.455333,21.275702],[107.523204,21.230862],[107.532725,21.19892]]],[[[107.783946,21.35635],[107.817068,21.348538],[107.711436,21.307563],[107.783946,21.35635]]],[[[107.826915,21.37641],[107.998302,21.403754],[107.944184,21.368109],[107.841156,21.348538],[107.872813,21.374213],[107.826915,21.37641]]],[[[107.357107,20.829332],[107.380219,20.797553],[107.341075,20.842597],[107.357107,20.829332]]],[[[107.382172,20.887885],[107.389985,20.867418],[107.367686,20.858385],[107.33253,20.883287],[107.382172,20.887885]]],[[[107.81658,21.005845],[107.856293,21.033271],[107.817719,20.988267],[107.81658,21.005845]]]]}},{"type":"Feature","properties":{"country_code":"VN","region_code":"VN-52","name":"Sóc Trăng","native_name":"Sóc Trăng","type":"Province"},"geometry":{"type":"MultiPolygon","coordinates":[[[[106.210704,9.620917],[106.292003,9.586412],[106.284434,9.543687],[106.244151,9.53498],[106.249197,9.560126],[106.197032,9.610053],[106.226573,9.565172],[106.196625,9.571682],[106.125987,9.672431],[106.093435,9.760891],[106.210704,9.620917]]],[[[105.902105,9.916699],[106.073497,9.747952],[106.197032,9.541164],[106.210704,9.470038],[106.1692,9.418199],[106.194591,9.398993],[106.18393,9.362209],[105.868256,9.254706],[105.823029,9.378033],[105.692391,9.383949],[105.599736,9.418004],[105.577566,9.459268],[105.569298,9.610421],[105.826285,9.723696],[105.902105,9.916699]]],[[[106.662608,8.739814],[106.639171,8.737454],[106.655772,8.698879],[106.602306,8.694729],[106.603038,8.655707],[106.57838,8.655463],[106.570974,8.705959],[106.658376,8.766669],[106.662608,8.739814]]]]}},{"type":"Feature","properties":{"country_code":"VN","region_code":"VN-46","name":"Tiền Giang","native_name":"Tiền Giang","type":"Province"},"geometry":{"type":"MultiPolygon","coordinates":[[[[106.511729,10.295885],[106.755544,10.257554],[106.752452,10.23607],[106.724132,10.226508],[106.511729,10.295885]]],[[[106.58474,10.414429],[106.648936,10.474066],[106.670177,10.432563],[106.741059,10.468004],[106.788097,10.393134],[106.790782,10.284857],[106.598318,10.28852],[106.35434,10.338975],[106.158214,10.298122],[106.003429,10.321072],[105.954908,10.28852],[105.897857,10.290302],[105.849023,10.301439],[105.839307,10.344149],[105.948551,10.480704],[105.962659,10.553465],[106.078414,10.54393],[106.1458,10.589948],[106.301243,10.57628],[106.355917,10.506775],[106.440614,10.471764],[106.452242,10.416367],[106.58474,10.414429]]]]}},{"type":"Feature","properties":{"country_code":"VN","region_code":"VN-43","name":"Bà Rịa-Vũng Tàu","native_name":"Bà Rịa - Vũng Tàu","type":"Province"},"geometry":{"type":"MultiPolygon","coordinates":[[[[107.172048,10.464586],[107.211192,10.425605],[107.190196,10.433051],[107.087169,10.323188],[107.079356,10.391018],[107.149669,10.416571],[107.172048,10.464586]]],[[[107.002547,10.624885],[107.025076,10.603909],[107.019054,10.533881],[106.991466,10.570258],[107.002547,10.624885]]],[[[107.031912,10.474066],[107.031912,10.607489],[107.011404,10.637885],[107.116697,10.665112],[107.15101,10.727666],[107.254467,10.773813],[107.28878,10.759008],[107.300149,10.696402],[107.342472,10.683741],[107.457865,10.801512],[107.516569,10.756062],[107.586518,10.573513],[107.511404,10.501654],[107.334158,10.453559],[107.271983,10.378485],[107.190196,10.405178],[107.21754,10.425605],[107.21697,10.434475],[107.175955,10.477444],[107.059825,10.480862],[107.059825,10.508205],[107.031912,10.474066]]]]}},{"type":"Feature","properties":{"country_code":"VN","region_code":"VN-SG","name":"Ho Chi Minh","native_name":"Hồ Chí Minh city","type":"City|Municipality|Thanh Pho"},"geometry":{"type":"MultiPolygon","coordinates":[[[[106.93629,10.439276],[106.977306,10.405178],[106.88795,10.370998],[106.874278,10.425605],[106.895274,10.480862],[106.88795,10.46662],[106.879405,10.490058],[106.927501,10.521186],[106.94809,10.507025],[106.922048,10.425605],[106.93629,10.439276]]],[[[106.908946,10.532375],[106.889903,10.525458],[106.85377,10.562812],[106.871267,10.607652],[106.85377,10.631049],[106.88795,10.634467],[106.929454,10.597561],[106.922048,10.542955],[106.895274,10.576483],[106.908946,10.532375]]],[[[106.8925,10.670074],[107.011404,10.521877],[106.963634,10.46662],[106.943126,10.600653],[106.881602,10.652167],[106.828624,10.630276],[106.772472,10.686347],[106.741466,10.669257],[106.772472,10.603746],[106.751964,10.576483],[106.74407,10.552232],[106.724731,10.643718],[106.645305,10.639041],[106.504538,10.723222],[106.526759,10.825644],[106.51167,10.885615],[106.363668,10.982147],[106.411727,11.045605],[106.429607,11.124205],[106.522418,11.130561],[106.721786,10.875383],[106.835991,10.887785],[106.880691,10.813707],[106.881156,10.762496],[106.793823,10.752626],[106.751138,10.772495],[106.757029,10.705393],[106.836468,10.660831],[106.8925,10.670074]]],[[[107.025645,10.50137],[106.997813,10.480862],[106.991466,10.480862],[107.004161,10.504706],[107.025645,10.50137]]],[[[106.874278,10.460395],[106.832286,10.472398],[106.819591,10.46662],[106.85963,10.431789],[106.840099,10.405178],[106.770681,10.464301],[106.751964,10.566555],[106.785899,10.601386],[106.751964,10.665839],[106.84783,10.613837],[106.840099,10.559394],[106.871837,10.515204],[106.840099,10.494534],[106.874278,10.460395]]]]}},{"type":"Feature","properties":{"country_code":"VN","region_code":"VN-34","name":"Khánh Hòa","native_name":"Khánh Hòa","type":"Province"},"geometry":{"type":"MultiPolygon","coordinates":[[[[109.245291,12.228095],[109.348888,12.200832],[109.307384,12.187161],[109.245291,12.228095]]],[[[109.384613,12.83397],[109.376231,12.77619],[109.420746,12.691311],[109.472423,12.656399],[109.451345,12.638983],[109.451345,12.570746],[109.405121,12.617987],[109.424083,12.652655],[109.403494,12.687445],[109.376231,12.673774],[109.376231,12.638983],[109.342052,12.660102],[109.389903,12.711615],[109.358897,12.797309],[109.204926,12.64643],[109.204926,12.550238],[109.218516,12.543402],[109.232188,12.591254],[109.249034,12.585517],[109.237153,12.522284],[109.29835,12.477973],[109.294281,12.439032],[109.336681,12.410142],[109.342052,12.378892],[109.32252,12.386054],[109.297374,12.35102],[109.185069,12.45893],[109.156505,12.454657],[109.170177,12.433539],[109.149669,12.440375],[109.1963,12.402777],[109.242035,12.305406],[109.204926,12.262885],[109.176931,12.276516],[109.224783,12.200832],[109.198497,12.207953],[109.188243,12.205756],[109.184337,12.193996],[109.204356,12.193793],[109.226817,12.137885],[109.220551,12.050605],[109.286794,11.967434],[109.26588,11.909898],[109.2942,11.871243],[109.224783,11.878648],[109.218516,12.015815],[109.176768,12.129462],[109.163341,12.112006],[109.208181,11.97663],[109.125824,11.863593],[109.131602,11.830024],[109.163341,11.824042],[109.204926,11.868109],[109.203868,11.788682],[109.133938,11.79251],[109.085983,11.819382],[109.050429,11.898034],[108.877933,11.95418],[108.809772,12.124325],[108.719183,12.181143],[108.668282,12.369142],[108.671228,12.468955],[108.766519,12.497015],[108.847961,12.47544],[108.906769,12.681423],[109.088618,12.76103],[109.175228,12.839242],[109.34266,12.853092],[109.384613,12.83397]]],[[[109.368907,12.627753],[109.400238,12.557929],[109.312022,12.614325],[109.368907,12.627753]]]]}},{"type":"Feature","properties":{"country_code":"VN","region_code":"VN-59","name":"Cà Mau","native_name":"Cà Mau","type":"Province"},"geometry":{"type":"Polygon","coordinates":[[[105.426036,9.008002],[105.315126,8.812237],[105.25882,8.760465],[105.184031,8.740882],[105.101472,8.634275],[104.856212,8.565579],[104.722911,8.602688],[104.835134,8.660468],[104.832774,8.698879],[104.911632,8.685207],[104.963145,8.719387],[104.907481,8.699612],[104.853282,8.712551],[104.852794,8.729193],[104.928966,8.747301],[104.92156,8.809312],[104.816661,8.771308],[104.774595,8.817867],[104.811717,8.937049],[104.834136,9.534434],[104.877867,9.506138],[105.023905,9.528256],[105.27991,9.405809],[105.304766,9.372219],[105.287248,9.330723],[105.316859,9.297211],[105.283321,9.205175],[105.316704,9.191067],[105.340578,9.085466],[105.413855,9.043944],[105.426036,9.008002]]]}},{"type":"Feature","properties":{"country_code":"VN","region_code":"VN-55","name":"Bạc Liêu","native_name":"Bạc Liêu","type":"Province"},"geometry":{"type":"Polygon","coordinates":[[[105.868256,9.254706],[105.538748,9.12934],[105.426036,9.008002],[105.413855,9.043944],[105.340578,9.085466],[105.316704,9.191067],[105.283321,9.205175],[105.316859,9.297211],[105.287248,9.330723],[105.304766,9.372219],[105.27991,9.405809],[105.298824,9.425058],[105.27836,9.4595],[105.310192,9.515518],[105.296033,9.600319],[105.462586,9.587451],[105.569298,9.610421],[105.577566,9.459268],[105.599736,9.418004],[105.692391,9.383949],[105.823029,9.378033],[105.868256,9.254706]]]}},{"type":"Feature","properties":{"country_code":"VN","region_code":"VN-73","name":"Hậu Giang","native_name":"Hau Giang","type":"Region"},"geometry":{"type":"Polygon","coordinates":[[[105.83851,10.004752],[105.819021,10.007961],[105.902105,9.916699],[105.826285,9.723696],[105.674098,9.640911],[105.392255,9.586831],[105.367605,9.701889],[105.503979,9.834258],[105.528525,9.907871],[105.518914,9.952184],[105.422783,10.043628],[105.692236,10.123181],[105.83851,10.004752]]]}},{"type":"Feature","properties":{"country_code":"VN","region_code":"VN-49","name":"Vĩnh Long","native_name":"Vĩnh Long","type":"Province"},"geometry":{"type":"Polygon","coordinates":[[[105.996568,9.888559],[105.692236,10.123181],[105.727531,10.185632],[105.818999,10.143128],[105.900957,10.160104],[105.9146,10.213951],[105.849023,10.301439],[106.100739,10.24909],[106.24643,10.07746],[106.134018,9.99368],[106.132571,9.945827],[105.996568,9.888559]]]}},{"type":"Feature","properties":{"country_code":"VN","region_code":"VN-51","name":"Trà Vinh","native_name":"Trà Vinh","type":"Province"},"geometry":{"type":"Polygon","coordinates":[[[106.24643,10.07746],[106.500987,9.834052],[106.537852,9.751166],[106.574962,9.739081],[106.563162,9.614325],[106.497244,9.549994],[106.398204,9.54206],[106.250336,9.631171],[105.996568,9.888559],[106.132571,9.945827],[106.134018,9.99368],[106.24643,10.07746]]]}},{"type":"Feature","properties":{"country_code":"VN","region_code":"VN-50","name":"Bến Tre","native_name":"Bến Tre","type":"Province"},"geometry":{"type":"MultiPolygon","coordinates":[[[[106.35434,10.338975],[106.797618,10.157213],[106.79127,10.110175],[106.737071,10.054145],[106.704112,10.048896],[106.696625,10.083645],[106.668712,10.032416],[106.684093,10.01203],[106.648936,9.974351],[106.607432,9.97484],[106.468923,10.058987],[106.359874,10.220689],[106.292003,10.261705],[106.349376,10.21483],[106.3685,10.155911],[106.461681,10.035712],[106.6963,9.896552],[106.668712,9.842841],[106.662608,9.883734],[106.637869,9.825995],[106.586762,9.822943],[106.504405,9.905463],[106.39503,9.974351],[106.136485,10.234565],[105.954908,10.28852],[106.003429,10.321072],[106.107188,10.296251],[106.35434,10.338975]]],[[[106.442882,9.932807],[106.535655,9.829169],[106.422374,9.939032],[106.442882,9.932807]]]]}},{"type":"Feature","properties":{"country_code":"VN","region_code":"VN-39","name":"Đông Nam Bộ","native_name":"Đông Nam Bộ","type":"Region"},"geometry":{"type":"Polygon","coordinates":[[[107.011404,10.65526],[106.984141,10.566881],[106.8925,10.670074],[106.836468,10.660831],[106.757029,10.705393],[106.751138,10.772495],[106.793823,10.752626],[106.877745,10.760791],[106.885342,10.788179],[106.787518,10.980674],[106.787518,11.034676],[106.827309,11.055527],[106.902085,11.025968],[106.954692,11.064002],[106.974587,11.122422],[106.933866,11.214742],[106.964769,11.283627],[107.080214,11.402741],[107.104295,11.475424],[107.30852,11.566219],[107.382521,11.559501],[107.398024,11.505965],[107.458795,11.482529],[107.456676,11.410415],[107.609535,11.361684],[107.548247,11.289156],[107.430942,11.038086],[107.557394,10.979666],[107.590777,10.850863],[107.516569,10.756062],[107.457865,10.801512],[107.342472,10.683741],[107.300149,10.696402],[107.266559,10.774433],[107.15101,10.727666],[107.13344,10.675214],[107.040526,10.636793],[106.984141,10.699368],[107.011404,10.65526]]]}},{"type":"Feature","properties":{"country_code":"VN","region_code":"VN-40","name":"Bình Thuận","native_name":"Bình Thuận","type":"Province"},"geometry":{"type":"MultiPolygon","coordinates":[[[[108.905965,11.323377],[108.838064,11.330756],[108.787852,11.300686],[108.72934,11.181545],[108.656261,11.192816],[108.531261,11.153266],[108.472341,11.053168],[108.368826,11.022773],[108.344981,10.953803],[108.300059,10.912828],[108.258637,10.951809],[108.106456,10.918158],[107.998302,10.699368],[107.882335,10.716986],[107.586518,10.573513],[107.516569,10.756062],[107.590777,10.850863],[107.5884,10.911763],[107.544991,10.992146],[107.476985,11.001448],[107.430942,11.038086],[107.597288,11.357576],[107.756348,11.314917],[108.010183,11.301481],[108.045891,11.283704],[108.066045,11.203399],[108.131829,11.269364],[108.324892,11.356258],[108.33869,11.379306],[108.31466,11.466897],[108.34117,11.507928],[108.513718,11.52772],[108.580432,11.505215],[108.620171,11.564023],[108.666887,11.562835],[108.704921,11.536712],[108.721509,11.476638],[108.762902,11.458603],[108.771893,11.407779],[108.867908,11.387987],[108.905965,11.323377]]],[[[108.942556,10.551947],[108.958995,10.537543],[108.960785,10.502875],[108.930186,10.514553],[108.942556,10.551947]]]]}},{"type":"Feature","properties":{"country_code":"VN","region_code":"VN-36","name":"Ninh Thuận","native_name":"Ninh Thuận","type":"Province"},"geometry":{"type":"Polygon","coordinates":[[[109.203868,11.788682],[109.242931,11.735663],[109.135997,11.570217],[109.067068,11.583808],[109.043468,11.638495],[109.020274,11.632799],[109.040375,11.542873],[109.012462,11.542873],[109.028331,11.47427],[109.005626,11.343655],[108.93336,11.311184],[108.867908,11.387987],[108.778611,11.401966],[108.696963,11.547771],[108.620171,11.564023],[108.606994,11.614382],[108.68332,11.727114],[108.63738,11.8392],[108.681305,11.973171],[108.694792,12.155331],[108.719183,12.181143],[108.792254,12.145538],[108.890956,11.943121],[109.050429,11.898034],[109.114095,11.797962],[109.203868,11.788682]]]}},{"type":"Feature","properties":{"country_code":"VN","region_code":"VN-32","name":"Phú Yên","native_name":"Phú Yên","type":"Province"},"geometry":{"type":"Polygon","coordinates":[[[109.237071,13.698594],[109.247569,13.622707],[109.303884,13.568793],[109.2942,13.530341],[109.218516,13.646959],[109.210134,13.630805],[109.286794,13.509223],[109.31422,13.522895],[109.303722,13.479885],[109.339692,13.465481],[109.307384,13.406806],[109.273204,13.431057],[109.300466,13.461371],[109.245128,13.485175],[109.232188,13.393134],[109.307384,13.352769],[109.2942,13.297553],[109.258962,13.297553],[109.2942,13.2355],[109.303722,13.303168],[109.318126,13.288886],[109.307384,13.133043],[109.465017,12.913316],[109.462901,12.862128],[109.430919,12.84512],[109.438243,12.878607],[109.384613,12.83397],[109.34266,12.853092],[109.195692,12.846813],[109.07389,12.75408],[108.861604,12.806996],[108.739182,12.880351],[108.660841,12.996235],[108.687816,13.071295],[108.874833,13.211313],[108.821709,13.430498],[108.825637,13.557519],[108.977824,13.542559],[109.080712,13.587078],[109.163136,13.6733],[109.237071,13.698594]]]}},{"type":"Feature","properties":{"country_code":"VN","region_code":"VN-31","name":"Bình Định","native_name":"Bình Định","type":"Province"},"geometry":{"type":"Polygon","coordinates":[[[109.077322,14.672471],[109.088227,14.58926],[109.076671,14.585679],[109.061046,14.563707],[109.074474,14.578599],[109.125743,14.465399],[109.136485,14.366848],[109.190603,14.291246],[109.190929,14.220526],[109.239024,14.133002],[109.17449,14.172065],[109.252696,14.03262],[109.266368,13.920722],[109.307384,13.87637],[109.303966,13.759263],[109.269786,13.755601],[109.251475,13.890937],[109.220714,13.806138],[109.258962,13.77733],[109.226248,13.743598],[109.237071,13.698594],[109.163136,13.6733],[109.062263,13.574211],[108.909714,13.53783],[108.825637,13.557519],[108.79861,13.774818],[108.715773,13.906955],[108.714998,14.008473],[108.643581,14.109449],[108.634744,14.21753],[108.687144,14.45718],[108.666887,14.595957],[108.814165,14.673342],[109.077322,14.672471]]]}},{"type":"Feature","properties":{"country_code":"VN","region_code":"VN-29","name":"Quảng Ngãi","native_name":"Quảng Ngãi","type":"Province"},"geometry":{"type":"Polygon","coordinates":[[[108.761567,15.396552],[108.779796,15.325344],[108.78712,15.345852],[108.8213,15.345852],[108.788585,15.374172],[108.814464,15.407904],[108.800141,15.429023],[108.827485,15.429023],[108.839041,15.374335],[108.882823,15.336168],[108.886567,15.2862],[108.951671,15.25023],[108.903331,15.222886],[108.924327,15.201809],[108.910004,15.209296],[108.897716,15.153998],[108.862478,15.152493],[108.897716,15.119859],[108.910004,15.146633],[108.942638,14.97956],[109.005626,14.838772],[108.985525,14.836615],[109.080821,14.729478],[109.095063,14.667426],[109.076427,14.685614],[108.814165,14.673342],[108.666887,14.595957],[108.618156,14.640605],[108.548651,14.825555],[108.464832,14.857285],[108.392537,14.964255],[108.296574,15.048126],[108.325977,15.096495],[108.276161,15.178144],[108.371401,15.312735],[108.761567,15.396552]]]}},{"type":"Feature","properties":{"country_code":"VN","region_code":"VN-DN","name":"Da Nang","native_name":"Đà Nẵng","type":"City|Municipality|Thanh Pho"},"geometry":{"type":"Polygon","coordinates":[[[108.200125,16.211575],[108.142263,16.148383],[108.142833,16.119371],[108.19752,16.072008],[108.228282,16.089748],[108.233246,16.037095],[108.19752,16.00373],[108.258962,16.010565],[108.247325,16.123236],[108.224864,16.127265],[108.245372,16.162014],[108.317393,16.134711],[108.331391,16.155341],[108.348399,16.134711],[108.31422,16.099921],[108.265798,16.107408],[108.282319,15.990058],[108.055348,15.978095],[108.015919,16.002744],[108.000881,16.089974],[107.856239,16.087649],[107.95308,16.21591],[108.200125,16.211575]]]}},{"type":"Feature","properties":{"country_code":"VN","region_code":"VN-18","name":"Ninh Bình","native_name":"Ninh Bình","type":"Province"},"geometry":{"type":"Polygon","coordinates":[[[106.152467,20.126705],[106.083507,19.964993],[106.052745,19.977281],[106.034541,20.000097],[106.068389,20.027796],[106.059966,20.060249],[105.819464,20.155643],[105.542633,20.367103],[105.585938,20.38457],[105.695027,20.320982],[105.715646,20.335297],[105.713475,20.419632],[105.759416,20.441517],[105.841323,20.419477],[105.951187,20.336769],[105.977129,20.271399],[106.05733,20.239643],[106.093969,20.252408],[106.155102,20.217603],[106.152467,20.126705]]]}},{"type":"Feature","properties":{"country_code":"VN","region_code":"VN-67","name":"Nam Định","native_name":"Nam Định","type":"Province"},"geometry":{"type":"Polygon","coordinates":[[[106.455291,20.28455],[106.548513,20.291449],[106.569615,20.231994],[106.380707,20.211982],[106.259288,20.061265],[106.197032,20.012763],[106.203298,20.047512],[106.176036,19.992336],[106.107107,19.964993],[106.162337,20.17373],[106.155102,20.217603],[105.963796,20.282612],[105.952427,20.390849],[105.978989,20.426273],[106.026324,20.41276],[106.07087,20.483298],[106.184454,20.490868],[106.217786,20.468596],[106.219646,20.413664],[106.279539,20.392606],[106.267602,20.331576],[106.349406,20.364545],[106.455291,20.28455]]]}},{"type":"Feature","properties":{"country_code":"VN","region_code":"VN-20","name":"Thái Bình","native_name":"Thái Bình","type":"Province"},"geometry":{"type":"Polygon","coordinates":[[[106.593598,20.646715],[106.624766,20.594631],[106.518565,20.540961],[106.579926,20.547187],[106.579926,20.478258],[106.518565,20.437323],[106.594249,20.448188],[106.584158,20.381822],[106.559581,20.375922],[106.583766,20.337975],[106.581659,20.264177],[106.521658,20.313463],[106.455291,20.28455],[106.349406,20.364545],[106.267602,20.331576],[106.279539,20.392606],[106.219646,20.413664],[106.214737,20.474926],[106.184454,20.490868],[106.112366,20.631609],[106.138669,20.666827],[106.417205,20.719278],[106.468985,20.600655],[106.593598,20.646715]]]}},{"type":"Feature","properties":{"country_code":"VN","region_code":"VN-HP","name":"Haiphong","native_name":"Hải Phòng","type":"Province"},"geometry":{"type":"Polygon","coordinates":[[[106.605256,21.025435],[106.682953,21.005845],[106.655772,21.005845],[106.67628,20.958726],[106.755138,20.938544],[106.744477,20.883002],[106.717784,20.90351],[106.699962,20.882758],[106.744477,20.848863],[106.749197,20.804348],[106.717784,20.807847],[106.778575,20.746405],[106.805919,20.677558],[106.7671,20.713446],[106.662608,20.697984],[106.702891,20.671576],[106.669688,20.636461],[106.620942,20.629788],[106.586762,20.663275],[106.593598,20.646715],[106.537301,20.612437],[106.468985,20.600655],[106.417205,20.719278],[106.469295,20.725867],[106.535596,20.782272],[106.49658,20.860484],[106.534821,20.888364],[106.544432,20.948179],[106.586807,20.963759],[106.605256,21.025435]]]}},{"type":"Feature","properties":{"country_code":"VN","region_code":"VN-14","name":"Hòa Bình","native_name":"Hòa Bình","type":"Province"},"geometry":{"type":"Polygon","coordinates":[[[105.841323,20.419477],[105.759416,20.441517],[105.713475,20.419632],[105.715646,20.335297],[105.674511,20.324289],[105.585938,20.38457],[105.491267,20.373666],[105.308797,20.456323],[105.152063,20.586522],[104.939156,20.59094],[104.842934,20.625718],[104.857404,20.727882],[104.994398,20.732895],[105.0931,20.794312],[104.913524,20.963785],[104.880141,21.022516],[104.908615,21.1014],[104.942256,21.053599],[105.13811,20.940479],[105.332672,20.918827],[105.307919,21.011922],[105.375977,21.022567],[105.504496,20.987246],[105.533486,20.927121],[105.505736,20.862499],[105.515968,20.828626],[105.629656,20.742119],[105.679782,20.637655],[105.785822,20.568306],[105.841323,20.419477]]]}},{"type":"Feature","properties":{"country_code":"VN","region_code":"VN-07","name":"Tuyên Quang","native_name":"Tuyên Quang","type":"Province"},"geometry":{"type":"Polygon","coordinates":[[[105.111755,21.703947],[105.085503,21.750094],[105.09341,21.814534],[104.996878,21.923959],[104.982616,22.007365],[104.883759,22.089376],[104.848257,22.170223],[104.929234,22.268021],[104.945667,22.344657],[105.048865,22.357034],[105.179554,22.645311],[105.343575,22.600998],[105.567644,22.592239],[105.609296,22.469972],[105.499793,22.295203],[105.488631,22.154359],[105.557516,21.950883],[105.522324,21.60757],[105.577721,21.543827],[105.460364,21.497164],[105.317427,21.514139],[105.233195,21.618732],[105.111755,21.703947]]]}},{"type":"Feature","properties":{"country_code":"VN","region_code":"VN-06","name":"Yên Bái","native_name":"Yên Bái","type":"Province"},"geometry":{"type":"Polygon","coordinates":[[[104.848257,22.170223],[104.883759,22.089376],[104.982616,22.007365],[104.996878,21.923959],[105.09341,21.814534],[105.085503,21.750094],[105.111755,21.703947],[104.946597,21.640256],[104.903034,21.595995],[104.888099,21.522976],[104.919312,21.397919],[104.828516,21.329603],[104.779372,21.334848],[104.735602,21.391046],[104.673642,21.382623],[104.582278,21.413215],[104.469727,21.362262],[104.357124,21.416393],[104.310977,21.495536],[104.349838,21.671029],[104.307153,21.709709],[104.169797,21.659298],[103.925264,21.719786],[103.953686,21.77973],[103.911467,21.861147],[103.983865,21.97424],[104.051768,21.928378],[104.196979,21.88714],[104.232222,21.960184],[104.394176,21.898612],[104.443889,21.970752],[104.380999,22.099685],[104.398879,22.134825],[104.453036,22.148752],[104.56538,22.100047],[104.645427,22.17242],[104.628477,22.257918],[104.650853,22.268641],[104.707955,22.253862],[104.770174,22.181385],[104.848257,22.170223]]]}},{"type":"Feature","properties":{"country_code":"VN","region_code":"VN-70","name":"Vĩnh Phúc","native_name":"Vĩnh Phúc","type":"Province"},"geometry":{"type":"Polygon","coordinates":[[[105.429391,21.276438],[105.45747,21.311723],[105.392151,21.408771],[105.343679,21.434687],[105.317427,21.514139],[105.460364,21.497164],[105.577721,21.543827],[105.764222,21.384922],[105.77988,21.179121],[105.762671,21.104965],[105.670171,21.157624],[105.494522,21.173695],[105.429391,21.276438]]]}},{"type":"Feature","properties":{"country_code":"VN","region_code":"VN-68","name":"Phú Thọ","native_name":"Phú Thọ","type":"Province"},"geometry":{"type":"Polygon","coordinates":[[[105.317427,21.514139],[105.343679,21.434687],[105.392151,21.408771],[105.45778,21.300406],[105.429391,21.276438],[105.414682,21.307227],[105.353807,21.301413],[105.343162,21.238213],[105.284871,21.191549],[105.305955,21.126669],[105.284871,21.054374],[105.329881,20.981407],[105.332672,20.918827],[105.13811,20.940479],[104.942256,21.053599],[104.87363,21.137625],[104.865775,21.250202],[104.828516,21.329603],[104.919312,21.397919],[104.88996,21.567056],[104.946597,21.640256],[105.111755,21.703947],[105.233195,21.618732],[105.317427,21.514139]]]}},{"type":"Feature","properties":{"country_code":"VN","region_code":"VN-HN","name":"Hanoi","native_name":"Ha Noi","type":"Province"},"geometry":{"type":"Polygon","coordinates":[[[105.785822,20.568306],[105.679782,20.637655],[105.629656,20.742119],[105.515968,20.828626],[105.505736,20.862499],[105.533486,20.927121],[105.504496,20.987246],[105.43711,21.018562],[105.307919,21.011922],[105.290969,21.038199],[105.305955,21.126669],[105.284871,21.191549],[105.343162,21.238213],[105.353807,21.301413],[105.414682,21.307227],[105.455817,21.208577],[105.494522,21.173695],[105.670171,21.157624],[105.762671,21.104965],[105.772128,21.362469],[105.848351,21.363632],[105.920801,21.328052],[105.946071,21.265782],[105.922041,21.150466],[106.012785,21.016909],[106.004724,20.991303],[105.91243,20.96593],[105.895325,20.914357],[105.924729,20.88671],[105.915065,20.809635],[105.956148,20.786819],[105.981314,20.717185],[106.007204,20.713232],[105.976508,20.681012],[105.82551,20.660341],[105.785822,20.568306]]]}},{"type":"Feature","properties":{"country_code":"VN","region_code":"VN-53","name":"Northeast Vietnam","native_name":"Đông Bắc","type":"Region"},"geometry":{"type":"Polygon","coordinates":[[[105.557516,21.950883],[105.494987,22.101209],[105.494677,22.268564],[105.609296,22.469972],[105.567644,22.592239],[105.648466,22.677944],[105.724948,22.724143],[105.773833,22.713704],[105.765255,22.617302],[105.815123,22.505267],[105.861477,22.475011],[106.048184,22.540227],[106.107922,22.530563],[106.137739,22.431835],[106.192981,22.406695],[106.260005,22.262104],[106.190449,22.111777],[106.123476,22.054313],[106.113968,21.948118],[106.035936,21.928016],[105.813728,21.779265],[105.787063,21.827738],[105.772903,21.977806],[105.734869,22.019742],[105.645056,22.019509],[105.557516,21.950883]]]}},{"type":"Feature","properties":{"country_code":"VN","region_code":"VN-66","name":"Red River Delta","native_name":"Đồng Bằng Sông Hồng","type":"Region"},"geometry":{"type":"Polygon","coordinates":[[[106.25737,20.695895],[106.206469,20.667214],[106.138669,20.666827],[106.112366,20.631609],[106.059656,20.616623],[106.026996,20.663287],[106.0302,20.70809],[105.981314,20.717185],[105.956148,20.786819],[105.915065,20.809635],[105.924729,20.88671],[105.895325,20.914357],[105.91243,20.96593],[106.022759,20.997737],[106.152157,20.997814],[106.159598,20.926191],[106.126577,20.813536],[106.25737,20.695895]]]}},{"type":"Feature","properties":{"country_code":"VN","region_code":"VN-56","name":"Bắc Ninh","native_name":"Bắc Ninh","type":"Province"},"geometry":{"type":"Polygon","coordinates":[[[106.295042,21.000527],[106.004724,20.991303],[106.010305,21.045692],[105.922041,21.150466],[105.944986,21.247489],[106.046633,21.206432],[106.227553,21.177881],[106.298039,21.134059],[106.315816,21.050524],[106.295042,21.000527]]]}},{"type":"Feature","properties":{"country_code":"VN","region_code":"VN-54","name":"Bắc Giang","native_name":"Bắc Giang","type":"Province"},"geometry":{"type":"Polygon","coordinates":[[[107.065331,21.360531],[106.998617,21.314668],[106.94787,21.189689],[106.7592,21.16168],[106.422166,21.230952],[106.32951,21.188009],[106.298039,21.134059],[106.227553,21.177881],[106.046633,21.206432],[105.944986,21.247489],[105.920801,21.328052],[105.971082,21.408771],[106.035471,21.419494],[106.067149,21.461378],[106.050354,21.632685],[106.143785,21.62098],[106.165489,21.517137],[106.291941,21.477475],[106.398705,21.411071],[106.477977,21.448304],[106.522108,21.544913],[106.580399,21.599095],[106.658741,21.607364],[106.747727,21.549253],[106.827929,21.597157],[106.92198,21.445022],[107.006833,21.441766],[107.024093,21.376163],[107.065331,21.360531]]]}},{"type":"Feature","properties":{"country_code":"VN","region_code":"VN-69","name":"Thái Nguyên","native_name":"Thái Nguyên","type":"Province"},"geometry":{"type":"Polygon","coordinates":[[[105.740037,21.417556],[105.537052,21.578683],[105.518293,21.635501],[105.534365,21.866779],[105.557516,21.950883],[105.68371,22.030749],[105.717196,22.030335],[105.772903,21.977806],[105.806906,21.78004],[106.001468,21.88776],[106.035936,21.928016],[106.113968,21.948118],[106.141925,21.805336],[106.256698,21.684878],[106.167505,21.570777],[106.143785,21.62098],[106.041517,21.628422],[106.067149,21.461378],[106.035471,21.419494],[105.971082,21.408771],[105.920801,21.328052],[105.848351,21.363632],[105.772128,21.362469],[105.740037,21.417556]]]}},{"type":"Feature","properties":{"country_code":"VN","region_code":"VN-61","name":"Hải Dương","native_name":"Hải Dương","type":"Province"},"geometry":{"type":"Polygon","coordinates":[[[106.469295,20.725867],[106.25737,20.695895],[106.122029,20.832837],[106.159598,20.926191],[106.152157,20.997814],[106.295042,21.000527],[106.315816,21.050524],[106.298039,21.134059],[106.32951,21.188009],[106.457719,21.232709],[106.545828,21.19372],[106.505623,21.138788],[106.446351,21.107601],[106.44449,21.064373],[106.605256,21.025435],[106.593008,20.973526],[106.544432,20.948179],[106.534821,20.888364],[106.490741,20.844309],[106.540712,20.804028],[106.535596,20.782272],[106.469295,20.725867]]]}},{"type":"Feature","properties":{"country_code":"VN","region_code":"VN-63","name":"Hà Nam","native_name":"Hà Nam","type":"Province"},"geometry":{"type":"Polygon","coordinates":[[[105.951187,20.336769],[105.841323,20.419477],[105.785822,20.568306],[105.82551,20.660341],[105.954598,20.67494],[106.020227,20.712457],[106.059656,20.616623],[106.125337,20.625124],[106.184454,20.490868],[106.07087,20.483298],[106.014026,20.405447],[105.978989,20.426273],[105.951187,20.336769]]]}},{"type":"Feature","properties":{"country_code":"VN","region_code":"VN-57","name":"Bình Dương","native_name":"Bình Dương","type":"Province"},"geometry":{"type":"Polygon","coordinates":[[[106.591923,11.033797],[106.513737,11.135832],[106.429607,11.124205],[106.346718,11.272697],[106.35292,11.381399],[106.464334,11.553326],[106.524692,11.481832],[106.619053,11.43137],[106.638277,11.319645],[106.677551,11.325304],[106.696206,11.360831],[106.725352,11.337319],[106.71822,11.306907],[106.791291,11.335303],[106.964769,11.283627],[106.931127,11.198438],[106.974587,11.122422],[106.954692,11.064002],[106.902085,11.025968],[106.827309,11.055527],[106.784004,11.025891],[106.835991,10.887785],[106.712329,10.880964],[106.616108,11.031007],[106.591923,11.033797]]]}},{"type":"Feature","properties":{"country_code":"VN","region_code":"VN-35","name":"Lâm Đồng","native_name":"Lâm Đồng","type":"Province"},"geometry":{"type":"Polygon","coordinates":[[[108.719183,12.181143],[108.686731,12.140396],[108.681305,11.973171],[108.63738,11.8392],[108.68332,11.727114],[108.610094,11.640143],[108.620171,11.564023],[108.599501,11.52077],[108.34117,11.507928],[108.31373,11.449043],[108.335744,11.36866],[108.25053,11.306519],[108.131829,11.269364],[108.078292,11.207301],[108.057053,11.205053],[108.052557,11.270992],[108.010183,11.301481],[107.726841,11.31949],[107.456676,11.410415],[107.458795,11.482529],[107.398024,11.505965],[107.382521,11.559501],[107.30852,11.566219],[107.281648,11.627895],[107.327589,11.717812],[107.56344,11.786904],[107.701984,11.906922],[107.735833,11.905966],[107.771696,11.849975],[107.884816,11.861809],[107.914891,11.793182],[108.008477,11.773623],[108.079533,11.850491],[108.092813,11.922399],[107.985533,12.06469],[107.998607,12.125746],[108.113949,12.143445],[108.148262,12.171221],[108.242468,12.157036],[108.262467,12.197499],[108.322567,12.232716],[108.409125,12.235352],[108.515733,12.300283],[108.603532,12.271396],[108.694327,12.298345],[108.719183,12.181143]]]}},{"type":"Feature","properties":{"country_code":"VN","region_code":"VN-CT","name":"Cần Thơ","native_name":"Can Tho","type":"Province"},"geometry":{"type":"Polygon","coordinates":[[[105.422783,10.043628],[105.241463,10.19961],[105.320269,10.276944],[105.377527,10.233122],[105.429978,10.273533],[105.473438,10.275342],[105.534106,10.402802],[105.582992,10.44652],[105.711615,10.402337],[105.78236,10.330765],[105.849023,10.301439],[105.9146,10.213951],[105.909432,10.171834],[105.867885,10.140725],[105.727531,10.185632],[105.692236,10.123181],[105.422783,10.043628]]]}}]}